{"type": "Feature", "properties": {"name": "Ansbach", "source": "OpenStreetMap / Nominatim", "osm_display_name": "Ansbach, Bayern, 91522, Deutschland", "osm_id": 62654, "osm_type": "relation"}, "geometry": {"type": "Polygon", "coordinates": [[[10.4543048, 49.2855112], [10.4556809, 49.2841992], [10.4557426, 49.2841528], [10.4575126, 49.2827368], [10.4601064, 49.2803322], [10.461306, 49.2791903], [10.4615445, 49.2789484], [10.4621687, 49.2782618], [10.4622284, 49.2781963], [10.4623137, 49.2781114], [10.4629003, 49.2783163], [10.4629221, 49.2783226], [10.4636893, 49.2787444], [10.4638318, 49.2788301], [10.4638371, 49.2788092], [10.4639225, 49.2786674], [10.4642111, 49.2782593], [10.4643075, 49.2781473], [10.4644804, 49.2779688], [10.4640031, 49.2776975], [10.4636272, 49.2774734], [10.4634788, 49.2773796], [10.4633337, 49.2772845], [10.463112, 49.2771215], [10.4629096, 49.2769377], [10.4627087, 49.2767107], [10.4625901, 49.2765855], [10.462802, 49.2764892], [10.4628933, 49.2764432], [10.4632468, 49.276278], [10.4634634, 49.2761682], [10.463772, 49.2760482], [10.4640577, 49.2759688], [10.4643589, 49.2758859], [10.4648089, 49.2757661], [10.4652524, 49.2756404], [10.466206, 49.2759959], [10.4667568, 49.2763954], [10.467504, 49.276487], [10.4679221, 49.2767238], [10.4682123, 49.2770323], [10.4683491, 49.2772994], [10.4687219, 49.2774999], [10.4691136, 49.2773613], [10.4691898, 49.2767245], [10.4692106, 49.2759051], [10.4700134, 49.2759578], [10.4700683, 49.2762465], [10.4706058, 49.2763339], [10.4708263, 49.2755844], [10.4709177, 49.2752601], [10.4718056, 49.2753833], [10.4718513, 49.275249], [10.4721309, 49.2744828], [10.4734917, 49.2746604], [10.4743275, 49.2748693], [10.4746538, 49.2749826], [10.4748872, 49.2750638], [10.4738763, 49.2753145], [10.4750061, 49.2761649], [10.4746964, 49.2764067], [10.4743368, 49.2766493], [10.47407, 49.2768199], [10.4736613, 49.2770573], [10.4734341, 49.2771654], [10.4732683, 49.2772445], [10.4732316, 49.2772742], [10.4732076, 49.2773095], [10.4731985, 49.2773475], [10.4732191, 49.2774765], [10.4732459, 49.277584], [10.4732411, 49.2776258], [10.4733925, 49.2776865], [10.4734302, 49.2776964], [10.4734561, 49.2776984], [10.4734709, 49.2776996], [10.473511, 49.2776957], [10.4736393, 49.2776596], [10.4739281, 49.2776543], [10.4740626, 49.2778983], [10.4741424, 49.2780835], [10.4738127, 49.2782502], [10.4736299, 49.2784538], [10.4737807, 49.2787042], [10.4739744, 49.2790147], [10.4740046, 49.2790843], [10.4740523, 49.2792344], [10.4741194, 49.2793776], [10.4742102, 49.2794909], [10.4742833, 49.2795672], [10.4743305, 49.2796328], [10.4743905, 49.2797162], [10.4746567, 49.2798648], [10.4748021, 49.2799459], [10.4751844, 49.2800947], [10.475558, 49.2801605], [10.4759303, 49.2799202], [10.4761131, 49.2795867], [10.4762128, 49.2793889], [10.4763747, 49.2790682], [10.476454, 49.2786508], [10.4765904, 49.2783295], [10.4768117, 49.2783629], [10.4773474, 49.2784439], [10.4783797, 49.2785065], [10.4783925, 49.2784817], [10.4786412, 49.2780064], [10.4786623, 49.2779811], [10.479135, 49.2774135], [10.4795881, 49.277436], [10.4803361, 49.277473], [10.4807177, 49.277737], [10.48083, 49.2777725], [10.4818891, 49.2764915], [10.4816656, 49.2763994], [10.4818268, 49.2762947], [10.4819128, 49.2762388], [10.4819618, 49.2762135], [10.4829156, 49.2748093], [10.4829691, 49.2747109], [10.4831222, 49.2744289], [10.4823357, 49.2740504], [10.481942, 49.2740654], [10.4819875, 49.2744034], [10.480517, 49.2743046], [10.4804567, 49.2743006], [10.4805242, 49.273935], [10.4806138, 49.2739404], [10.4808052, 49.273952], [10.4809684, 49.273962], [10.4812572, 49.2736942], [10.4813514, 49.2736376], [10.4811478, 49.2736193], [10.4793922, 49.2734927], [10.4784974, 49.2734391], [10.4779226, 49.2734046], [10.4777509, 49.2734048], [10.4775984, 49.2734065], [10.4774257, 49.2733981], [10.477031, 49.2733729], [10.4768981, 49.2732685], [10.476584, 49.2730188], [10.476163, 49.2727029], [10.4761334, 49.2726613], [10.4760471, 49.2725881], [10.475987, 49.2725179], [10.4759444, 49.272422], [10.4758775, 49.2722633], [10.4757652, 49.2720641], [10.4756312, 49.2717296], [10.475515, 49.2716604], [10.4753175, 49.2715429], [10.4749223, 49.2715139], [10.4744959, 49.2714255], [10.47405, 49.2711562], [10.4739488, 49.2710067], [10.4738181, 49.270814], [10.4733577, 49.2706199], [10.4730069, 49.2702569], [10.4726986, 49.2698469], [10.4722873, 49.2695467], [10.4729023, 49.2696513], [10.4730534, 49.2696697], [10.4731424, 49.2696789], [10.4732194, 49.2689682], [10.4735976, 49.2688113], [10.4735782, 49.2686045], [10.4735703, 49.2684561], [10.473567, 49.2683942], [10.4732894, 49.2682928], [10.473635, 49.2676721], [10.4736729, 49.2676056], [10.473859, 49.2672785], [10.4716615, 49.2669964], [10.472502, 49.2656121], [10.4725669, 49.2655091], [10.4726445, 49.2654902], [10.4726803, 49.2654867], [10.4728096, 49.2654918], [10.4728445, 49.2654984], [10.4730713, 49.2655804], [10.4732087, 49.2655943], [10.4732452, 49.2656042], [10.4732765, 49.2656196], [10.4734214, 49.2657354], [10.473975, 49.2659287], [10.4742654, 49.2660791], [10.474558, 49.2662715], [10.4749513, 49.266462], [10.4753081, 49.2664924], [10.4753427, 49.2665008], [10.4755052, 49.266571], [10.4756887, 49.2665921], [10.4757225, 49.2666005], [10.4757532, 49.2666134], [10.4758863, 49.2666961], [10.4760462, 49.2667165], [10.4761595, 49.2667126], [10.476197, 49.2667166], [10.476233, 49.2667259], [10.476449, 49.2668192], [10.4768767, 49.2668796], [10.4771792, 49.2669743], [10.4778884, 49.2671648], [10.4785788, 49.2672769], [10.478605, 49.2672852], [10.4788369, 49.2674125], [10.4789294, 49.2674407], [10.4791103, 49.2674491], [10.4798627, 49.2673447], [10.4798892, 49.2673443], [10.4799549, 49.2673082], [10.4799885, 49.2672974], [10.4806953, 49.2671798], [10.4809916, 49.2671104], [10.4808266, 49.266861], [10.4814072, 49.2668782], [10.4816212, 49.2668845], [10.4820924, 49.2671813], [10.4822548, 49.2672674], [10.4822602, 49.2672263], [10.4822549, 49.2670549], [10.4822588, 49.2669561], [10.4825177, 49.2669256], [10.4829252, 49.2668808], [10.4836352, 49.2668515], [10.4838088, 49.2668443], [10.4839231, 49.2671649], [10.4846023, 49.2667679], [10.4847521, 49.2669588], [10.4848501, 49.2670516], [10.4851684, 49.2671953], [10.4854546, 49.2672332], [10.4856389, 49.2672316], [10.4858677, 49.2674975], [10.4865085, 49.2680456], [10.4872654, 49.2680959], [10.4872379, 49.2678258], [10.4868454, 49.2677669], [10.4868259, 49.2676401], [10.4868164, 49.2675777], [10.4881848, 49.2673887], [10.489538, 49.2671786], [10.4900056, 49.267092], [10.490386, 49.2671012], [10.4910746, 49.2671392], [10.4914619, 49.2671825], [10.4918517, 49.2672264], [10.4921938, 49.2667696], [10.4923019, 49.2664121], [10.4923442, 49.266101], [10.4923579, 49.2659997], [10.4925113, 49.2657337], [10.4926883, 49.2658936], [10.4929894, 49.266021], [10.493273, 49.2661233], [10.4936011, 49.2661683], [10.4940624, 49.2661644], [10.4943914, 49.266174], [10.4945631, 49.2663246], [10.4947614, 49.2665599], [10.4950021, 49.2668202], [10.4951515, 49.2668719], [10.495189, 49.2668725], [10.4953275, 49.2668305], [10.495469, 49.2667629], [10.496147, 49.2664231], [10.4965169, 49.2662288], [10.4966314, 49.2661589], [10.4972133, 49.2657291], [10.4974521, 49.2655987], [10.4977054, 49.2654695], [10.4979822, 49.2653622], [10.4981579, 49.265305], [10.4983684, 49.2652656], [10.4987518, 49.2652464], [10.4988612, 49.2652438], [10.498995, 49.2652424], [10.4991603, 49.2652669], [10.4993487, 49.2653186], [10.4995378, 49.2653761], [10.499564, 49.2653898], [10.4995839, 49.2654064], [10.4997151, 49.2655154], [10.4998711, 49.2656804], [10.5000713, 49.2659307], [10.5002247, 49.2660635], [10.5004917, 49.2661369], [10.5008918, 49.2659857], [10.5011692, 49.2658442], [10.5015317, 49.2656421], [10.5017177, 49.2655013], [10.5019406, 49.2653324], [10.5022314, 49.2651267], [10.5025459, 49.2649597], [10.5029247, 49.2648218], [10.5038016, 49.2646485], [10.5039488, 49.2646112], [10.5040073, 49.2646018], [10.5042749, 49.264559], [10.5045568, 49.2645093], [10.5044759, 49.2643387], [10.5043879, 49.2641523], [10.5044079, 49.2641506], [10.5046964, 49.2640688], [10.5047677, 49.2640388], [10.5048116, 49.2640006], [10.5048173, 49.2639823], [10.5047557, 49.2630024], [10.5047541, 49.262855], [10.5047508, 49.262707], [10.505036, 49.2627342], [10.5064866, 49.2628817], [10.5068077, 49.2619464], [10.5068361, 49.2618636], [10.5068578, 49.2618004], [10.5068795, 49.2617374], [10.5069664, 49.2614841], [10.5069591, 49.2614772], [10.5069073, 49.2614485], [10.5068124, 49.2613736], [10.5066916, 49.2612395], [10.5066001, 49.2611255], [10.5065419, 49.2610269], [10.5064849, 49.2609015], [10.5064369, 49.2607627], [10.5064121, 49.2606045], [10.5063998, 49.2604733], [10.5063661, 49.2603585], [10.5062473, 49.2602009], [10.5061178, 49.2600893], [10.5059739, 49.259922], [10.5060172, 49.2598333], [10.5064194, 49.2590084], [10.5064399, 49.2589826], [10.5064504, 49.2589738], [10.5064819, 49.258956], [10.5066313, 49.2588865], [10.5067639, 49.2589463], [10.5070399, 49.2590735], [10.5072467, 49.2591801], [10.507737, 49.2591028], [10.5093563, 49.2589294], [10.5101608, 49.2587588], [10.5106145, 49.2586241], [10.5107672, 49.2585867], [10.5109837, 49.2585058], [10.5112926, 49.2583271], [10.5117005, 49.258202], [10.5122618, 49.2581819], [10.5124409, 49.2581566], [10.5126832, 49.258144], [10.5131318, 49.2580215], [10.5133575, 49.2580188], [10.5136054, 49.2580993], [10.5137735, 49.2581032], [10.5147253, 49.2580288], [10.515903, 49.2578587], [10.5165333, 49.2577182], [10.5165544, 49.2577062], [10.5165754, 49.2576941], [10.5168211, 49.2575537], [10.5170065, 49.2576504], [10.5170904, 49.2576546], [10.517553, 49.2573755], [10.5176548, 49.2573352], [10.5179868, 49.2572621], [10.5181773, 49.257168], [10.5182512, 49.2571078], [10.5182718, 49.2570757], [10.5182637, 49.2571607], [10.5182303, 49.2574558], [10.5182375, 49.2578028], [10.5182298, 49.2579065], [10.5182911, 49.2579073], [10.5184272, 49.2578236], [10.519018, 49.2575269], [10.5194127, 49.2575964], [10.5199152, 49.257635], [10.5201709, 49.2577556], [10.5203085, 49.2578482], [10.5204331, 49.2580285], [10.5204788, 49.2580946], [10.5202271, 49.2584044], [10.5201137, 49.258704], [10.5200873, 49.2589528], [10.5201493, 49.259244], [10.5198678, 49.2592576], [10.5196972, 49.2592978], [10.5193428, 49.2593943], [10.5191688, 49.2594415], [10.5193754, 49.2594801], [10.519547, 49.259512], [10.5197852, 49.2595493], [10.5200857, 49.2596303], [10.5207637, 49.2597357], [10.5210227, 49.2597588], [10.5209925, 49.2598808], [10.5209645, 49.2599934], [10.5210734, 49.260075], [10.5211618, 49.2601689], [10.5213401, 49.2601439], [10.5215596, 49.2601188], [10.5217706, 49.2601579], [10.521891, 49.2601598], [10.5218992, 49.2602061], [10.5218995, 49.2602622], [10.5218998, 49.2603638], [10.5218432, 49.2607391], [10.5213829, 49.2610489], [10.5211565, 49.2612982], [10.5209349, 49.2617581], [10.5211873, 49.2620087], [10.5212393, 49.2622007], [10.521211, 49.2623519], [10.5211598, 49.262443], [10.5211278, 49.2625168], [10.5213099, 49.2625326], [10.5213911, 49.2625352], [10.521717, 49.2625459], [10.5221722, 49.262549], [10.5224039, 49.2625519], [10.5224853, 49.2625489], [10.5225807, 49.2623748], [10.5226097, 49.2623414], [10.522732, 49.2621998], [10.5228037, 49.2621256], [10.5229106, 49.2619989], [10.5229295, 49.2619764], [10.5229851, 49.2618958], [10.5230425, 49.2617791], [10.5230641, 49.2617075], [10.5230764, 49.2616321], [10.5230834, 49.2614862], [10.523094, 49.2608405], [10.5233513, 49.2608506], [10.5237471, 49.2608642], [10.5249321, 49.2608734], [10.5250587, 49.2608788], [10.5250999, 49.2609392], [10.5251183, 49.2609534], [10.5252535, 49.2610126], [10.5254089, 49.2610777], [10.525511, 49.2610605], [10.5258377, 49.2610188], [10.5260788, 49.2609851], [10.5261806, 49.2610183], [10.5262869, 49.2610657], [10.5263062, 49.2610782], [10.5263885, 49.2611588], [10.5265943, 49.2614144], [10.5269766, 49.2617399], [10.5271301, 49.2618637], [10.5272254, 49.2619162], [10.527285, 49.2619657], [10.5273025, 49.2619898], [10.5276397, 49.2619847], [10.527854, 49.2619758], [10.5281643, 49.261963], [10.5286586, 49.2621604], [10.5291589, 49.2623603], [10.5305367, 49.2627502], [10.531066, 49.2629293], [10.530973, 49.2631627], [10.5310174, 49.2632047], [10.5323417, 49.262973], [10.5335841, 49.2627691], [10.534361, 49.2626406], [10.5366727, 49.2619863], [10.5389426, 49.2614022], [10.541985, 49.2605363], [10.5420591, 49.2595824], [10.5420824, 49.2594371], [10.5421529, 49.2594454], [10.5422545, 49.2594464], [10.5424338, 49.259429], [10.5444308, 49.2590999], [10.5460311, 49.2587377], [10.5461179, 49.2586996], [10.5462701, 49.2586469], [10.5466285, 49.2586701], [10.5471112, 49.2587119], [10.5473581, 49.2586599], [10.5475146, 49.2586067], [10.54775, 49.2585282], [10.5480726, 49.2584205], [10.5483885, 49.2583475], [10.548437, 49.2583303], [10.5486037, 49.2583193], [10.5487931, 49.258307], [10.5491094, 49.2585288], [10.5496134, 49.2588147], [10.5499066, 49.2589166], [10.5501682, 49.2590072], [10.5502942, 49.2590507], [10.5504226, 49.2590955], [10.5505437, 49.2591392], [10.5510074, 49.2592172], [10.5518104, 49.2593451], [10.5529393, 49.2593383], [10.5539048, 49.2592303], [10.5548611, 49.2588035], [10.554883, 49.2587937], [10.5553104, 49.2584625], [10.5554067, 49.2583885], [10.5554993, 49.258316], [10.5556436, 49.2582033], [10.5557182, 49.2580397], [10.5558787, 49.2576882], [10.5559005, 49.2571771], [10.5559215, 49.2570648], [10.5559695, 49.2568088], [10.5560962, 49.2568049], [10.557193, 49.2562564], [10.5576361, 49.2560737], [10.5580456, 49.2559179], [10.5582796, 49.2558513], [10.5584449, 49.2558223], [10.5584665, 49.2558185], [10.5587199, 49.2558287], [10.5591021, 49.2558172], [10.5593081, 49.2558073], [10.5596188, 49.255803], [10.5598596, 49.2557781], [10.5600481, 49.2557368], [10.5602873, 49.2556867], [10.5603164, 49.2556745], [10.560311, 49.2556225], [10.5602687, 49.2555225], [10.559796, 49.2543374], [10.559453, 49.2538068], [10.5598524, 49.2537035], [10.5600421, 49.2536544], [10.5601172, 49.2536609], [10.560444, 49.2538768], [10.5607736, 49.254028], [10.5610356, 49.2540171], [10.5610039, 49.2538011], [10.5608777, 49.2534972], [10.5607585, 49.2532265], [10.560727, 49.2531547], [10.5607132, 49.2529434], [10.5607681, 49.2524275], [10.5609002, 49.2519137], [10.5609472, 49.2519119], [10.5610878, 49.2518907], [10.5618791, 49.251837], [10.5623266, 49.2518706], [10.5627789, 49.2518982], [10.5631716, 49.2519151], [10.5633308, 49.2519155], [10.5635802, 49.251916], [10.563786, 49.2519339], [10.5641808, 49.2519616], [10.5647238, 49.252016], [10.565488, 49.2520999], [10.5658485, 49.2521331], [10.5660792, 49.2521453], [10.566618, 49.25216], [10.5666863, 49.2521645], [10.5668954, 49.2524761], [10.5671009, 49.2527829], [10.5671645, 49.2527676], [10.5675131, 49.2526815], [10.5677039, 49.2526528], [10.5680273, 49.2526038], [10.5683382, 49.2525557], [10.5693085, 49.2524742], [10.5693962, 49.2524669], [10.5701426, 49.2523232], [10.5704472, 49.2522644], [10.5711479, 49.2521669], [10.5712566, 49.2521518], [10.572058, 49.2519116], [10.5724326, 49.2518801], [10.5740575, 49.2516911], [10.5741967, 49.2516549], [10.5753948, 49.2513437], [10.5756863, 49.2512878], [10.5759801, 49.2511891], [10.5762931, 49.251084], [10.5771, 49.2508895], [10.5779518, 49.2508606], [10.5783861, 49.2509027], [10.579006, 49.2506466], [10.579554, 49.2504289], [10.5796873, 49.2503587], [10.580052, 49.2502485], [10.5802651, 49.250124], [10.5804839, 49.2499673], [10.580698, 49.2497581], [10.5808502, 49.2495099], [10.5809693, 49.2493359], [10.5811405, 49.249202], [10.5813432, 49.249068], [10.5815643, 49.2489589], [10.5817534, 49.2488982], [10.5817675, 49.2487887], [10.5817807, 49.2486856], [10.5819386, 49.2482777], [10.5819915, 49.2480744], [10.582053, 49.2478371], [10.5821221, 49.2473541], [10.5828637, 49.2472096], [10.5826584, 49.2470212], [10.5820306, 49.2464625], [10.581825, 49.2462794], [10.5815348, 49.2460813], [10.5809708, 49.2456959], [10.5808497, 49.2456128], [10.5802832, 49.2452228], [10.5800187, 49.2450408], [10.5797225, 49.2448385], [10.5799954, 49.2447554], [10.5801476, 49.244709], [10.5801286, 49.2444929], [10.5821217, 49.2441059], [10.5836347, 49.2437901], [10.5839203, 49.2441026], [10.5840575, 49.2440697], [10.5859277, 49.2436206], [10.5860205, 49.2436029], [10.586912, 49.2433689], [10.5876456, 49.2432885], [10.5877898, 49.2432756], [10.5887796, 49.2431903], [10.5903126, 49.2430379], [10.5904123, 49.2430276], [10.5904859, 49.2430217], [10.5905144, 49.2430152], [10.5904475, 49.2430726], [10.5902526, 49.2432662], [10.5900933, 49.243437], [10.5898483, 49.2437641], [10.5897523, 49.2439241], [10.5896726, 49.2440825], [10.589582, 49.2442961], [10.5893874, 49.2448467], [10.5893491, 49.2449809], [10.5893974, 49.2449852], [10.5895375, 49.2449977], [10.5897289, 49.2450025], [10.5923682, 49.2451118], [10.5924773, 49.2444437], [10.5930612, 49.2444935], [10.5933467, 49.2430813], [10.5940807, 49.243012], [10.594104, 49.2427721], [10.5950225, 49.2427288], [10.5957713, 49.2426789], [10.597538, 49.2423596], [10.5977215, 49.2423259], [10.5995063, 49.2419957], [10.5996193, 49.2420478], [10.6004953, 49.2423406], [10.6010077, 49.2425124], [10.6014171, 49.2426202], [10.601868, 49.2427388], [10.6033409, 49.2431257], [10.6033733, 49.2431404], [10.6035259, 49.2432098], [10.6035608, 49.2431896], [10.6050923, 49.2439557], [10.6056918, 49.2441011], [10.6057844, 49.2440363], [10.6062389, 49.244129], [10.6063375, 49.2441131], [10.606235, 49.2438147], [10.6069633, 49.243738], [10.6075456, 49.2436265], [10.6077599, 49.2436934], [10.6082948, 49.2441094], [10.6080141, 49.2420664], [10.61007, 49.2419859], [10.6101534, 49.2420354], [10.6100662, 49.2413593], [10.6098139, 49.2414237], [10.6099789, 49.2413024], [10.6097836, 49.2407204], [10.6103483, 49.2389562], [10.610335, 49.2389439], [10.6099498, 49.2388003], [10.609738, 49.2387213], [10.6097049, 49.2387089], [10.6093155, 49.2385899], [10.6090036, 49.238467], [10.6088045, 49.2383817], [10.6103148, 49.2382818], [10.6105631, 49.2382049], [10.6109899, 49.2380726], [10.6111693, 49.2380426], [10.6114157, 49.2380375], [10.6116199, 49.2380332], [10.6116664, 49.2380206], [10.6135865, 49.2374986], [10.6154463, 49.2371781], [10.6168122, 49.2369316], [10.6168769, 49.2369199], [10.6173774, 49.2370332], [10.617842, 49.2371382], [10.6178668, 49.2371273], [10.617983, 49.2370988], [10.6181139, 49.2370804], [10.6186676, 49.2370743], [10.6187819, 49.2370774], [10.6206116, 49.2371825], [10.6213524, 49.2372192], [10.6213778, 49.2372236], [10.6214466, 49.2372293], [10.6216352, 49.2372421], [10.6220253, 49.2372296], [10.6226675, 49.2371565], [10.6230352, 49.2371423], [10.62352, 49.2371668], [10.6236624, 49.2372699], [10.623822, 49.2373852], [10.6243821, 49.2373751], [10.6247587, 49.2373282], [10.6289355, 49.236937], [10.6295356, 49.2368986], [10.6298399, 49.2368003], [10.6298676, 49.2367878], [10.6301047, 49.2366369], [10.6301507, 49.2366023], [10.6302551, 49.2366392], [10.6302672, 49.2366417], [10.6304593, 49.236658], [10.6307323, 49.2366812], [10.6308293, 49.2366854], [10.630885, 49.2366901], [10.6308558, 49.2366203], [10.6307901, 49.2365285], [10.6304868, 49.2363071], [10.6310086, 49.2358554], [10.631205, 49.2356418], [10.6316829, 49.2351014], [10.6320199, 49.2348603], [10.6321198, 49.2345862], [10.6320936, 49.2343115], [10.6321048, 49.234297], [10.6323256, 49.234012], [10.6324853, 49.2339888], [10.6326812, 49.2339602], [10.6330173, 49.2341931], [10.6335743, 49.2344787], [10.6342118, 49.234756], [10.6345482, 49.2348633], [10.6348058, 49.2349454], [10.634843, 49.2349628], [10.6351486, 49.2351024], [10.6353174, 49.2351831], [10.6357785, 49.2348437], [10.6358995, 49.2347779], [10.6370095, 49.2345404], [10.6370578, 49.2345366], [10.6383351, 49.2344393], [10.6390747, 49.234407], [10.6392073, 49.2344099], [10.6402209, 49.2343892], [10.639903, 49.2350023], [10.6395599, 49.2354845], [10.6394063, 49.2358405], [10.6396653, 49.2365312], [10.6401915, 49.2373077], [10.6409143, 49.2378554], [10.6418995, 49.2384087], [10.6417083, 49.2384465], [10.6414799, 49.238454], [10.6408351, 49.238365], [10.6408108, 49.2383642], [10.6404983, 49.2383859], [10.640472, 49.2383909], [10.6398935, 49.2385742], [10.6396413, 49.2386411], [10.6395532, 49.2386558], [10.6395775, 49.2387537], [10.6397053, 49.2392285], [10.6398415, 49.2397334], [10.6397049, 49.2405411], [10.6398235, 49.2407602], [10.6400671, 49.241069], [10.639984, 49.2411781], [10.6396715, 49.2415698], [10.6395521, 49.2421548], [10.6365188, 49.2424859], [10.6363667, 49.2425051], [10.636378, 49.2425285], [10.6365455, 49.2427678], [10.6367496, 49.2431697], [10.6367664, 49.2432249], [10.6368131, 49.2433779], [10.636845, 49.2434912], [10.6369334, 49.2438829], [10.6369229, 49.2442423], [10.6368356, 49.2445664], [10.6366662, 49.244971], [10.6366061, 49.2450796], [10.6363127, 49.2457413], [10.6361685, 49.2459917], [10.6361502, 49.2460564], [10.6361487, 49.2461166], [10.6361368, 49.2462854], [10.6366489, 49.2463621], [10.637, 49.2463834], [10.6374018, 49.2464125], [10.6376165, 49.246432], [10.6377435, 49.2464459], [10.6377157, 49.2469597], [10.6376707, 49.2477967], [10.6375427, 49.2503035], [10.6376435, 49.2503185], [10.6379524, 49.2503645], [10.6392864, 49.2505869], [10.6409848, 49.250912], [10.6419514, 49.2510747], [10.641833, 49.2513271], [10.6418049, 49.2513872], [10.6417766, 49.2514475], [10.6416648, 49.2516863], [10.6429214, 49.252007], [10.6452657, 49.2526026], [10.6451805, 49.2531799], [10.6453165, 49.2532414], [10.6457387, 49.2534396], [10.6456668, 49.254829], [10.6457024, 49.2553687], [10.6457223, 49.255837], [10.6457316, 49.2569963], [10.6457663, 49.2573982], [10.6455989, 49.2574439], [10.6454542, 49.2574834], [10.6450732, 49.2574931], [10.6449475, 49.2574918], [10.6449855, 49.2575834], [10.6450249, 49.2576867], [10.6448748, 49.2577108], [10.6414019, 49.258217], [10.6401671, 49.258397], [10.6398919, 49.2584717], [10.6385512, 49.2587914], [10.6371429, 49.2591782], [10.6368957, 49.2592951], [10.636615, 49.2592918], [10.6356586, 49.2598361], [10.6354097, 49.2599442], [10.635415, 49.2600468], [10.635196, 49.2601433], [10.6350846, 49.2602069], [10.6350085, 49.2602428], [10.6348624, 49.2603139], [10.6344677, 49.2604734], [10.6343053, 49.2605323], [10.633997, 49.2605676], [10.6339091, 49.2605999], [10.6338037, 49.2606066], [10.6327871, 49.2610935], [10.6323163, 49.2612818], [10.6313602, 49.2615697], [10.6306575, 49.261789], [10.6304571, 49.2617513], [10.6301967, 49.2618022], [10.6302738, 49.2620111], [10.6300086, 49.2624116], [10.6296651, 49.2630608], [10.6295942, 49.2631967], [10.6295793, 49.2636698], [10.6296041, 49.264115], [10.6294055, 49.2641257], [10.6292931, 49.2641318], [10.6256456, 49.264345], [10.6256114, 49.2662783], [10.6255949, 49.2667115], [10.6255881, 49.2676079], [10.6255932, 49.2680209], [10.625557, 49.2681894], [10.6254748, 49.2685474], [10.6253928, 49.2688399], [10.625291, 49.2690642], [10.6249377, 49.2695284], [10.6247626, 49.2698502], [10.6246941, 49.2702047], [10.6245713, 49.2710028], [10.6243991, 49.2725902], [10.6238512, 49.2726112], [10.623963, 49.272879], [10.623996, 49.2729792], [10.623129, 49.273005], [10.6225203, 49.2729796], [10.6219822, 49.272955], [10.6215362, 49.2729132], [10.6205864, 49.2727842], [10.6199492, 49.2726588], [10.6197093, 49.2726082], [10.6185532, 49.2726846], [10.6170294, 49.2726976], [10.6168792, 49.272703], [10.6170643, 49.2736597], [10.6170755, 49.2737536], [10.6170641, 49.2738928], [10.6170053, 49.2743555], [10.6171556, 49.2743706], [10.6177673, 49.2744122], [10.6168241, 49.2755045], [10.6166709, 49.2756854], [10.6155714, 49.2752999], [10.6148752, 49.2756906], [10.6148227, 49.2757202], [10.6148028, 49.2757265], [10.6146166, 49.2757858], [10.6141496, 49.2765372], [10.6151271, 49.2767729], [10.614759, 49.2770904], [10.6149621, 49.2771434], [10.6150801, 49.277191], [10.6151778, 49.2772414], [10.6151899, 49.2772502], [10.6152857, 49.2773182], [10.6153445, 49.2773912], [10.6152314, 49.2774776], [10.6151371, 49.2774946], [10.6147262, 49.2775687], [10.6142971, 49.2776652], [10.6143632, 49.2778047], [10.6145593, 49.2782179], [10.6148708, 49.2781936], [10.6154756, 49.2780884], [10.6158115, 49.2780597], [10.6161689, 49.2780151], [10.6162661, 49.2780258], [10.6166173, 49.2780642], [10.6169046, 49.2780718], [10.6172549, 49.2780679], [10.6179382, 49.2780304], [10.6182064, 49.2780336], [10.6185206, 49.2780518], [10.618809, 49.2780844], [10.6189016, 49.2780984], [10.6197238, 49.2782375], [10.6210977, 49.2784796], [10.6231938, 49.2788605], [10.623223, 49.2789044], [10.6233105, 49.279433], [10.6235773, 49.2800465], [10.6241353, 49.2800256], [10.6246138, 49.2800433], [10.6249746, 49.2800931], [10.62504, 49.280102], [10.6253608, 49.2801643], [10.6254264, 49.2802931], [10.6254999, 49.2804217], [10.6258018, 49.2809172], [10.6256458, 49.2811674], [10.6237359, 49.2813512], [10.6234399, 49.2814194], [10.6203587, 49.2821694], [10.6190291, 49.2823521], [10.6176033, 49.2823611], [10.6155226, 49.2824713], [10.6126881, 49.2826988], [10.6123341, 49.2827331], [10.6117256, 49.2828087], [10.6120733, 49.2829631], [10.6122937, 49.2830636], [10.6131671, 49.2829777], [10.6132389, 49.2833715], [10.6132803, 49.2836564], [10.6146766, 49.2834647], [10.6154754, 49.2833755], [10.615622, 49.2833594], [10.6156685, 49.2835025], [10.6157136, 49.2836601], [10.6157266, 49.283684], [10.6157494, 49.2839351], [10.6153697, 49.283962], [10.6153961, 49.284085], [10.6154129, 49.2842081], [10.6149334, 49.2842203], [10.6148909, 49.2842379], [10.614795, 49.2844237], [10.6147806, 49.2844414], [10.6145995, 49.2845977], [10.614478, 49.2846931], [10.6146477, 49.2851618], [10.6157387, 49.2849913], [10.6157562, 49.2850389], [10.6159069, 49.2854493], [10.6174589, 49.2852746], [10.6174199, 49.2855322], [10.6174193, 49.2855472], [10.6174206, 49.2856009], [10.6174956, 49.285589], [10.617575, 49.2855791], [10.6177294, 49.2855601], [10.6177437, 49.2856271], [10.617765, 49.2857271], [10.6180028, 49.2859436], [10.6182008, 49.2863428], [10.6182604, 49.2864741], [10.6184235, 49.2866576], [10.6184452, 49.2866781], [10.6194175, 49.2865426], [10.6207586, 49.2862313], [10.6209559, 49.2867174], [10.6209171, 49.2871523], [10.6210042, 49.2871666], [10.6211569, 49.2871982], [10.6212914, 49.2872156], [10.6214742, 49.2872445], [10.6217743, 49.2872849], [10.6220825, 49.287323], [10.6226752, 49.2874384], [10.6229325, 49.2875135], [10.6238933, 49.2876834], [10.6244019, 49.2877576], [10.6245601, 49.2877792], [10.6250791, 49.2879002], [10.6254719, 49.2879918], [10.6257011, 49.2880122], [10.6261768, 49.2880494], [10.6269212, 49.288125], [10.6270149, 49.2882569], [10.6271202, 49.2883812], [10.6276873, 49.2883843], [10.6284895, 49.2883548], [10.6292347, 49.2882954], [10.6292409, 49.2883276], [10.6299072, 49.2883847], [10.6298229, 49.2885162], [10.6297284, 49.288663], [10.6296, 49.2888874], [10.629542, 49.2890054], [10.6295251, 49.2890486], [10.6294759, 49.2891377], [10.6293005, 49.2894561], [10.6290644, 49.2898758], [10.6290433, 49.2899114], [10.6290309, 49.2899236], [10.6289972, 49.2899507], [10.6289623, 49.2899742], [10.6285268, 49.2902002], [10.628381, 49.2902884], [10.6285008, 49.2903536], [10.6285363, 49.2903731], [10.6289138, 49.2905839], [10.6292499, 49.290763], [10.6292698, 49.2908108], [10.6293568, 49.2907345], [10.6299832, 49.2909937], [10.6299779, 49.2911861], [10.6299696, 49.2913674], [10.6308434, 49.2913252], [10.6312338, 49.2912734], [10.6317945, 49.2909919], [10.6321301, 49.2909156], [10.6321186, 49.2911832], [10.6320969, 49.2913006], [10.6320382, 49.2914176], [10.6319377, 49.2915493], [10.631824, 49.2916505], [10.6317958, 49.2916662], [10.6316648, 49.2917392], [10.6311154, 49.2919139], [10.6309938, 49.2923047], [10.6310295, 49.2928515], [10.6315226, 49.2928755], [10.6332627, 49.2927045], [10.6333366, 49.2930639], [10.633474, 49.2937318], [10.6334427, 49.2937936], [10.6334154, 49.2939967], [10.6334159, 49.2940074], [10.6334905, 49.2940009], [10.6336415, 49.2939834], [10.6338686, 49.293961], [10.6338601, 49.2941323], [10.6338542, 49.2943134], [10.6342085, 49.2965322], [10.6345645, 49.2989612], [10.6351021, 49.3022969], [10.635162, 49.3023234], [10.6360616, 49.3027732], [10.6361429, 49.302808], [10.6363829, 49.3028952], [10.6365308, 49.3029386], [10.6368077, 49.3030118], [10.6373397, 49.3031472], [10.6374226, 49.3031667], [10.6375438, 49.3032044], [10.6377592, 49.303268], [10.6377736, 49.3033601], [10.6377929, 49.3034848], [10.6377948, 49.3034972], [10.637806, 49.3035188], [10.6378241, 49.3035383], [10.6378484, 49.3035546], [10.6378777, 49.3035669], [10.6380477, 49.3036074], [10.6385386, 49.3037351], [10.6386916, 49.3037707], [10.6388229, 49.3037962], [10.6390635, 49.3038375], [10.6392404, 49.3038587], [10.6398385, 49.3039204], [10.640265, 49.3039474], [10.6405703, 49.3039834], [10.641356, 49.3041029], [10.6417727, 49.3041716], [10.6420451, 49.3042279], [10.6423174, 49.3042744], [10.6425914, 49.3043066], [10.6448002, 49.3046491], [10.6449808, 49.3046273], [10.6457605, 49.3047306], [10.6458312, 49.3047785], [10.6459175, 49.3052652], [10.6459929, 49.3057555], [10.6460152, 49.3060454], [10.6461488, 49.3060633], [10.6462078, 49.306073], [10.646293, 49.3060869], [10.6462955, 49.3062375], [10.646297, 49.3063933], [10.6463071, 49.3064644], [10.6463006, 49.3065648], [10.6462997, 49.3066607], [10.6462707, 49.3069575], [10.6462495, 49.3071732], [10.6461856, 49.3080452], [10.6461834, 49.3081047], [10.6461903, 49.3081622], [10.6462077, 49.3082393], [10.6462677, 49.3084746], [10.6462742, 49.3084922], [10.6462949, 49.3085192], [10.6463602, 49.3085882], [10.6464135, 49.3086337], [10.6471294, 49.3091216], [10.6473769, 49.3092999], [10.6475909, 49.3094631], [10.6481589, 49.3099833], [10.6485485, 49.3103731], [10.6488737, 49.3107117], [10.649127, 49.3109982], [10.6491931, 49.3110508], [10.6492386, 49.3110817], [10.6492638, 49.3110923], [10.6493247, 49.3111145], [10.6493373, 49.3111175], [10.6493868, 49.311124], [10.6494887, 49.3111303], [10.6496696, 49.3111263], [10.6503036, 49.3111222], [10.6518026, 49.3111086], [10.6518669, 49.3112494], [10.6519071, 49.3113515], [10.6520648, 49.3117116], [10.6520935, 49.3120638], [10.6520922, 49.3122269], [10.6520959, 49.3123985], [10.6521004, 49.3124941], [10.6526356, 49.312476], [10.6528162, 49.3124674], [10.6534548, 49.3124097], [10.6536898, 49.3123722], [10.653806, 49.3134271], [10.6538091, 49.3135481], [10.6538098, 49.3135732], [10.6527894, 49.3135978], [10.652773, 49.3136922], [10.6527538, 49.3138115], [10.6528638, 49.3146899], [10.6542578, 49.3146734], [10.6545507, 49.314657], [10.6547609, 49.3146574], [10.6550379, 49.3146745], [10.6554365, 49.3146862], [10.6562908, 49.3147263], [10.6562938, 49.3148211], [10.6562946, 49.3149181], [10.6563094, 49.315275], [10.6562892, 49.3154842], [10.6562763, 49.3157386], [10.6561737, 49.3169626], [10.6561499, 49.3171354], [10.656143, 49.3173412], [10.6561533, 49.3173957], [10.6560766, 49.3176256], [10.6558619, 49.3180921], [10.6556025, 49.3186383], [10.6551511, 49.3196623], [10.6549704, 49.3196408], [10.6546901, 49.3195877], [10.6544643, 49.3195558], [10.6539147, 49.3194938], [10.6536942, 49.3195021], [10.6536188, 49.3195128], [10.6534066, 49.3194579], [10.6525263, 49.3192434], [10.6524527, 49.3193076], [10.6523002, 49.319209], [10.651668, 49.3188887], [10.6515173, 49.3188216], [10.6513519, 49.3187485], [10.6507613, 49.3184176], [10.6503416, 49.3182338], [10.6502072, 49.3181647], [10.6500389, 49.3182105], [10.6494872, 49.3183679], [10.6491626, 49.3180063], [10.6490458, 49.3189718], [10.6487596, 49.3198538], [10.6487281, 49.3199636], [10.6491806, 49.3199397], [10.6496121, 49.3199168], [10.6499395, 49.3199205], [10.6500929, 49.3199405], [10.6500584, 49.3201081], [10.6500705, 49.3201446], [10.6502353, 49.3206452], [10.6499953, 49.3218], [10.6500292, 49.3222885], [10.6499275, 49.3222873], [10.6497505, 49.3222798], [10.6491642, 49.322201], [10.6482785, 49.3220715], [10.6482555, 49.3221248], [10.6481119, 49.3225385], [10.6472797, 49.3223301], [10.6452537, 49.3220242], [10.6451533, 49.3220299], [10.6446512, 49.3220688], [10.6438106, 49.3221048], [10.6436194, 49.3221159], [10.6432671, 49.322144], [10.6429867, 49.3221663], [10.6427377, 49.3222079], [10.6425878, 49.3222428], [10.6415684, 49.3223399], [10.6413171, 49.3224152], [10.6411724, 49.3226365], [10.6410934, 49.3227531], [10.6407468, 49.3233253], [10.6406734, 49.3234328], [10.641021, 49.3235827], [10.640998, 49.3237164], [10.6409859, 49.3237869], [10.6408958, 49.3243135], [10.6401907, 49.3245185], [10.6400379, 49.3245429], [10.6397337, 49.3245915], [10.6391754, 49.3246294], [10.6390216, 49.3246399], [10.6390844, 49.324786], [10.6390999, 49.3248732], [10.639109, 49.3249606], [10.6387018, 49.3249381], [10.6376009, 49.3248712], [10.6369912, 49.3247521], [10.6366982, 49.3246957], [10.6365426, 49.3246776], [10.6364242, 49.3246652], [10.6363562, 49.3248679], [10.6362649, 49.3248859], [10.6351797, 49.3250926], [10.6347004, 49.3250376], [10.6340549, 49.3249763], [10.6334376, 49.3249104], [10.6329187, 49.3248304], [10.6327159, 49.3247732], [10.6327037, 49.3247413], [10.6327239, 49.3246859], [10.6324268, 49.3245877], [10.6321078, 49.3245503], [10.6312273, 49.3244239], [10.6311987, 49.3244687], [10.6308841, 49.324431], [10.6307039, 49.3244084], [10.6306848, 49.3244162], [10.6306763, 49.3244678], [10.6306253, 49.3248419], [10.6304792, 49.3248314], [10.6302971, 49.3248159], [10.6297855, 49.3246951], [10.6295322, 49.3246759], [10.6292756, 49.3246871], [10.6289449, 49.3247319], [10.6287346, 49.3247484], [10.6286203, 49.3247767], [10.6283789, 49.3248253], [10.6269693, 49.3251095], [10.6259499, 49.3255012], [10.6262525, 49.3257036], [10.6263321, 49.325757], [10.6269857, 49.3258989], [10.6270091, 49.3262229], [10.6273485, 49.326676], [10.6281316, 49.3265407], [10.6288284, 49.3264818], [10.6288299, 49.3269081], [10.6287483, 49.3270082], [10.6286831, 49.3271382], [10.6282446, 49.3273477], [10.6274611, 49.327549], [10.62633, 49.3277346], [10.6244768, 49.3271662], [10.6230035, 49.32703], [10.6229011, 49.3269538], [10.6227986, 49.3268776], [10.6226246, 49.3269031], [10.6223401, 49.3268883], [10.622304, 49.3268916], [10.6220726, 49.3269514], [10.6212961, 49.3271668], [10.6212143, 49.3271967], [10.6211774, 49.3272094], [10.6209659, 49.3272991], [10.620852, 49.3273647], [10.6203202, 49.3275648], [10.6193223, 49.3277745], [10.6183745, 49.3279234], [10.6174778, 49.3275551], [10.6158746, 49.3273494], [10.6153481, 49.3272967], [10.6140249, 49.3273759], [10.6128459, 49.3278168], [10.6126329, 49.3279082], [10.6123938, 49.3280212], [10.612279, 49.3280823], [10.6122398, 49.3280998], [10.6121933, 49.3281172], [10.6119845, 49.3281709], [10.6114001, 49.3282723], [10.6109315, 49.3283839], [10.6108893, 49.328386], [10.6108474, 49.3283806], [10.6108097, 49.3283681], [10.6107783, 49.3283493], [10.6107558, 49.3283257], [10.6106218, 49.3280265], [10.6101582, 49.3282353], [10.6098126, 49.3283993], [10.6092688, 49.3286326], [10.609063, 49.3286968], [10.6087821, 49.3287391], [10.6081904, 49.328792], [10.6076358, 49.328811], [10.6074748, 49.3288036], [10.607799, 49.3297484], [10.6069108, 49.3298654], [10.6065081, 49.3295541], [10.6037337, 49.3297412], [10.6035629, 49.3297628], [10.6033174, 49.3297496], [10.602997, 49.3296886], [10.6026526, 49.3296175], [10.6025001, 49.3295861], [10.6024822, 49.3298397], [10.602426, 49.3302014], [10.6022497, 49.3304963], [10.602153, 49.3306484], [10.6019104, 49.3311552], [10.6014941, 49.3314948], [10.600757, 49.3318178], [10.6005332, 49.3319114], [10.6005107, 49.3319209], [10.600368, 49.3319649], [10.6002376, 49.3320051], [10.5996038, 49.3322413], [10.59925, 49.3323324], [10.5987917, 49.3324504], [10.598206, 49.3325862], [10.5978519, 49.3327353], [10.5975981, 49.3328443], [10.5972659, 49.332987], [10.5965591, 49.3331964], [10.5959917, 49.3332553], [10.5951131, 49.3331956], [10.593904, 49.3329905], [10.5933483, 49.3329442], [10.591734, 49.3327935], [10.5917219, 49.3334724], [10.5916124, 49.3339756], [10.5913463, 49.3343875], [10.5909247, 49.3348343], [10.5907978, 49.3349026], [10.5904358, 49.3350974], [10.5898645, 49.3346832], [10.5897128, 49.3348807], [10.5895858, 49.3351931], [10.5894634, 49.3357348], [10.5893785, 49.3362063], [10.5893861, 49.3364288], [10.5894828, 49.3367055], [10.5894124, 49.3368622], [10.5893468, 49.3370306], [10.5884473, 49.3395734], [10.5881876, 49.3408117], [10.5881462, 49.3409709], [10.5874421, 49.3425989], [10.5870091, 49.3425258], [10.5868183, 49.3423093], [10.5861895, 49.3422777], [10.5855063, 49.3422784], [10.5837551, 49.3425007], [10.5828024, 49.3425368], [10.5822168, 49.3426547], [10.5817425, 49.342825], [10.5810469, 49.3432113], [10.5801757, 49.3435859], [10.5798685, 49.3437181], [10.579631, 49.3437112], [10.5792293, 49.3437178], [10.5789324, 49.3437539], [10.5786461, 49.3437688], [10.5784049, 49.3437578], [10.5781627, 49.3437468], [10.5776487, 49.3437572], [10.5771544, 49.3437236], [10.5770104, 49.3437091], [10.5770507, 49.3430471], [10.5770025, 49.343042], [10.576578, 49.3429974], [10.5754228, 49.3428759], [10.5745043, 49.3428101], [10.5745072, 49.3425945], [10.5729799, 49.3425759], [10.5729706, 49.3425708], [10.5707192, 49.3425427], [10.5707037, 49.3423965], [10.5706886, 49.3422545], [10.5705646, 49.3415024], [10.5704842, 49.3409184], [10.5702772, 49.3397493], [10.5701475, 49.3388214], [10.5702682, 49.3387623], [10.5703211, 49.338651], [10.5703172, 49.3383462], [10.5690713, 49.3386074], [10.5686607, 49.3387169], [10.5683497, 49.3387997], [10.5681769, 49.338908], [10.5680853, 49.3389652], [10.5674776, 49.339251], [10.567292, 49.339315], [10.5671418, 49.3393396], [10.566916, 49.3394218], [10.5665427, 49.3395042], [10.5662744, 49.3395993], [10.566035, 49.3396862], [10.5659741, 49.3394262], [10.565932, 49.3392055], [10.5659245, 49.3391541], [10.5658792, 49.3391502], [10.5658548, 49.339141], [10.5651235, 49.3389409], [10.5649604, 49.3391943], [10.5646139, 49.3394015], [10.5644813, 49.3393277], [10.5639482, 49.3389985], [10.5633007, 49.3391932], [10.5609092, 49.339496], [10.5608355, 49.3395123], [10.5597994, 49.3396632], [10.5589028, 49.3398929], [10.5584578, 49.340072], [10.5584143, 49.3400499], [10.5583956, 49.3400428], [10.5576578, 49.3398501], [10.5574592, 49.3397978], [10.5575151, 49.3398893], [10.5575433, 49.3399296], [10.5563602, 49.3396209], [10.5562763, 49.3393775], [10.5562091, 49.3392184], [10.5548312, 49.3393464], [10.5547397, 49.3393483], [10.5533098, 49.3393797], [10.5511661, 49.3392561], [10.5509443, 49.3392556], [10.5509039, 49.3392532], [10.5505853, 49.3392886], [10.5502276, 49.339359], [10.5488097, 49.3397438], [10.5487552, 49.3398681], [10.5486617, 49.3400816], [10.5486624, 49.3400989], [10.5486635, 49.3401329], [10.5486453, 49.3403265], [10.5485144, 49.3403093], [10.5484986, 49.3403015], [10.5483892, 49.3402729], [10.5481909, 49.3402211], [10.5474013, 49.340054], [10.5473366, 49.3400404], [10.5472948, 49.3400239], [10.5471317, 49.3399661], [10.5469558, 49.3398592], [10.5461231, 49.3391059], [10.5460487, 49.3390415], [10.5460073, 49.3390055], [10.5458493, 49.3388145], [10.5455117, 49.338478], [10.5454777, 49.3384562], [10.5453058, 49.3382778], [10.5452537, 49.3382242], [10.545218, 49.3382143], [10.54514, 49.3382074], [10.5450891, 49.3382028], [10.5449228, 49.3381675], [10.5446592, 49.3380891], [10.5446304, 49.3379707], [10.5446164, 49.337896], [10.5440654, 49.337756], [10.5439933, 49.3377392], [10.5437622, 49.3376972], [10.5436111, 49.3374621], [10.5434872, 49.3373762], [10.5430343, 49.3372139], [10.542759, 49.3370519], [10.5419609, 49.3368555], [10.5412567, 49.3366278], [10.5410023, 49.3365137], [10.5406374, 49.3362261], [10.5404959, 49.3360738], [10.5404704, 49.3360587], [10.5401598, 49.3358008], [10.5396233, 49.3355363], [10.5392066, 49.3354649], [10.5389029, 49.3354127], [10.5386592, 49.3353451], [10.5385171, 49.335282], [10.5383215, 49.3351736], [10.5381455, 49.3350471], [10.5380646, 49.3349939], [10.538, 49.3349455], [10.5378245, 49.3348204], [10.5377195, 49.3347457], [10.5374765, 49.3346435], [10.5374472, 49.3346362], [10.5370346, 49.334474], [10.5367078, 49.3343778], [10.5366763, 49.3343616], [10.5364079, 49.334139], [10.5357003, 49.3336064], [10.535279, 49.3334069], [10.5349961, 49.3332403], [10.5349866, 49.3332348], [10.5349224, 49.3331795], [10.5338239, 49.3322399], [10.5336219, 49.3320273], [10.5333199, 49.3317801], [10.5325442, 49.3309845], [10.5320762, 49.3306554], [10.5320449, 49.330623], [10.5320376, 49.3306116], [10.5320028, 49.3305301], [10.5320925, 49.3303819], [10.532198, 49.3301915], [10.5323104, 49.329944], [10.5322661, 49.3297382], [10.5321553, 49.3294324], [10.5319862, 49.3293883], [10.5319776, 49.3293849], [10.53169, 49.3293235], [10.5316614, 49.3293066], [10.5316716, 49.3288144], [10.5315477, 49.3285516], [10.5315166, 49.3284858], [10.5314734, 49.3282999], [10.5314574, 49.3282678], [10.5314474, 49.3282572], [10.5312773, 49.3280282], [10.5313593, 49.3279728], [10.5313873, 49.3279574], [10.5314952, 49.3278981], [10.5315703, 49.3278568], [10.5315772, 49.3278543], [10.531622, 49.3278248], [10.5316514, 49.3277911], [10.5316673, 49.3277508], [10.5316657, 49.3277124], [10.5316487, 49.3276755], [10.531618, 49.3276428], [10.531595, 49.3276299], [10.5312852, 49.3274376], [10.5310568, 49.3272883], [10.5310476, 49.3272813], [10.5309259, 49.3272193], [10.5309159, 49.3272144], [10.5308941, 49.3272038], [10.5307717, 49.3272885], [10.5306885, 49.3273438], [10.5305639, 49.3274206], [10.5304583, 49.3273632], [10.5298879, 49.3270464], [10.5292725, 49.3267003], [10.529195, 49.3265379], [10.5292746, 49.3264549], [10.528272, 49.3258559], [10.5280383, 49.3256175], [10.5283536, 49.3252481], [10.5285843, 49.3251443], [10.5284421, 49.3250579], [10.5283776, 49.3250188], [10.5276051, 49.3245965], [10.5270566, 49.3242919], [10.5270121, 49.3242672], [10.5268416, 49.3241725], [10.5270907, 49.323984], [10.5272065, 49.3238789], [10.5275561, 49.3235528], [10.5278848, 49.3232598], [10.5280944, 49.3230645], [10.5282683, 49.3228867], [10.5284934, 49.3226783], [10.5280823, 49.3225134], [10.5279947, 49.3225256], [10.5279153, 49.3225682], [10.5274195, 49.3223893], [10.5270415, 49.3226784], [10.5268928, 49.3226018], [10.5267036, 49.3225044], [10.5251426, 49.3217005], [10.5248463, 49.3215279], [10.5236802, 49.3209362], [10.5234071, 49.3207975], [10.523369, 49.320974], [10.523276, 49.3211219], [10.5232546, 49.3211498], [10.5231575, 49.3212773], [10.5231295, 49.3212976], [10.5227839, 49.3214419], [10.5220453, 49.3218227], [10.521875, 49.321885], [10.5217727, 49.3219155], [10.521665, 49.3219477], [10.5210617, 49.3221277], [10.519933, 49.3223983], [10.5190406, 49.3228501], [10.5190146, 49.3228633], [10.519096, 49.323237], [10.5193805, 49.3245478], [10.5194886, 49.325051], [10.5179494, 49.3252448], [10.5174135, 49.3252315], [10.5171284, 49.3252718], [10.5169252, 49.3252699], [10.51645, 49.3252034], [10.5161023, 49.3251179], [10.515774, 49.3250448], [10.5155673, 49.3250076], [10.5150454, 49.3249137], [10.5142797, 49.3248393], [10.5139085, 49.3248338], [10.5137514, 49.3248065], [10.5135942, 49.3247791], [10.513547, 49.3247673], [10.5132942, 49.3247438], [10.5131602, 49.3247542], [10.5129265, 49.3247724], [10.5122971, 49.3249022], [10.5121085, 49.3249227], [10.5120425, 49.3249177], [10.5119542, 49.3248774], [10.5115317, 49.3246842], [10.5114513, 49.3245795], [10.5112729, 49.3244455], [10.5101691, 49.3245357], [10.5097403, 49.3245327], [10.5090094, 49.32446], [10.5090729, 49.3246959], [10.5090285, 49.3246854], [10.5089667, 49.3246896], [10.5088025, 49.3246953], [10.5084522, 49.324794], [10.508326, 49.3248152], [10.5082993, 49.3248197], [10.5082727, 49.3248242], [10.5081539, 49.3248334], [10.5082918, 49.3254451], [10.5074597, 49.3254541], [10.5073669, 49.3254445], [10.5066871, 49.3253783], [10.5063081, 49.325418], [10.5062811, 49.3254243], [10.5061261, 49.325485], [10.5059436, 49.3255643], [10.5058843, 49.3255876], [10.5055839, 49.3257058], [10.5054776, 49.3257419], [10.5054473, 49.3257493], [10.5052803, 49.3257713], [10.5050106, 49.325804], [10.5044407, 49.3256458], [10.5036527, 49.3254297], [10.5032959, 49.3255321], [10.5028584, 49.3256018], [10.5020182, 49.3257224], [10.5016915, 49.3257973], [10.5015011, 49.3258753], [10.5009115, 49.3261678], [10.5002111, 49.3264681], [10.500169, 49.3264829], [10.499688, 49.3266528], [10.499371, 49.3267796], [10.4990704, 49.326861], [10.4987505, 49.3269094], [10.4985863, 49.3269888], [10.4984518, 49.3270983], [10.4983167, 49.3272178], [10.4982194, 49.3272933], [10.4981368, 49.327353], [10.4980685, 49.3274024], [10.4979229, 49.3275024], [10.4977736, 49.3275927], [10.4976023, 49.3276866], [10.4974526, 49.3277561], [10.4966028, 49.3280894], [10.4964049, 49.3281772], [10.4963543, 49.3280773], [10.4958444, 49.3270756], [10.4958223, 49.326972], [10.4957565, 49.3268075], [10.4956541, 49.3266221], [10.4955366, 49.3264086], [10.4951493, 49.3254901], [10.4950106, 49.3250883], [10.4949614, 49.3249432], [10.4950516, 49.3249137], [10.4956581, 49.3247155], [10.4957709, 49.3246759], [10.4958957, 49.3246173], [10.4952597, 49.3246243], [10.4952297, 49.3244521], [10.4944169, 49.3246704], [10.4942439, 49.3243963], [10.4942144, 49.3243495], [10.4939521, 49.3240959], [10.4938053, 49.3240207], [10.4931729, 49.3236967], [10.4926084, 49.3240656], [10.492489, 49.3243844], [10.4924742, 49.3244249], [10.4921439, 49.3247255], [10.4920422, 49.3248066], [10.4918904, 49.3249007], [10.4915798, 49.3250577], [10.4909412, 49.3253165], [10.4904707, 49.3255416], [10.4899724, 49.3258573], [10.4898171, 49.3257825], [10.4897069, 49.325706], [10.4895932, 49.3256966], [10.4894403, 49.325699], [10.489302, 49.3257223], [10.4887959, 49.325919], [10.4886499, 49.3258744], [10.4884868, 49.3259315], [10.4880316, 49.3261438], [10.4873648, 49.3263502], [10.4863971, 49.3266268], [10.4864543, 49.3268987], [10.4861211, 49.3269961], [10.4859949, 49.3270247], [10.4857352, 49.3270837], [10.4851335, 49.3270786], [10.4846132, 49.3270561], [10.4843366, 49.3269993], [10.4841879, 49.3269855], [10.4839481, 49.326944], [10.4839205, 49.326911], [10.4838472, 49.3268471], [10.4837531, 49.3268007], [10.4835122, 49.3267266], [10.4834496, 49.3267226], [10.4834092, 49.3267387], [10.4832627, 49.3270415], [10.4830998, 49.327046], [10.4829255, 49.3271009], [10.4828268, 49.3271414], [10.4821003, 49.3269711], [10.482093, 49.3269694], [10.4821034, 49.3267602], [10.4820806, 49.326699], [10.4820145, 49.326521], [10.4819636, 49.3264473], [10.4811343, 49.3263881], [10.4808248, 49.3263608], [10.4806161, 49.3263381], [10.4803978, 49.3263268], [10.4801328, 49.326311], [10.4798222, 49.3262507], [10.4794938, 49.3261596], [10.4792105, 49.3260881], [10.4790061, 49.3260525], [10.4782239, 49.3260158], [10.477233, 49.3259124], [10.476155, 49.325415], [10.4761339, 49.3258707], [10.4755631, 49.3260655], [10.4749918, 49.3261576], [10.47434, 49.3261652], [10.4735797, 49.3260494], [10.473551, 49.3257755], [10.4737378, 49.3252726], [10.4740105, 49.3246381], [10.4747044, 49.3223729], [10.4750829, 49.3211878], [10.474988, 49.3209858], [10.4749712, 49.3209729], [10.4748788, 49.3209276], [10.4746075, 49.3208348], [10.4743205, 49.320784], [10.4743144, 49.3206575], [10.4742983, 49.3203361], [10.4744471, 49.3199824], [10.4746974, 49.3192962], [10.4749087, 49.3189097], [10.4750069, 49.3186714], [10.4750792, 49.3185122], [10.4752319, 49.3180929], [10.4752868, 49.3178607], [10.4753061, 49.3176703], [10.4752956, 49.3174866], [10.4752533, 49.317364], [10.4752004, 49.3172514], [10.4751469, 49.3171645], [10.4752425, 49.3170762], [10.4752286, 49.3169461], [10.4766841, 49.3153417], [10.4776181, 49.3143327], [10.4778311, 49.3141228], [10.4786175, 49.3132641], [10.4767955, 49.3116061], [10.4762712, 49.3111533], [10.4768315, 49.3107024], [10.4772507, 49.3103888], [10.4776591, 49.3101371], [10.4781829, 49.3098393], [10.4785204, 49.3096473], [10.4787892, 49.3094719], [10.4789226, 49.3093736], [10.4791307, 49.3093136], [10.4793579, 49.3092674], [10.4799071, 49.309272], [10.4806854, 49.3092661], [10.4813732, 49.3092469], [10.4823713, 49.309182], [10.4827581, 49.3091872], [10.4827328, 49.3091333], [10.4824524, 49.3085359], [10.482318, 49.3082511], [10.4826542, 49.3081723], [10.4831848, 49.3079765], [10.4839851, 49.3075401], [10.4843266, 49.30729], [10.4844937, 49.3070219], [10.4848125, 49.3068675], [10.48507, 49.3066371], [10.4853586, 49.3064225], [10.4855526, 49.3063049], [10.4857851, 49.3063228], [10.4859817, 49.3062999], [10.4866596, 49.3061419], [10.4869286, 49.3060547], [10.4872138, 49.3059894], [10.487426, 49.3059491], [10.4876793, 49.3059442], [10.4882625, 49.3059668], [10.488718, 49.3060119], [10.4892222, 49.3060748], [10.489757, 49.3061566], [10.4905363, 49.3062501], [10.4911185, 49.3063276], [10.4914151, 49.3063404], [10.4915827, 49.3063349], [10.4920023, 49.3063093], [10.4920814, 49.3062964], [10.4926158, 49.3062082], [10.4925615, 49.3060596], [10.492532, 49.3059785], [10.492427, 49.3057742], [10.4928067, 49.3056965], [10.4937836, 49.3040628], [10.4942982, 49.3031978], [10.4943895, 49.3030435], [10.495155, 49.301746], [10.4952666, 49.3015598], [10.496061, 49.3016244], [10.4963475, 49.2999182], [10.4963048, 49.2998271], [10.4962567, 49.2997239], [10.4962014, 49.2996104], [10.496145, 49.299524], [10.4963739, 49.2995427], [10.4965675, 49.2995643], [10.4969175, 49.2996145], [10.4972317, 49.2996844], [10.4975177, 49.2997557], [10.4977754, 49.2998374], [10.4979569, 49.2999029], [10.4983809, 49.3000906], [10.4987505, 49.2997992], [10.4990522, 49.2995748], [10.49925, 49.2994277], [10.4995241, 49.2992236], [10.499639, 49.2991385], [10.4997543, 49.2990533], [10.4994876, 49.2989425], [10.499214, 49.2988004], [10.4987862, 49.2986984], [10.4993443, 49.2982895], [10.4987505, 49.2979457], [10.4986178, 49.2978688], [10.4975886, 49.2986881], [10.4973697, 49.2985407], [10.4973177, 49.2984493], [10.4972683, 49.2982939], [10.4972581, 49.2982019], [10.4972235, 49.2979666], [10.4970901, 49.2977013], [10.4968407, 49.2974608], [10.4965459, 49.2972234], [10.496197, 49.2970253], [10.4957834, 49.2968165], [10.4954665, 49.2966987], [10.495736, 49.2965265], [10.496008, 49.2964129], [10.4967366, 49.2960552], [10.4974279, 49.2958588], [10.4980028, 49.2957249], [10.4982713, 49.2957056], [10.4982478, 49.2954674], [10.4982713, 49.2953906], [10.4983645, 49.2950851], [10.4987506, 49.2948925], [10.498772, 49.2948799], [10.4987507, 49.2948639], [10.4982619, 49.2945691], [10.4978861, 49.2942956], [10.4977124, 49.2942498], [10.4974204, 49.2941368], [10.4974708, 49.2940387], [10.4977179, 49.2936242], [10.4977231, 49.2936032], [10.4977094, 49.2934163], [10.4976667, 49.293185], [10.4976573, 49.293077], [10.497659, 49.2930232], [10.497673, 49.2929533], [10.4976934, 49.2928965], [10.4977354, 49.2928265], [10.497792, 49.2927476], [10.497816, 49.2927203], [10.4978665, 49.2926617], [10.4980248, 49.2924872], [10.4984612, 49.2921521], [10.498751, 49.2918962], [10.4990684, 49.2916172], [10.4992074, 49.2914949], [10.4987542, 49.2913847], [10.4987511, 49.2913796], [10.4987111, 49.2913718], [10.4985508, 49.2913621], [10.4982741, 49.2913971], [10.4982035, 49.2914183], [10.4973762, 49.2914204], [10.496885, 49.2914486], [10.4967571, 49.2914069], [10.496939, 49.2909171], [10.4967121, 49.2908264], [10.4961628, 49.2908809], [10.4955534, 49.2909513], [10.4949887, 49.2909991], [10.4943123, 49.2908458], [10.4941872, 49.2908336], [10.4940596, 49.2908362], [10.4939048, 49.2908563], [10.4937888, 49.2908642], [10.4937791, 49.2907592], [10.4937694, 49.2906587], [10.4936174, 49.2906697], [10.4935493, 49.2906684], [10.4933786, 49.2906332], [10.4932857, 49.2906203], [10.492676, 49.2904386], [10.4925394, 49.2903868], [10.4924524, 49.2904242], [10.4924156, 49.2904445], [10.4923074, 49.2904836], [10.4920716, 49.2905217], [10.4917514, 49.2905587], [10.4912715, 49.2906027], [10.4906019, 49.29054], [10.4903483, 49.2905099], [10.4904447, 49.2901765], [10.4904942, 49.289956], [10.4905371, 49.2896966], [10.4905397, 49.289672], [10.4906139, 49.288972], [10.4893515, 49.2887916], [10.4890653, 49.2887507], [10.4887798, 49.2887147], [10.4884268, 49.2886702], [10.4880769, 49.2886261], [10.4883182, 49.288368], [10.4887339, 49.2879986], [10.4885465, 49.2879403], [10.4881547, 49.2878072], [10.4860711, 49.2871757], [10.4835737, 49.2865903], [10.4817104, 49.2861489], [10.4812139, 49.2860537], [10.4811126, 49.2861525], [10.4805857, 49.2865226], [10.4805117, 49.2865534], [10.4806222, 49.286667], [10.4807806, 49.2868592], [10.4809308, 49.2870801], [10.4810631, 49.2872623], [10.4811903, 49.2874114], [10.4813428, 49.2875751], [10.4814622, 49.2876812], [10.4817451, 49.2879129], [10.4817559, 49.2879245], [10.4820531, 49.2881954], [10.4822992, 49.2884119], [10.4824702, 49.28853], [10.4826072, 49.2886142], [10.4828692, 49.288743], [10.4830033, 49.2888236], [10.4830346, 49.2888424], [10.4830573, 49.2888615], [10.4831391, 49.2889607], [10.4831729, 49.2889878], [10.4831936, 49.2889944], [10.4833277, 49.2890045], [10.483243, 49.2891451], [10.4830495, 49.2894659], [10.4825237, 49.2902762], [10.4823978, 49.2906172], [10.4822976, 49.2913407], [10.4822575, 49.2916303], [10.4822066, 49.2921367], [10.4819113, 49.2921031], [10.4818385, 49.292096], [10.4817576, 49.2920902], [10.4817449, 49.2922074], [10.4817343, 49.2922778], [10.4817025, 49.2923442], [10.4815243, 49.292631], [10.4814452, 49.292718], [10.4813653, 49.2927918], [10.4812812, 49.2928438], [10.4811915, 49.2928765], [10.4810653, 49.2929009], [10.4809021, 49.2929115], [10.4807568, 49.2929322], [10.4806409, 49.2929567], [10.4806125, 49.2929577], [10.4804314, 49.2929355], [10.4800715, 49.2929056], [10.4797611, 49.2928154], [10.4794406, 49.2927445], [10.4790843, 49.2926436], [10.4790068, 49.2926156], [10.4785761, 49.2924191], [10.4781336, 49.2922516], [10.4779888, 49.2922043], [10.4779314, 49.2921978], [10.4774145, 49.2921387], [10.4771231, 49.2921206], [10.4768178, 49.2921106], [10.4762407, 49.2921347], [10.4760586, 49.2921764], [10.4758633, 49.2922212], [10.4751034, 49.2922353], [10.4741463, 49.2922239], [10.4733541, 49.2923209], [10.4729357, 49.2922743], [10.4725963, 49.292274], [10.4725978, 49.2927918], [10.4720228, 49.2927048], [10.4712038, 49.2926176], [10.4709081, 49.2923175], [10.4704016, 49.292421], [10.4700231, 49.2924065], [10.469716, 49.2924195], [10.4692069, 49.2923617], [10.4682399, 49.2924078], [10.4676423, 49.2924269], [10.4673661, 49.2924234], [10.4671735, 49.2924035], [10.4671792, 49.2924474], [10.4671819, 49.2925339], [10.4671753, 49.2925984], [10.4671527, 49.2927037], [10.4668794, 49.2927637], [10.4667916, 49.2927851], [10.4665154, 49.2928993], [10.4662023, 49.2930884], [10.4658888, 49.2931731], [10.4656808, 49.2931905], [10.4655597, 49.2932006], [10.46551, 49.2931991], [10.4655307, 49.293164], [10.4655486, 49.2930905], [10.4658444, 49.2918836], [10.4658513, 49.2918724], [10.4658577, 49.2916952], [10.4657224, 49.2915793], [10.4657131, 49.291565], [10.4656311, 49.2914827], [10.4655863, 49.2914377], [10.4655329, 49.2913301], [10.465557, 49.2911869], [10.4658886, 49.2907845], [10.4658969, 49.290516], [10.4659252, 49.2903014], [10.4659185, 49.2900379], [10.4658355, 49.2898103], [10.4657661, 49.28961], [10.4656303, 49.2890276], [10.4655438, 49.2886992], [10.4654384, 49.2884512], [10.4653141, 49.2883292], [10.4651535, 49.28823], [10.4649548, 49.2881789], [10.4649244, 49.2881749], [10.4643989, 49.288106], [10.462803, 49.2879564], [10.4627195, 49.2879511], [10.4619603, 49.2879032], [10.4614406, 49.2878602], [10.461139, 49.2878275], [10.460868, 49.2877781], [10.4605162, 49.2876737], [10.4601526, 49.2875349], [10.4598421, 49.2874375], [10.4595639, 49.2873391], [10.4592531, 49.2872292], [10.4590693, 49.2870611], [10.4589931, 49.287046], [10.4585013, 49.2869485], [10.4581995, 49.2868886], [10.4583519, 49.2862161], [10.4584559, 49.2855116], [10.4578261, 49.2855551], [10.4572926, 49.2855601], [10.4565567, 49.2855444], [10.4559161, 49.2855906], [10.4552484, 49.2854318], [10.4546862, 49.2854814], [10.4543048, 49.2855112]]]}}