{"type":"Feature","properties":{"osm_display_name":"Landkreis Ansbach, Bayern, Deutschland","osm_id":62609,"hinweis":"Landkreis fuer den Hero der Stadtseite. Der Stadtmittelpunkt liegt im aeusseren Ring dieses Kreises (geprueft). Vereinfacht, Toleranz 0.0004 Grad."},"geometry":{"type":"MultiPolygon","coordinates":[[[[10.7843429,49.2021286],[10.7833355,49.2008717],[10.7804504,49.2007193],[10.783029,49.2004206],[10.7802746,49.1987677],[10.7802522,49.1980295],[10.7790746,49.197638],[10.7787838,49.1967212],[10.7859783,49.2011498],[10.7924396,49.201662],[10.794096,49.2015506],[10.7948166,49.1988467],[10.7930671,49.1976668],[10.7941544,49.1970225],[10.7965963,49.1984026],[10.7988884,49.1986834],[10.8023845,49.1979906],[10.8056123,49.1988839],[10.8088314,49.1978441],[10.8105617,49.1983037],[10.8107601,49.1972208],[10.8146461,49.1971054],[10.8148267,49.1975404],[10.81644,49.1967279],[10.8186579,49.1975361],[10.8183554,49.1990165],[10.8198734,49.1992375],[10.8216528,49.1979458],[10.822223,49.1961949],[10.8246211,49.1947513],[10.8249423,49.1961288],[10.8297973,49.1961738],[10.8342188,49.1969893],[10.8348351,49.1964424],[10.8376943,49.1977577],[10.8372427,49.198377],[10.8462106,49.2026447],[10.8492927,49.2047803],[10.8578872,49.2072891],[10.8627047,49.2078501],[10.8632458,49.2085082],[10.8627487,49.2087689],[10.8622544,49.2123393],[10.8591461,49.2121254],[10.8585895,49.210527],[10.8552903,49.210548],[10.8549468,49.2114909],[10.8554126,49.2120004],[10.855047,49.2137991],[10.8560493,49.214113],[10.855576,49.2150533],[10.8559904,49.2156092],[10.8574001,49.2157187],[10.8577988,49.2151485],[10.8627187,49.2161399],[10.8615016,49.2179311],[10.8604807,49.2179694],[10.8606034,49.2191524],[10.8592835,49.2194072],[10.8589078,49.2205399],[10.8622046,49.2208794],[10.8628203,49.2218184],[10.8655043,49.2226867],[10.8651819,49.2235899],[10.8660875,49.2237109],[10.8658302,49.2240688],[10.8668215,49.2244818],[10.8679878,49.2240871],[10.8702398,49.2252122],[10.8706279,49.2261281],[10.8710361,49.2255416],[10.871795,49.2259095],[10.8727017,49.2275451],[10.8736121,49.2274543],[10.8737519,49.2295298],[10.87663,49.2298991],[10.876125,49.2305941],[10.8772782,49.2310427],[10.8860357,49.2320885],[10.8861234,49.2328071],[10.8871064,49.233068],[10.8905628,49.2328191],[10.8930166,49.2318915],[10.8933818,49.2353009],[10.895584,49.2371757],[10.8981159,49.243249],[10.902471,49.2423282],[10.9065235,49.2429367],[10.9133868,49.2466419],[10.9113811,49.2549242],[10.9086198,49.2544961],[10.908837,49.2535287],[10.9079001,49.2528515],[10.9049758,49.2527403],[10.9046134,49.2534624],[10.9034519,49.2526232],[10.9022824,49.2545031],[10.9011548,49.2548486],[10.9026876,49.2597598],[10.9038873,49.25984],[10.903976,49.2603734],[10.9030885,49.2604922],[10.9030297,49.2632364],[10.9009378,49.2637807],[10.9030048,49.2641696],[10.9029703,49.2650697],[10.9025061,49.2660062],[10.9009295,49.266789],[10.8980762,49.2659029],[10.8969604,49.2696085],[10.8959952,49.2700338],[10.8961165,49.2706577],[10.8986061,49.2711846],[10.8987024,49.2730548],[10.9008612,49.274718],[10.9008034,49.2760622],[10.9020535,49.2781478],[10.9008693,49.2783387],[10.8999794,49.2798254],[10.9035432,49.2804488],[10.9018875,49.2812904],[10.9015397,49.2836203],[10.9077765,49.2863754],[10.9065064,49.2905235],[10.9071526,49.292233],[10.905021,49.292608],[10.9049671,49.2935764],[10.9026987,49.2949424],[10.9001728,49.2945829],[10.9004728,49.2953721],[10.8998601,49.2957058],[10.9005858,49.2970998],[10.8991452,49.2970388],[10.8997959,49.3001043],[10.8981677,49.3033559],[10.8965202,49.3048252],[10.8979186,49.306803],[10.8971932,49.3078595],[10.8939343,49.3073499],[10.8924609,49.3079053],[10.8911677,49.3070606],[10.8876344,49.3065315],[10.8855506,49.3092283],[10.8859839,49.3119461],[10.8841343,49.3126239],[10.8880528,49.3156675],[10.887528,49.316517],[10.8822445,49.3152383],[10.8803595,49.3153132],[10.8758925,49.3169439],[10.8726682,49.3166246],[10.8677899,49.3148915],[10.8654132,49.3151338],[10.8646104,49.3158063],[10.8638177,49.3173879],[10.8647902,49.3179683],[10.8665663,49.3180817],[10.8703976,49.3200112],[10.8719235,49.3197324],[10.8690918,49.3224532],[10.8730041,49.3229548],[10.8727321,49.3248682],[10.8692571,49.3248774],[10.8684287,49.3283094],[10.8669611,49.3290788],[10.8668525,49.329769],[10.8654837,49.3297316],[10.8650739,49.3346327],[10.8664743,49.3350916],[10.8667015,49.3388724],[10.8654678,49.3388124],[10.8651104,49.3398541],[10.8636083,49.3397989],[10.8630698,49.3431184],[10.8616128,49.3430538],[10.8621936,49.3463898],[10.8615711,49.3464912],[10.8615658,49.3471952],[10.8622019,49.3471163],[10.8632436,49.3484581],[10.862327,49.3489793],[10.8639165,49.3508468],[10.864828,49.3503567],[10.8666678,49.352199],[10.8660643,49.3524176],[10.8666937,49.3540974],[10.8675689,49.3541314],[10.8677699,49.3561651],[10.8623551,49.3571165],[10.8569919,49.3599266],[10.8552888,49.3594526],[10.8552837,49.3615886],[10.8499684,49.3619528],[10.8497578,49.3626263],[10.8406457,49.3632626],[10.8408921,49.3653636],[10.8397903,49.3656192],[10.8406141,49.3663145],[10.8378022,49.3668499],[10.8354965,49.368574],[10.8344565,49.3683606],[10.8333738,49.3697531],[10.8323717,49.369154],[10.8320707,49.3704326],[10.8274971,49.3714536],[10.8276105,49.3722227],[10.8238282,49.3742537],[10.8200421,49.3745584],[10.8196888,49.373673],[10.8169856,49.3725037],[10.8111722,49.3735995],[10.8100691,49.3751703],[10.8062781,49.3760564],[10.8053244,49.3775253],[10.8033787,49.3786572],[10.8012778,49.378315],[10.8010047,49.3829663],[10.7896298,49.3849292],[10.7886567,49.3857771],[10.7890405,49.3861748],[10.7856059,49.388665],[10.7844287,49.3881324],[10.7876143,49.3854218],[10.7871281,49.3847328],[10.7837705,49.3842373],[10.7815789,49.3830977],[10.7763923,49.3871354],[10.777284,49.3880062],[10.7760713,49.3887828],[10.7757021,49.3893925],[10.7762328,49.3895829],[10.7753794,49.3897855],[10.7739567,49.3918502],[10.7718961,49.3912168],[10.7704118,49.3926615],[10.7679348,49.3922987],[10.7677789,49.3937128],[10.7661169,49.3955043],[10.7607359,49.3945455],[10.7563764,49.3977069],[10.7518072,49.3976501],[10.7518587,49.3988324],[10.7497239,49.3992077],[10.7485523,49.4004342],[10.7467609,49.4004256],[10.7466824,49.3995997],[10.7431966,49.4002859],[10.7427264,49.4057487],[10.7416599,49.4071055],[10.7422999,49.4073717],[10.7391377,49.4103866],[10.7373168,49.4103105],[10.7371655,49.411764],[10.737855,49.411812],[10.7385525,49.4149345],[10.7395764,49.4159101],[10.7403731,49.4156428],[10.7411786,49.416256],[10.7457368,49.4146276],[10.7463844,49.416854],[10.7496664,49.415856],[10.7497498,49.4168955],[10.7520663,49.4162315],[10.7522579,49.4172556],[10.7509265,49.4174726],[10.7516546,49.4195993],[10.749882,49.4196842],[10.7505887,49.4224837],[10.7436337,49.4229345],[10.7439721,49.4242552],[10.7398367,49.4244535],[10.7429576,49.429289],[10.7425662,49.4295205],[10.7443908,49.4307001],[10.738438,49.4314006],[10.7392835,49.4337527],[10.7367538,49.4341016],[10.7364547,49.4333245],[10.7337823,49.4331593],[10.7344772,49.4344505],[10.7338382,49.4355037],[10.7240822,49.4343169],[10.7170295,49.4344171],[10.7166194,49.4353596],[10.7148889,49.4351929],[10.7150357,49.4343934],[10.7136262,49.4343385],[10.7133556,49.4329662],[10.7100934,49.4339038],[10.7052604,49.4338341],[10.7032654,49.4351142],[10.7037293,49.4360708],[10.7051697,49.4358399],[10.7054967,49.4362876],[10.7024478,49.4372308],[10.7003514,49.437059],[10.6977579,49.4363329],[10.6917639,49.4326582],[10.6888817,49.43253],[10.6863941,49.4312793],[10.6726408,49.4298587],[10.6718097,49.4248879],[10.6620568,49.425163],[10.6612594,49.4259709],[10.6589097,49.4260898],[10.653328,49.4256122],[10.6525248,49.4253164],[10.6527075,49.4245852],[10.6479567,49.4228755],[10.6409939,49.4218427],[10.6382335,49.4222849],[10.6384762,49.4242282],[10.6377614,49.4251576],[10.6351472,49.4237906],[10.6345856,49.421562],[10.6336795,49.4211291],[10.6316324,49.4215489],[10.6301746,49.4232806],[10.6303413,49.4238782],[10.6276376,49.4263584],[10.6260409,49.4257961],[10.6245298,49.4261603],[10.6220847,49.4268971],[10.621181,49.42759],[10.6211297,49.4285654],[10.6186115,49.4294978],[10.617301,49.4295999],[10.6172032,49.4290286],[10.6132444,49.4300768],[10.6124516,49.4269409],[10.6133324,49.4266178],[10.6117882,49.4255864],[10.6108092,49.4256526],[10.6110049,49.4239009],[10.6090572,49.4239011],[10.6090258,49.4230808],[10.6111812,49.4230868],[10.6111701,49.4224443],[10.6054951,49.4233252],[10.6053595,49.4227094],[10.6019915,49.4230319],[10.6012424,49.4218862],[10.5979849,49.4221541],[10.5978815,49.4231196],[10.5968715,49.4233772],[10.5978401,49.4266521],[10.5989883,49.4268034],[10.5988948,49.4284021],[10.5978547,49.4313072],[10.5960588,49.4314828],[10.5961312,49.4318881],[10.5996949,49.4327713],[10.6050123,49.4324914],[10.6092815,49.4313191],[10.6118762,49.4318486],[10.6123104,49.4320371],[10.6101565,49.4350942],[10.6130899,49.4386033],[10.6129877,49.439608],[10.6119729,49.4395218],[10.6118804,49.4400052],[10.618928,49.4409597],[10.6136189,49.443436],[10.6131563,49.445004],[10.6136062,49.4451025],[10.6127397,49.4458632],[10.6139987,49.4458487],[10.6140724,49.4463175],[10.611448,49.4485283],[10.6088849,49.4469772],[10.6104867,49.4463256],[10.6050388,49.4446018],[10.6035477,49.4467074],[10.5876868,49.4433414],[10.5779808,49.4400726],[10.5761377,49.4386653],[10.5730979,49.4381524],[10.5703487,49.4384129],[10.5708645,49.4400923],[10.5697013,49.4417279],[10.5682975,49.4424627],[10.5625627,49.4418293],[10.5603116,49.4436609],[10.5571757,49.4447765],[10.5550993,49.4438187],[10.5535512,49.4412271],[10.554346,49.4386943],[10.5553614,49.4379342],[10.5547614,49.4372122],[10.5496852,49.4384343],[10.5469884,49.4364795],[10.5466854,49.4394047],[10.5421601,49.4386955],[10.5417736,49.4379524],[10.5403295,49.438457],[10.5379731,49.4381365],[10.5382419,49.4389759],[10.5366566,49.4407316],[10.5389225,49.4414141],[10.5387282,49.4430675],[10.536182,49.4427556],[10.5340756,49.4437282],[10.5301034,49.4437324],[10.52728,49.4458611],[10.5292342,49.4480134],[10.5279018,49.447049],[10.5263124,49.4474751],[10.5259353,49.4483767],[10.5227239,49.4475106],[10.5213429,49.448583],[10.5203786,49.4508389],[10.5147703,49.4491435],[10.5149828,49.4487806],[10.5107795,49.448438],[10.5108373,49.4491893],[10.5080836,49.4490107],[10.5093603,49.446718],[10.5070583,49.4469622],[10.5077371,49.4460145],[10.5100566,49.4452249],[10.5087594,49.4425354],[10.5090902,49.4421976],[10.5077816,49.4413975],[10.509073,49.4384146],[10.5149361,49.4391646],[10.5154527,49.4385945],[10.5143789,49.437635],[10.5150154,49.4372432],[10.5144506,49.4368244],[10.5105848,49.4353717],[10.5083017,49.4358382],[10.5058537,49.4352167],[10.5048888,49.4372022],[10.4995307,49.4358164],[10.4956563,49.4360193],[10.4968933,49.4327852],[10.4951844,49.4317272],[10.4916069,49.431449],[10.4900882,49.4318468],[10.4892678,49.4331116],[10.4883923,49.4333518],[10.4827864,49.4308941],[10.4853909,49.4298091],[10.4815078,49.4278247],[10.4787966,49.4273884],[10.477834,49.4264109],[10.478741,49.4237124],[10.4806327,49.4211069],[10.47449,49.4226595],[10.4720178,49.4238824],[10.4715461,49.4234825],[10.4779636,49.419621],[10.4811567,49.4162771],[10.4796781,49.4153236],[10.4799652,49.4143906],[10.4762719,49.4131072],[10.4766546,49.4125779],[10.4757292,49.4119016],[10.474547,49.4135389],[10.4754113,49.414261],[10.4743503,49.4145793],[10.4740291,49.4153469],[10.4679723,49.4135273],[10.4689561,49.4147632],[10.4672906,49.4179232],[10.467448,49.4190533],[10.4650123,49.4224464],[10.4652964,49.4242031],[10.4625297,49.4241936],[10.4611075,49.4232271],[10.4614145,49.4215628],[10.4597772,49.4188026],[10.4609876,49.4162999],[10.4581175,49.4157925],[10.4564692,49.4145962],[10.4494805,49.4136732],[10.4486462,49.4131466],[10.4489213,49.4126855],[10.4468905,49.4125498],[10.4447146,49.4139865],[10.4446035,49.4147578],[10.4452593,49.4163821],[10.4485571,49.4176562],[10.4452002,49.4187388],[10.4422879,49.4207171],[10.435934,49.4282583],[10.4303122,49.4279888],[10.4227152,49.4297174],[10.4024413,49.432708],[10.3995967,49.4300854],[10.3961773,49.4280686],[10.4036356,49.4258281],[10.404487,49.4246367],[10.4040341,49.4238938],[10.4051464,49.4224643],[10.403968,49.421895],[10.3975757,49.4223428],[10.3944347,49.421778],[10.3944879,49.4208926],[10.391133,49.4200539],[10.3914036,49.4194703],[10.3903842,49.4188419],[10.3887282,49.4140042],[10.3868973,49.4123388],[10.3800062,49.4142849],[10.369463,49.4140782],[10.3665063,49.414936],[10.3662808,49.413523],[10.3633655,49.4123682],[10.3564784,49.4114581],[10.3553978,49.4104684],[10.3527243,49.4110128],[10.3493782,49.4103331],[10.3479452,49.4163308],[10.3490204,49.4164701],[10.3486928,49.4185794],[10.3465525,49.4224701],[10.3470792,49.422635],[10.3459238,49.4239275],[10.3442906,49.4245222],[10.3447172,49.4249758],[10.3419561,49.4259767],[10.3410638,49.4278178],[10.3427344,49.4286331],[10.344438,49.4310128],[10.3443649,49.4331293],[10.3429587,49.4336377],[10.3409453,49.4329336],[10.3383209,49.4332493],[10.334935,49.4300212],[10.3326696,49.4287781],[10.3162896,49.4228505],[10.313104,49.4209262],[10.3110411,49.4186054],[10.3058771,49.4173652],[10.3038318,49.4158049],[10.3007622,49.4153582],[10.2957233,49.4125572],[10.2932385,49.4141514],[10.2894738,49.413849],[10.2879394,49.4144722],[10.2872052,49.4154895],[10.2858676,49.41594],[10.2839138,49.4185494],[10.2797381,49.4209821],[10.2799152,49.4218995],[10.2809614,49.4221581],[10.2824193,49.4237655],[10.2823579,49.4251357],[10.2761644,49.4274721],[10.2767418,49.4292312],[10.2750505,49.4314726],[10.2762437,49.4316222],[10.2762388,49.4330604],[10.2735962,49.4345354],[10.2734103,49.4355433],[10.2706037,49.4353151],[10.2659768,49.4333751],[10.2651312,49.4337294],[10.2643706,49.4362821],[10.2593522,49.4413489],[10.257068,49.4400384],[10.2567134,49.4404053],[10.2547558,49.4430096],[10.2549266,49.4436507],[10.2534057,49.4447419],[10.2538193,49.446138],[10.253293,49.4480058],[10.2508031,49.4475057],[10.2459801,49.4524487],[10.2539183,49.452685],[10.2526794,49.4567816],[10.2581737,49.4589113],[10.256798,49.46035],[10.2605603,49.4607594],[10.2594976,49.4618693],[10.2621153,49.4632289],[10.2617882,49.464217],[10.2630844,49.4643518],[10.2629515,49.4655114],[10.2649983,49.4658999],[10.2659893,49.4651232],[10.2676311,49.4658791],[10.2674285,49.4662902],[10.269081,49.4671473],[10.2675126,49.469208],[10.2634885,49.4715582],[10.2625779,49.4729134],[10.258111,49.4733535],[10.2561756,49.4716752],[10.2552924,49.4747556],[10.2539199,49.4745855],[10.2534061,49.4763633],[10.2437132,49.4748477],[10.2408811,49.4784359],[10.2403288,49.4805534],[10.2408011,49.4822295],[10.2394021,49.4822901],[10.2407849,49.4837333],[10.2402421,49.4848351],[10.2344364,49.4884093],[10.2224643,49.4887581],[10.2219272,49.4904647],[10.2207618,49.4908385],[10.2054994,49.4920477],[10.2034413,49.4905278],[10.2023975,49.4912713],[10.1979675,49.4915401],[10.1961147,49.4898421],[10.1875777,49.4883709],[10.1866738,49.4892252],[10.1860875,49.4916666],[10.1851967,49.4918963],[10.1846912,49.4899877],[10.1820992,49.490053],[10.1819741,49.4891258],[10.1811841,49.4887956],[10.1780968,49.488624],[10.1791814,49.4869392],[10.1750241,49.48318],[10.1754786,49.4804345],[10.1712582,49.4790673],[10.1728755,49.4756348],[10.1660103,49.4740399],[10.164178,49.4779824],[10.1600706,49.476984],[10.1603674,49.4790216],[10.1577296,49.4784999],[10.1570467,49.479456],[10.1524225,49.4785674],[10.1515693,49.4799815],[10.1471429,49.4799546],[10.1396693,49.4778733],[10.1379801,49.4789165],[10.1385738,49.475961],[10.1340003,49.4754754],[10.1347059,49.4724398],[10.1316322,49.4713183],[10.1297771,49.470886],[10.1267836,49.4712622],[10.1267552,49.4708293],[10.1239652,49.4717654],[10.1182577,49.4723515],[10.1178612,49.4715295],[10.119491,49.4709712],[10.1192788,49.4702525],[10.1176238,49.4702271],[10.1179113,49.4676019],[10.1215864,49.4650976],[10.12217,49.4637897],[10.1217732,49.4635312],[10.1159117,49.4612019],[10.1143599,49.4625475],[10.1089599,49.4619903],[10.1067711,49.4632851],[10.105295,49.463183],[10.1048644,49.4629614],[10.1053868,49.4619508],[10.1080978,49.4603194],[10.1071916,49.4588569],[10.1009056,49.4568819],[10.0978851,49.4570093],[10.097142,49.4560642],[10.0980036,49.4548856],[10.0973587,49.4545033],[10.0971709,49.4514485],[10.0948792,49.4480655],[10.1058384,49.4444015],[10.1058334,49.4432869],[10.1118217,49.4385647],[10.1127978,49.438871],[10.1101875,49.4423677],[10.1148449,49.4436889],[10.1178844,49.4429901],[10.1188922,49.4439266],[10.1218377,49.4409455],[10.1227014,49.4407014],[10.1237055,49.4413512],[10.1243865,49.4402393],[10.127146,49.4388677],[10.1331224,49.437935],[10.1345244,49.4355235],[10.1343377,49.4348055],[10.1380691,49.4332012],[10.1348736,49.4333353],[10.1336775,49.4321201],[10.1363959,49.4307996],[10.1357708,49.4304262],[10.1383178,49.4281842],[10.1384314,49.4261646],[10.1373537,49.4246629],[10.1397407,49.4237227],[10.145749,49.4188493],[10.1454174,49.4185088],[10.1464034,49.4175253],[10.1461134,49.415988],[10.1466985,49.4160957],[10.1473036,49.4137336],[10.1499563,49.414051],[10.1503151,49.4135229],[10.1492993,49.412987],[10.1517071,49.4124212],[10.1524869,49.411628],[10.1483905,49.4119598],[10.1478327,49.4111582],[10.1493694,49.4102719],[10.1498941,49.4092271],[10.1498787,49.4062856],[10.1524133,49.404222],[10.1511977,49.403511],[10.1521996,49.4012448],[10.1497392,49.4019772],[10.1493535,49.4013555],[10.1485708,49.4022295],[10.1441684,49.4035575],[10.1403546,49.4038381],[10.138962,49.4036727],[10.1388983,49.4030881],[10.1447577,49.4024403],[10.1503156,49.3993325],[10.1541924,49.3987643],[10.1541604,49.3970942],[10.1550554,49.3965888],[10.1617526,49.3952708],[10.1606928,49.3942228],[10.1610052,49.3903803],[10.1596125,49.3901928],[10.1576065,49.39099],[10.1567642,49.390774],[10.1568976,49.3902015],[10.1560375,49.3895768],[10.1562522,49.3886652],[10.1463246,49.3883055],[10.1460633,49.3856856],[10.1453157,49.3857656],[10.1445654,49.3835544],[10.1424978,49.3841903],[10.1399356,49.3835418],[10.139957,49.3858416],[10.1365888,49.3860759],[10.1364434,49.3867164],[10.1329186,49.3868204],[10.1329513,49.3860212],[10.1320346,49.386056],[10.1321878,49.3869121],[10.1293997,49.387427],[10.1217022,49.3878982],[10.1218063,49.3863241],[10.1187294,49.386383],[10.1118546,49.38505],[10.1071726,49.3788747],[10.1172392,49.3690834],[10.1173377,49.3669883],[10.1135271,49.3666235],[10.1127156,49.3620251],[10.1133215,49.3596775],[10.1179327,49.3596519],[10.1183025,49.3578656],[10.1245916,49.3569031],[10.1246346,49.3558628],[10.1243785,49.354903],[10.1230457,49.3546561],[10.1237873,49.350546],[10.1221899,49.3502702],[10.1189728,49.3501132],[10.1188589,49.3510055],[10.1141922,49.3519409],[10.1086567,49.3516374],[10.107954,49.3533246],[10.106759,49.3529282],[10.1092959,49.3483333],[10.107787,49.3474453],[10.1038968,49.3469711],[10.1039415,49.3446441],[10.1028342,49.3444621],[10.1032198,49.3414498],[10.1046358,49.3408702],[10.1044562,49.3384917],[10.108875,49.3379328],[10.1083188,49.3359998],[10.1130964,49.3356794],[10.1128506,49.33241],[10.1071186,49.3324194],[10.1089609,49.3323312],[10.1104961,49.3288182],[10.114076,49.3296388],[10.1149958,49.3283919],[10.1186579,49.3290373],[10.1203435,49.3252707],[10.1230663,49.3246094],[10.1234778,49.3256859],[10.1252476,49.3250899],[10.1266857,49.3260247],[10.1276253,49.3247046],[10.130765,49.3254544],[10.1303083,49.3276829],[10.1329281,49.3277244],[10.1329491,49.3267886],[10.1371235,49.3273599],[10.1371005,49.3267499],[10.139836,49.327066],[10.1388138,49.3256753],[10.1397285,49.3258318],[10.1405285,49.3245686],[10.1402567,49.3225973],[10.1427442,49.3226059],[10.1434584,49.3189466],[10.1453764,49.3164032],[10.1437646,49.3157573],[10.141581,49.3130206],[10.1354885,49.3097236],[10.1364783,49.3080438],[10.1314575,49.3050648],[10.1323316,49.3040019],[10.1322813,49.3003899],[10.1333841,49.3002964],[10.1332949,49.2987565],[10.1339221,49.2988845],[10.1345592,49.2970541],[10.1339914,49.2970094],[10.1341367,49.2959114],[10.1373075,49.2937848],[10.1383469,49.2915272],[10.1429192,49.2912523],[10.1440444,49.2903502],[10.1429332,49.2898359],[10.1432325,49.2894485],[10.1411899,49.2887868],[10.1420737,49.287803],[10.1439305,49.2880479],[10.1457312,49.2874429],[10.1498507,49.2880386],[10.1492986,49.2846731],[10.1533761,49.2848486],[10.1566491,49.2811208],[10.1559276,49.2806885],[10.1531766,49.2819377],[10.1513339,49.2807608],[10.1500359,49.2783722],[10.1463557,49.2771009],[10.1480235,49.2755408],[10.1470338,49.2749804],[10.1448784,49.2751896],[10.1461044,49.272801],[10.1456864,49.2725833],[10.1463981,49.2720382],[10.1448579,49.271737],[10.1476421,49.2695422],[10.1493666,49.2690347],[10.1414979,49.2675257],[10.1388477,49.2649958],[10.1365302,49.2643305],[10.1337793,49.2622329],[10.1313701,49.2639254],[10.1284968,49.2630386],[10.1289457,49.2622875],[10.1276376,49.2615116],[10.1263001,49.2624131],[10.1261758,49.2648681],[10.1273043,49.2656639],[10.123308,49.2702145],[10.123834,49.2706056],[10.1232488,49.2724338],[10.122443,49.2727328],[10.1227319,49.2733666],[10.1251996,49.2730739],[10.1255192,49.2736904],[10.1311847,49.2747359],[10.1280706,49.275943],[10.126666,49.2755276],[10.1264104,49.2747555],[10.1231826,49.2747915],[10.1214559,49.2727505],[10.1217123,49.2711425],[10.1195622,49.2685605],[10.1198961,49.26684],[10.1177599,49.2684845],[10.1174898,49.2675505],[10.1154751,49.2676645],[10.1143167,49.2665928],[10.1144646,49.2657965],[10.1160724,49.2655656],[10.1168365,49.2642095],[10.1166674,49.2601814],[10.115952,49.2589113],[10.117155,49.2591496],[10.1190751,49.2577337],[10.1153212,49.2573311],[10.1157005,49.258431],[10.1149303,49.2587419],[10.1134917,49.2579295],[10.111934,49.2585705],[10.1093011,49.2578387],[10.1142891,49.2559339],[10.1190021,49.2561043],[10.123713,49.255249],[10.1259022,49.2558743],[10.1271644,49.2534462],[10.1303985,49.2542038],[10.1289456,49.256229],[10.1294498,49.2562866],[10.1309153,49.2539011],[10.1324565,49.2540745],[10.1331117,49.2532452],[10.1316838,49.2525325],[10.1321765,49.2513015],[10.1266711,49.2490539],[10.1253741,49.2493751],[10.1221977,49.247749],[10.1200824,49.247552],[10.1198432,49.2469684],[10.1226699,49.2467295],[10.1243065,49.2456808],[10.1244411,49.2451435],[10.1232029,49.244098],[10.1247838,49.2426989],[10.1228285,49.2408018],[10.1240261,49.2397192],[10.1230439,49.239263],[10.1265302,49.2361202],[10.1263141,49.2301767],[10.1273753,49.2298009],[10.1278701,49.2277628],[10.1259453,49.2272276],[10.1266345,49.2246273],[10.1287002,49.2209059],[10.1324154,49.2172763],[10.1364239,49.217318],[10.1391738,49.215966],[10.1391017,49.2142978],[10.138509,49.2142015],[10.1400073,49.2105774],[10.1396499,49.2095641],[10.1405208,49.208792],[10.1399556,49.2084572],[10.136198,49.2099832],[10.1302927,49.2096566],[10.1297375,49.2104969],[10.1280252,49.2101829],[10.1257383,49.2108184],[10.1247689,49.2094734],[10.1271701,49.2097501],[10.1276243,49.2079086],[10.1268853,49.2050122],[10.1274283,49.2041736],[10.1307563,49.203687],[10.1310947,49.2030873],[10.1287675,49.2026639],[10.1288615,49.2014916],[10.1265132,49.2016629],[10.1245261,49.2006753],[10.1248645,49.1988658],[10.1301022,49.198999],[10.1269716,49.1973216],[10.1290626,49.1955897],[10.1302599,49.1962566],[10.1289605,49.1972089],[10.1328299,49.1977824],[10.1329891,49.1985771],[10.131182,49.1991687],[10.1350913,49.2002392],[10.1354762,49.199251],[10.1381401,49.1983093],[10.137608,49.1976926],[10.1383436,49.1971281],[10.1412467,49.1975996],[10.1419935,49.1967224],[10.1419942,49.1953797],[10.156987,49.1925956],[10.1557318,49.1915646],[10.1546402,49.1916174],[10.1546394,49.1909671],[10.1532789,49.1910112],[10.1528336,49.1900118],[10.1571739,49.1901139],[10.1569743,49.1876916],[10.1584507,49.1859615],[10.1604923,49.1850782],[10.159077,49.1838182],[10.1608623,49.183467],[10.159715,49.1829953],[10.1621536,49.1824995],[10.1625798,49.1829499],[10.1672533,49.181192],[10.1659447,49.180722],[10.1667779,49.1799336],[10.1661996,49.1794325],[10.1673933,49.1794265],[10.1680876,49.1782176],[10.1710343,49.1780137],[10.1713689,49.1792406],[10.1761797,49.1799008],[10.1763791,49.1815702],[10.1813356,49.1825656],[10.1806637,49.1790059],[10.1812058,49.176688],[10.1783538,49.1760936],[10.1774582,49.1751579],[10.1772678,49.1732429],[10.183077,49.1718264],[10.1839205,49.1727247],[10.1848525,49.1722423],[10.1855652,49.1729872],[10.1857452,49.1718852],[10.1847204,49.1710653],[10.1867398,49.170428],[10.1867354,49.1725471],[10.1878486,49.1727404],[10.1882705,49.1738301],[10.1894023,49.1743158],[10.1900061,49.1738681],[10.1884569,49.1728679],[10.1895939,49.1720485],[10.1882436,49.1718808],[10.1876142,49.170175],[10.1879727,49.1697284],[10.1885609,49.1705882],[10.1902486,49.170896],[10.195246,49.169925],[10.1925959,49.1675704],[10.1942652,49.1655963],[10.1972447,49.1636098],[10.1959223,49.1626065],[10.1995639,49.1602248],[10.1987486,49.1588646],[10.1987342,49.1569536],[10.1969489,49.1568234],[10.1968289,49.1557628],[10.2000033,49.1555163],[10.2025673,49.1563809],[10.2051184,49.1556141],[10.206963,49.1580013],[10.2067005,49.1589998],[10.2116918,49.160299],[10.2129247,49.1627964],[10.2145187,49.1623821],[10.2154606,49.1636582],[10.2181176,49.1634809],[10.2190978,49.1629004],[10.2198162,49.1613664],[10.2187437,49.1610345],[10.218608,49.1600606],[10.2226458,49.1600178],[10.2241132,49.1618324],[10.2279526,49.1599035],[10.2292666,49.1581111],[10.2320388,49.1564141],[10.2324059,49.1555692],[10.2312023,49.155525],[10.2310461,49.1534751],[10.2334007,49.1523059],[10.2369043,49.1519324],[10.2383575,49.1494322],[10.243918,49.148779],[10.2481538,49.1492601],[10.2484526,49.14799],[10.2476757,49.1476817],[10.2484767,49.145838],[10.2492692,49.1448309],[10.2518703,49.1436839],[10.2515124,49.1418688],[10.2524835,49.1420571],[10.2537419,49.1409736],[10.2538008,49.1390156],[10.2555776,49.1381008],[10.2514569,49.1339907],[10.2557484,49.1318415],[10.2567607,49.1308781],[10.25711,49.1290247],[10.2527548,49.1299597],[10.2510714,49.1262196],[10.2478149,49.1267183],[10.2430567,49.1257025],[10.2400017,49.1240866],[10.2412354,49.122615],[10.2407918,49.1221107],[10.2372137,49.1203285],[10.2302017,49.1191285],[10.2250872,49.1201883],[10.224786,49.1189751],[10.2295647,49.1170468],[10.2291115,49.1153089],[10.2298093,49.1132797],[10.2265059,49.1128614],[10.2273832,49.1116156],[10.2293507,49.1111702],[10.2277888,49.1103009],[10.2222029,49.1124288],[10.2154262,49.1133531],[10.2152568,49.1112882],[10.2135082,49.1113796],[10.2143244,49.1079792],[10.2161229,49.1060013],[10.2144441,49.1041495],[10.2149115,49.1041683],[10.2147016,49.1036918],[10.2122241,49.1016693],[10.213551,49.1010183],[10.2128738,49.1005529],[10.2116273,49.1016723],[10.2074155,49.1009191],[10.2080441,49.1004062],[10.2073816,49.0993965],[10.2102407,49.1006184],[10.2099197,49.0999963],[10.2114035,49.0980982],[10.2107806,49.0968817],[10.2090675,49.0976515],[10.2078432,49.0994464],[10.2039944,49.0973769],[10.2098737,49.0945505],[10.2117023,49.0942917],[10.2228037,49.0980597],[10.2242505,49.0956889],[10.2252974,49.0952513],[10.2251661,49.0943344],[10.2260575,49.0931801],[10.2255079,49.0915921],[10.2260629,49.0901285],[10.2280313,49.0891618],[10.2331485,49.0902704],[10.2323577,49.0917946],[10.2334981,49.0920489],[10.234298,49.0920458],[10.235103,49.0904571],[10.2376478,49.0912718],[10.2379042,49.0920005],[10.242619,49.0920284],[10.2427716,49.0930979],[10.2444473,49.0927197],[10.2431861,49.0908447],[10.244034,49.0905891],[10.2456374,49.0906375],[10.2452103,49.0919976],[10.2473149,49.0920643],[10.2476375,49.0929938],[10.2504695,49.092333],[10.2479846,49.0925169],[10.2478009,49.091927],[10.2487946,49.0915109],[10.248927,49.0921901],[10.2502772,49.0915741],[10.2506129,49.0902605],[10.2500938,49.0896999],[10.2504907,49.0884047],[10.2492518,49.0862842],[10.2481007,49.0863147],[10.2482502,49.0836256],[10.2471838,49.0835382],[10.247198,49.0815095],[10.2459212,49.0804274],[10.2468633,49.0806996],[10.2470955,49.0798275],[10.2444408,49.0799627],[10.2439964,49.0784977],[10.2424603,49.0787788],[10.241146,49.0795036],[10.2412178,49.080107],[10.2433044,49.0811221],[10.2427439,49.0820614],[10.2408654,49.0821456],[10.2393137,49.0787536],[10.2374708,49.0772541],[10.2340183,49.0763071],[10.2345403,49.0752704],[10.2342185,49.0743161],[10.2353656,49.07389],[10.239477,49.0746685],[10.2418155,49.0736352],[10.2424848,49.0723341],[10.243939,49.0727445],[10.2435936,49.0741952],[10.2455883,49.0743799],[10.2520472,49.072557],[10.2557636,49.0705357],[10.258274,49.0701983],[10.2579638,49.0687332],[10.2592246,49.067435],[10.2580659,49.0669519],[10.2592409,49.0650972],[10.2610049,49.0648061],[10.2620995,49.062743],[10.2636282,49.0631665],[10.2655266,49.0617425],[10.2619384,49.0611042],[10.2621816,49.0606966],[10.2586165,49.0597072],[10.2574026,49.0596927],[10.2565243,49.0615419],[10.2575257,49.0554456],[10.2568853,49.052964],[10.2556539,49.0528279],[10.2553695,49.0543784],[10.2549749,49.0542139],[10.2553042,49.0521187],[10.2518922,49.0496434],[10.2556967,49.0445644],[10.2543663,49.0436909],[10.2526806,49.0443039],[10.2505878,49.0433082],[10.2497832,49.0423834],[10.250337,49.0404228],[10.2526311,49.0399875],[10.252185,49.0389963],[10.2549399,49.0386913],[10.257274,49.0407574],[10.2587077,49.0411334],[10.2589999,49.0427327],[10.2631093,49.0421817],[10.2617047,49.0436612],[10.2633436,49.0448323],[10.2657925,49.0453093],[10.2659643,49.0447145],[10.2668456,49.0450055],[10.2672267,49.0433221],[10.2680163,49.0429482],[10.2734206,49.0423028],[10.2735874,49.0430187],[10.2771839,49.0426047],[10.2744223,49.0407943],[10.2763531,49.0396322],[10.2770983,49.0383339],[10.2847172,49.0365497],[10.2852352,49.0379905],[10.2885149,49.0401758],[10.2872077,49.0405659],[10.2855122,49.0422579],[10.2870186,49.0420729],[10.2875258,49.0430592],[10.2876721,49.0412887],[10.289831,49.040877],[10.2913114,49.0421999],[10.2914467,49.0411741],[10.2927668,49.0407924],[10.2937439,49.0422621],[10.2951931,49.0425048],[10.3006816,49.0404234],[10.3019416,49.0385938],[10.3042932,49.0382542],[10.3020189,49.038301],[10.303096,49.0348009],[10.3031607,49.0323157],[10.3024283,49.0322138],[10.3024939,49.0314438],[10.3076097,49.0311894],[10.309547,49.0319034],[10.3126008,49.0298465],[10.3170176,49.0285348],[10.3187258,49.0286912],[10.3211339,49.0254386],[10.3222199,49.0258914],[10.3254108,49.0253403],[10.3254149,49.0248464],[10.3272803,49.0241467],[10.3278415,49.0243145],[10.3271165,49.0250868],[10.3290658,49.0242421],[10.3285027,49.0254149],[10.3290097,49.0265587],[10.3274413,49.0268497],[10.3274397,49.0301619],[10.3285713,49.0302571],[10.3295911,49.029182],[10.3309877,49.0288579],[10.3316172,49.0276973],[10.3313699,49.026611],[10.3332251,49.0267662],[10.3333104,49.0279389],[10.33188,49.0301578],[10.3329125,49.0320398],[10.3365903,49.0296762],[10.3369112,49.0274144],[10.3402408,49.0274263],[10.3396323,49.0284134],[10.3417447,49.0287346],[10.3432986,49.0279094],[10.3501379,49.0283424],[10.3500575,49.0232939],[10.3511214,49.0230696],[10.3511047,49.0221178],[10.349284,49.0218647],[10.3488176,49.0207269],[10.345803,49.0204749],[10.3460528,49.0186922],[10.3454824,49.0186742],[10.345457,49.0174036],[10.348397,49.0169579],[10.349009,49.015142],[10.3513483,49.0145127],[10.3529433,49.0152641],[10.3543827,49.0139073],[10.3554515,49.0144949],[10.3576174,49.0115269],[10.3548184,49.0079296],[10.3536946,49.0054667],[10.3540692,49.0047239],[10.3587219,49.0046913],[10.3587631,49.0039627],[10.3729561,49.0033497],[10.3759644,48.9996058],[10.3794937,49.0000816],[10.3820157,48.9992305],[10.3808395,48.9967337],[10.3828787,48.9941938],[10.3821272,48.9941218],[10.3821114,48.992236],[10.3814365,48.9918777],[10.3818556,48.9915833],[10.3786858,48.990498],[10.3815622,48.9883785],[10.3837997,48.9882053],[10.3946939,48.9902432],[10.3947533,48.988409],[10.3971142,48.9866517],[10.3992171,48.9871912],[10.4012347,48.9860765],[10.4027488,48.9820569],[10.4050238,48.9823836],[10.4058225,48.9802948],[10.4085915,48.9803784],[10.4102539,48.9785913],[10.4119956,48.9785819],[10.4119439,48.9776966],[10.4103521,48.9774586],[10.4124427,48.9771602],[10.4141747,48.9783647],[10.4213452,48.9784565],[10.4234208,48.9782287],[10.4241251,48.9773718],[10.4256815,48.977069],[10.4273716,48.9774505],[10.4273235,48.978345],[10.4241482,48.9790338],[10.4154704,48.9789682],[10.4151838,48.9804059],[10.4139362,48.9803391],[10.4138557,48.9810441],[10.416565,48.9813933],[10.4165251,48.9819716],[10.4248033,48.9820336],[10.4305098,48.9808696],[10.4329182,48.9839707],[10.4308496,48.9838415],[10.4311318,48.985471],[10.4278053,48.9858888],[10.4278923,48.9872534],[10.4226106,48.988386],[10.4234242,48.9889091],[10.4220985,48.9897769],[10.4226805,48.9900166],[10.4208395,48.9918609],[10.4211915,48.9930025],[10.4228317,48.9930483],[10.4249525,48.9942243],[10.4239745,48.997211],[10.4302085,48.9996757],[10.4300861,49.0007458],[10.4269999,49.0013],[10.4241548,49.0040344],[10.4283366,49.0037787],[10.4334836,49.0046337],[10.4342423,49.0037386],[10.4334185,49.0020016],[10.4359301,49.0019052],[10.4416401,49.004258],[10.4420304,49.0055055],[10.4458047,49.0068398],[10.4484252,49.007447],[10.4523429,49.0073518],[10.4512238,49.0098815],[10.4522335,49.0114686],[10.4532798,49.0111361],[10.4562516,49.00812],[10.4581299,49.0076476],[10.4587302,49.008872],[10.469916,49.0107587],[10.4692678,49.0117573],[10.4774825,49.0111383],[10.4796568,49.0103315],[10.4807668,49.0090957],[10.4834001,49.0086014],[10.4878013,49.009285],[10.4885883,49.0114633],[10.4893598,49.0117872],[10.4950999,49.0095468],[10.4977026,49.0093628],[10.4993819,49.0060058],[10.5021454,49.0059637],[10.5005184,49.0076493],[10.5015425,49.0068141],[10.5054105,49.0059755],[10.5156467,49.006245],[10.516974,49.0072129],[10.5171795,49.0084279],[10.5199914,49.0072055],[10.5286621,49.0074422],[10.5308067,49.0062491],[10.5334952,49.0057122],[10.5402378,49.0058674],[10.5444342,49.007127],[10.5452708,49.0081048],[10.544348,49.0087504],[10.5447507,49.0089961],[10.5422067,49.0101573],[10.5427032,49.0104595],[10.5396642,49.0125077],[10.5425261,49.0138718],[10.5431887,49.014972],[10.5394045,49.0185733],[10.5390888,49.0218774],[10.5434851,49.0240883],[10.5506941,49.0216192],[10.5521385,49.0217805],[10.5502863,49.0227184],[10.5543329,49.0230895],[10.5493495,49.0234136],[10.5451216,49.0253459],[10.5464742,49.0284379],[10.5492213,49.0305836],[10.5512796,49.0313151],[10.5530043,49.0331237],[10.5558335,49.0341476],[10.5653808,49.0332752],[10.5647392,49.0320441],[10.5675853,49.0339783],[10.5725052,49.0333082],[10.5745221,49.0317144],[10.5754319,49.0320011],[10.574513,49.0324974],[10.5737416,49.0343958],[10.5746516,49.0357504],[10.5806623,49.0350136],[10.5834346,49.0360182],[10.5861659,49.0360023],[10.5953342,49.0343937],[10.5966908,49.033048],[10.596506,49.032569],[10.5986667,49.0318767],[10.6000114,49.0306171],[10.6015012,49.0261579],[10.6008695,49.0243373],[10.6044948,49.0207388],[10.6040668,49.020557],[10.6051997,49.0179824],[10.6073132,49.0173279],[10.6055456,49.0185857],[10.6056824,49.0195373],[10.6071228,49.020415],[10.6059292,49.0186244],[10.6069726,49.0179049],[10.6099257,49.0179489],[10.6106901,49.0168618],[10.6100839,49.0146523],[10.6117845,49.0153806],[10.6139517,49.0142055],[10.6193375,49.0176077],[10.6276149,49.0210518],[10.631213,49.0164871],[10.636611,49.017006],[10.6371434,49.0159532],[10.6423705,49.0164756],[10.6438757,49.0176591],[10.6430713,49.0183153],[10.6447522,49.0187067],[10.645424,49.0185215],[10.6452468,49.0175117],[10.6463968,49.017098],[10.651236,49.01865],[10.6521474,49.0161151],[10.6531932,49.0160395],[10.6546993,49.0167704],[10.6605712,49.0164506],[10.6619893,49.0170717],[10.6636151,49.01657],[10.6650758,49.0176175],[10.6669822,49.0171887],[10.667667,49.0196191],[10.6685089,49.0196161],[10.6678033,49.0228515],[10.6699811,49.0233916],[10.6710066,49.0245355],[10.6739361,49.0247436],[10.6759924,49.0323504],[10.6772352,49.0325701],[10.6778185,49.0340151],[10.6793051,49.0339749],[10.6793283,49.0365511],[10.6766627,49.0389004],[10.6799841,49.0418174],[10.6800889,49.0427592],[10.6819242,49.0421562],[10.6826536,49.0410343],[10.6843903,49.0421756],[10.6856744,49.0422469],[10.6852311,49.0433739],[10.6862089,49.0438891],[10.685348,49.046064],[10.6876874,49.0471637],[10.6848343,49.0525683],[10.6823861,49.0552737],[10.680773,49.0596259],[10.6813963,49.059483],[10.6810664,49.0607059],[10.681985,49.0608781],[10.6823581,49.0618849],[10.6850965,49.0623582],[10.6848452,49.0632185],[10.6867698,49.0639934],[10.6839634,49.0667152],[10.6879463,49.0711152],[10.6855984,49.0719392],[10.6792681,49.0722462],[10.6791169,49.0730456],[10.6734868,49.0723826],[10.6724754,49.0779184],[10.6712915,49.0798322],[10.6741149,49.0798803],[10.6740136,49.0829327],[10.6757761,49.0834053],[10.6742211,49.0838497],[10.6724648,49.0830281],[10.6706599,49.083895],[10.6669832,49.0831191],[10.6611423,49.0839496],[10.6565432,49.0830068],[10.6551421,49.0836727],[10.6562676,49.0849636],[10.6545274,49.0855192],[10.6547168,49.085976],[10.6518816,49.0882365],[10.6497069,49.0883099],[10.649343,49.0893927],[10.6471784,49.0883719],[10.6457293,49.0901668],[10.648361,49.0975733],[10.6472656,49.1006878],[10.6485455,49.1006238],[10.6483111,49.1022178],[10.6523576,49.1024692],[10.6510913,49.1034455],[10.6534701,49.1033135],[10.6536411,49.1051923],[10.6511618,49.1057164],[10.6509686,49.1072835],[10.6555532,49.1074765],[10.6563875,49.1092145],[10.6622328,49.1080513],[10.6647905,49.1086316],[10.6645541,49.1096584],[10.6614311,49.1090737],[10.662018,49.1124112],[10.6640702,49.1125544],[10.6630846,49.1148306],[10.6637527,49.1148144],[10.664302,49.1132721],[10.6650077,49.11347],[10.6637589,49.1167174],[10.6554497,49.1159404],[10.6540055,49.116779],[10.6563811,49.1173229],[10.6551976,49.1192184],[10.6526259,49.1220481],[10.6513185,49.1218764],[10.6507983,49.1224058],[10.6550575,49.1235218],[10.6568483,49.12513],[10.6558971,49.1266019],[10.6572379,49.12667],[10.657235,49.1280675],[10.6557857,49.1290249],[10.6552426,49.1286817],[10.6558753,49.1283249],[10.6554257,49.1277823],[10.654571,49.1286104],[10.6542201,49.1298666],[10.6547999,49.1309237],[10.6541237,49.1310809],[10.6547484,49.1317247],[10.6542504,49.1320624],[10.6546955,49.132667],[10.6608747,49.1324074],[10.6619295,49.1330292],[10.6613118,49.1339279],[10.662418,49.1342291],[10.6634557,49.1326116],[10.6681217,49.1335234],[10.6674982,49.135443],[10.6677299,49.1376294],[10.6692066,49.1378412],[10.6709969,49.1394701],[10.6703708,49.1409905],[10.6762449,49.1409086],[10.6770035,49.1400527],[10.6779029,49.1411176],[10.6791735,49.1450898],[10.6820889,49.1477198],[10.6846221,49.1492438],[10.6869482,49.149278],[10.6896107,49.1502557],[10.6929083,49.1501343],[10.6938234,49.1518166],[10.6955035,49.151579],[10.6959076,49.152151],[10.6937583,49.1534786],[10.6943559,49.1540906],[10.6929404,49.1553283],[10.6954882,49.1559112],[10.6955018,49.1568471],[10.6975346,49.1580663],[10.6973513,49.1591882],[10.6987736,49.159946],[10.6979684,49.1617835],[10.6997444,49.1621527],[10.7008268,49.1653939],[10.7030294,49.1683734],[10.7102844,49.1685859],[10.7103857,49.1673346],[10.7128919,49.1686284],[10.7141753,49.1700911],[10.7142842,49.1705558],[10.709911,49.173206],[10.7097893,49.1758714],[10.7088168,49.17836],[10.7165754,49.1798316],[10.7160008,49.1814174],[10.7196585,49.1830009],[10.7206536,49.1839445],[10.7205445,49.1858485],[10.7222129,49.1857712],[10.7229767,49.1867131],[10.7235853,49.1861505],[10.7249453,49.186531],[10.7248225,49.1871597],[10.7286005,49.186794],[10.7312105,49.185697],[10.732678,49.1871652],[10.7346368,49.1868943],[10.7373616,49.1896092],[10.7362122,49.1929094],[10.7383526,49.1935546],[10.7391135,49.1950626],[10.7406069,49.1958012],[10.7400776,49.1971043],[10.7444604,49.1980285],[10.7487832,49.1972401],[10.7509804,49.1996447],[10.759155,49.2037028],[10.7611695,49.2019476],[10.7611612,49.2011938],[10.7630632,49.2012263],[10.7628899,49.2006228],[10.7656409,49.2015416],[10.7688875,49.2011439],[10.7717111,49.2034916],[10.7747308,49.2036328],[10.7746512,49.2042236],[10.7773104,49.2047293],[10.7815146,49.2045454],[10.7839236,49.2033945],[10.781387,49.2026275],[10.7814961,49.2020742],[10.7822939,49.2021236],[10.781729,49.2016015],[10.7843429,49.2021286]],[[10.4543048,49.2855112],[10.4584559,49.2855116],[10.4581995,49.2868886],[10.4653141,49.2883292],[10.4659185,49.2900379],[10.46551,49.2931991],[10.4671735,49.2924035],[10.4725978,49.2927918],[10.4725963,49.292274],[10.4768178,49.2921106],[10.4812812,49.2928438],[10.4822066,49.2921367],[10.4833277,49.2890045],[10.4805117,49.2865534],[10.4812139,49.2860537],[10.4887339,49.2879986],[10.4880769,49.2886261],[10.4906139,49.288972],[10.4903483,49.2905099],[10.4992074,49.2914949],[10.497673,49.2929533],[10.4974204,49.2941368],[10.498772,49.2948799],[10.4982713,49.2957056],[10.4954665,49.2966987],[10.4975886,49.2986881],[10.4986178,49.2978688],[10.4993443,49.2982895],[10.4987862,49.2986984],[10.4997543,49.2990533],[10.4983809,49.3000906],[10.496145,49.299524],[10.496061,49.3016244],[10.4952666,49.3015598],[10.4926158,49.3062082],[10.4855526,49.3063049],[10.482318,49.3082511],[10.4827581,49.3091872],[10.4789226,49.3093736],[10.4762712,49.3111533],[10.4786175,49.3132641],[10.4752286,49.3169461],[10.4742983,49.3203361],[10.4750829,49.3211878],[10.4735797,49.3260494],[10.4755631,49.3260655],[10.476155,49.325415],[10.4819636,49.3264473],[10.4828268,49.3271414],[10.4834496,49.3267226],[10.4857352,49.3270837],[10.4899724,49.3258573],[10.4931729,49.3236967],[10.4944169,49.3246704],[10.4958957,49.3246173],[10.4949614,49.3249432],[10.4964049,49.3281772],[10.5016915,49.3257973],[10.5082918,49.3254451],[10.5081539,49.3248334],[10.5090094,49.32446],[10.5194886,49.325051],[10.5190146,49.3228633],[10.5234071,49.3207975],[10.5270415,49.3226784],[10.5284934,49.3226783],[10.5268416,49.3241725],[10.5285843,49.3251443],[10.5280383,49.3256175],[10.5292725,49.3267003],[10.5316487,49.3276755],[10.5312773,49.3280282],[10.5322661,49.3297382],[10.5320376,49.3306116],[10.5349866,49.3332348],[10.5485144,49.3403093],[10.5509039,49.3392532],[10.5562091,49.3392184],[10.5584578,49.340072],[10.5651235,49.3389409],[10.566035,49.3396862],[10.5703172,49.3383462],[10.5707192,49.3425427],[10.5745072,49.3425945],[10.5786461,49.3437688],[10.5828024,49.3425368],[10.5874421,49.3425989],[10.5897128,49.3348807],[10.5909247,49.3348343],[10.591734,49.3327935],[10.5965591,49.3331964],[10.6014941,49.3314948],[10.6025001,49.3295861],[10.607799,49.3297484],[10.6074748,49.3288036],[10.6140249,49.3273759],[10.6183745,49.3279234],[10.6227986,49.3268776],[10.6274611,49.327549],[10.6286831,49.3271382],[10.6288284,49.3264818],[10.6273485,49.326676],[10.6259499,49.3255012],[10.6306253,49.3248419],[10.6307039,49.3244084],[10.639109,49.3249606],[10.6408958,49.3243135],[10.6406734,49.3234328],[10.6415684,49.3223399],[10.6500292,49.3222885],[10.6500929,49.3199405],[10.6487281,49.3199636],[10.6491626,49.3180063],[10.6551511,49.3196623],[10.6561533,49.3173957],[10.6562908,49.3147263],[10.6528638,49.3146899],[10.6527894,49.3135978],[10.6538098,49.3135732],[10.6536898,49.3123722],[10.6521004,49.3124941],[10.6518026,49.3111086],[10.6492386,49.3110817],[10.6462949,49.3085192],[10.6458312,49.3047785],[10.6386916,49.3037707],[10.6351021,49.3022969],[10.6332627,49.2927045],[10.6310295,49.2928515],[10.6321301,49.2909156],[10.6299696,49.2913674],[10.628381,49.2902884],[10.6299072,49.2883847],[10.6209171,49.2871523],[10.6207586,49.2862313],[10.6184452,49.2866781],[10.6174589,49.2852746],[10.6146477,49.2851618],[10.615622,49.2833594],[10.6132803,49.2836564],[10.6131671,49.2829777],[10.6117256,49.2828087],[10.6190291,49.2823521],[10.6256458,49.2811674],[10.6253608,49.2801643],[10.6235773,49.2800465],[10.6231938,49.2788605],[10.6185206,49.2780518],[10.6145593,49.2782179],[10.6142971,49.2776652],[10.6153445,49.2773912],[10.6141496,49.2765372],[10.6155714,49.2752999],[10.6166709,49.2756854],[10.6177673,49.2744122],[10.6170053,49.2743555],[10.6168792,49.272703],[10.6243991,49.2725902],[10.6255932,49.2680209],[10.6256456,49.264345],[10.6296041,49.264115],[10.6301967,49.2618022],[10.636615,49.2592918],[10.6457663,49.2573982],[10.6452657,49.2526026],[10.6416648,49.2516863],[10.6419514,49.2510747],[10.6375427,49.2503035],[10.6377435,49.2464459],[10.6361368,49.2462854],[10.6369229,49.2442423],[10.6363667,49.2425051],[10.6395521,49.2421548],[10.6400671,49.241069],[10.6395532,49.2386558],[10.6418995,49.2384087],[10.6396653,49.2365312],[10.6394063,49.2358405],[10.6402209,49.2343892],[10.6353174,49.2351831],[10.6326812,49.2339602],[10.6304868,49.2363071],[10.630885,49.2366901],[10.623822,49.2373852],[10.6168769,49.2369199],[10.6088045,49.2383817],[10.6103483,49.2389562],[10.6097836,49.2407204],[10.6101534,49.2420354],[10.6080141,49.2420664],[10.6082948,49.2441094],[10.6075456,49.2436265],[10.6056918,49.2441011],[10.5995063,49.2419957],[10.5933467,49.2430813],[10.5923682,49.2451118],[10.5893491,49.2449809],[10.5905144,49.2430152],[10.5801286,49.2444929],[10.5797225,49.2448385],[10.5828637,49.2472096],[10.5821221,49.2473541],[10.5817534,49.2488982],[10.580052,49.2502485],[10.5671009,49.2527829],[10.5666863,49.2521645],[10.5609002,49.2519137],[10.5610356,49.2540171],[10.559453,49.2538068],[10.5603164,49.2556745],[10.5559695,49.2568088],[10.5556436,49.2582033],[10.5539048,49.2592303],[10.5505437,49.2591392],[10.5487931,49.258307],[10.5462701,49.2586469],[10.5420824,49.2594371],[10.541985,49.2605363],[10.5310174,49.2632047],[10.5250587,49.2608788],[10.523094,49.2608405],[10.5224853,49.2625489],[10.5211278,49.2625168],[10.5209349,49.2617581],[10.521891,49.2601598],[10.5191688,49.2594415],[10.5201493,49.259244],[10.5204788,49.2580946],[10.519018,49.2575269],[10.5182298,49.2579065],[10.5182718,49.2570757],[10.5093563,49.2589294],[10.5064819,49.258956],[10.5059739,49.259922],[10.5069664,49.2614841],[10.5064866,49.2628817],[10.5047508,49.262707],[10.5045568,49.2645093],[10.5004917,49.2661369],[10.4983684,49.2652656],[10.4951515,49.2668719],[10.4925113,49.2657337],[10.4918517,49.2672264],[10.4868164,49.2675777],[10.4872654,49.2680959],[10.4846023,49.2667679],[10.4789294,49.2674407],[10.4725669,49.2655091],[10.4716615,49.2669964],[10.473859,49.2672785],[10.4731424,49.2696789],[10.4722873,49.2695467],[10.4733577,49.2706199],[10.4756312,49.2717296],[10.477031,49.2733729],[10.4813514,49.2736376],[10.4804567,49.2743006],[10.4831222,49.2744289],[10.48083,49.2777725],[10.479135,49.2774135],[10.4783797,49.2785065],[10.4765904,49.2783295],[10.475558,49.2801605],[10.4743905,49.2797162],[10.4736299,49.2784538],[10.4740626,49.2778983],[10.4731985,49.2773475],[10.4750061,49.2761649],[10.4738763,49.2753145],[10.4748872,49.2750638],[10.4721309,49.2744828],[10.4718056,49.2753833],[10.4709177,49.2752601],[10.4706058,49.2763339],[10.4692106,49.2759051],[10.4687219,49.2774999],[10.4652524,49.2756404],[10.463772,49.2760482],[10.4625901,49.2765855],[10.4644804,49.2779688],[10.4638318,49.2788301],[10.4623137,49.2781114],[10.4543048,49.2855112]],[[10.7843429,49.2021286],[10.7882146,49.2026361],[10.7884108,49.2022306],[10.7843429,49.2021286]]],[[[10.7103716,49.1784098],[10.7124996,49.1776161],[10.7127307,49.1778437],[10.7104844,49.178551],[10.7103716,49.1784098]]]]}}