{"type":"Feature","properties":{"osm_display_name":"Landkreis Bamberg, Bayern, Deutschland","osm_id":62627,"hinweis":"Landkreis fuer den Hero der Stadtseite. Der Stadtmittelpunkt liegt im aeusseren Ring dieses Kreises (geprueft). Vereinfacht, Toleranz 0.0004 Grad."},"geometry":{"type":"MultiPolygon","coordinates":[[[[10.4401106,49.8451486],[10.4410387,49.8447862],[10.440739,49.8429153],[10.4421845,49.8422674],[10.4437169,49.8436803],[10.445019,49.8435682],[10.4485183,49.8422856],[10.4497034,49.8409708],[10.4541883,49.8400912],[10.4566695,49.8379975],[10.4617817,49.8360168],[10.4610703,49.8353643],[10.4580137,49.8348746],[10.4585977,49.8343918],[10.4536926,49.8320105],[10.4547533,49.831422],[10.4528684,49.8285239],[10.4470396,49.8234632],[10.4487226,49.8223024],[10.4500011,49.8203451],[10.4484085,49.8193794],[10.4489404,49.8187599],[10.4532286,49.8154002],[10.4554942,49.8151914],[10.4559335,49.813041],[10.4583436,49.8123723],[10.4585199,49.8106295],[10.4609516,49.8086851],[10.467221,49.8088839],[10.4669867,49.8100724],[10.4693838,49.8103364],[10.4710679,49.8075509],[10.4728768,49.8075609],[10.473752,49.8065897],[10.4745985,49.8067156],[10.4757258,49.8072619],[10.4742626,49.8085648],[10.4740237,49.8096545],[10.4721501,49.8102725],[10.4743625,49.8111968],[10.4755721,49.8126314],[10.4805614,49.8099666],[10.4837825,49.8054055],[10.4858726,49.8041676],[10.4857444,49.8033782],[10.4810231,49.8029377],[10.4816058,49.8009044],[10.4785234,49.7995918],[10.4769128,49.7963908],[10.475482,49.7969931],[10.4720423,49.7947399],[10.4692177,49.793933],[10.4663838,49.7916252],[10.4689268,49.7908383],[10.4669085,49.7888048],[10.4669894,49.788336],[10.4699979,49.7878245],[10.4695692,49.7864526],[10.4732221,49.7868411],[10.4734421,49.7854495],[10.4784778,49.785348],[10.4895057,49.7865021],[10.4933132,49.7877909],[10.4929023,49.7883454],[10.4950276,49.789894],[10.4960058,49.7920668],[10.5017129,49.7947081],[10.506462,49.7957256],[10.5080694,49.7984257],[10.5107648,49.7989519],[10.5112269,49.8000687],[10.5136206,49.8004843],[10.5144111,49.8023477],[10.5160987,49.8029717],[10.519753,49.7993261],[10.5180257,49.7964908],[10.52082,49.7965868],[10.5316206,49.7938117],[10.5321693,49.7937771],[10.5325865,49.7952723],[10.5334009,49.7953231],[10.5351964,49.7940133],[10.5356166,49.7925458],[10.5334984,49.7917052],[10.5348055,49.7898582],[10.5283263,49.7896574],[10.526183,49.7887168],[10.5277969,49.7877219],[10.5270181,49.7865794],[10.5252542,49.7861585],[10.524743,49.7854415],[10.5284541,49.7836283],[10.5329375,49.7838835],[10.5361998,49.7829688],[10.5388013,49.7766906],[10.5378091,49.7739915],[10.5387081,49.7740963],[10.5391207,49.7714098],[10.5477515,49.7711589],[10.5480263,49.7698502],[10.5508915,49.7707878],[10.5514054,49.7692335],[10.554193,49.7697138],[10.5536953,49.766534],[10.5546735,49.7664742],[10.5546511,49.7645437],[10.5552603,49.7644196],[10.5535944,49.7608901],[10.5524759,49.7602835],[10.5523129,49.7591594],[10.5512255,49.7581282],[10.5511285,49.7556856],[10.559429,49.7525698],[10.5761983,49.7510615],[10.5768685,49.7499589],[10.5793744,49.7485094],[10.5850407,49.7487707],[10.5888084,49.7446123],[10.5919783,49.7448868],[10.6026591,49.7435382],[10.6039179,49.7428553],[10.6046035,49.7413396],[10.6086984,49.7410809],[10.6181897,49.7389805],[10.6269914,49.7393701],[10.6300058,49.7401011],[10.6318719,49.7393348],[10.6319626,49.73877],[10.6306484,49.7384693],[10.6313125,49.7376817],[10.6365742,49.740961],[10.6389089,49.741598],[10.6392759,49.740428],[10.640582,49.7401414],[10.6399075,49.739776],[10.6405015,49.738884],[10.6431618,49.7369532],[10.6418433,49.7359304],[10.6429351,49.7352957],[10.6420613,49.7325928],[10.6443174,49.731595],[10.644969,49.7301618],[10.650909,49.7257127],[10.6537282,49.722835],[10.6543186,49.721094],[10.6604564,49.7224924],[10.6712333,49.7223659],[10.6709311,49.7232861],[10.6696767,49.7233596],[10.6690764,49.7261823],[10.6698657,49.7265336],[10.6696767,49.7271645],[10.678428,49.7304973],[10.6845991,49.7305801],[10.6860903,49.7318779],[10.6913492,49.7322757],[10.6921112,49.7316583],[10.7018397,49.731552],[10.70478,49.7351656],[10.7034546,49.7367586],[10.7012209,49.7355266],[10.7043737,49.7384207],[10.7028899,49.7407676],[10.7064905,49.7422749],[10.7063316,49.7446196],[10.7079476,49.7474489],[10.7044475,49.747431],[10.7041207,49.7483602],[10.6995429,49.746991],[10.6983565,49.7472784],[10.6983723,49.746529],[10.6912254,49.745509],[10.6891507,49.7474077],[10.6890928,49.7487685],[10.6885486,49.7486679],[10.6882649,49.7520651],[10.685351,49.7520505],[10.6844115,49.7532475],[10.6806617,49.7524463],[10.6802136,49.7549164],[10.6779686,49.7543291],[10.6775665,49.7551821],[10.675448,49.7550555],[10.6717813,49.7567121],[10.6719407,49.7580774],[10.6728555,49.7590781],[10.6759532,49.7596521],[10.675253,49.7626085],[10.6761316,49.7622931],[10.6772062,49.7643041],[10.6796482,49.7644104],[10.6811396,49.7663957],[10.6808736,49.766848],[10.6862374,49.7697293],[10.6911622,49.7713232],[10.6936721,49.7734613],[10.6960762,49.7744628],[10.6968415,49.7756368],[10.7016934,49.7775829],[10.7047694,49.7781202],[10.7059928,49.7767898],[10.7107291,49.7764546],[10.7126463,49.7782623],[10.7151393,49.7794035],[10.7156395,49.7801397],[10.7133205,49.7829955],[10.7135178,49.7835836],[10.7155698,49.7842794],[10.7150221,49.7879161],[10.7207379,49.7882496],[10.7244188,49.7850161],[10.7266308,49.7854016],[10.7292756,49.7835804],[10.7310625,49.7839419],[10.732358,49.7834548],[10.7364,49.7809266],[10.7371606,49.7801542],[10.7366784,49.7797797],[10.7393419,49.7775578],[10.7472841,49.7746186],[10.7480672,49.7741456],[10.7473902,49.7735038],[10.7494225,49.7724783],[10.7578225,49.7725104],[10.7582256,49.7709511],[10.76179,49.7712015],[10.761815,49.7707699],[10.7602753,49.7707428],[10.7610685,49.7704207],[10.7610532,49.7696981],[10.7642073,49.7694786],[10.7636464,49.768895],[10.7649051,49.7675018],[10.7689363,49.7675003],[10.7692011,49.7664309],[10.7758081,49.7673236],[10.7764046,49.7659028],[10.7790153,49.7650681],[10.7804172,49.7624154],[10.7836533,49.7626863],[10.7842106,49.7613942],[10.7894956,49.7570569],[10.789768,49.754524],[10.7913314,49.7548097],[10.7918881,49.7540906],[10.7934617,49.7540398],[10.794639,49.7518585],[10.7925471,49.7501118],[10.7952333,49.7501801],[10.7974492,49.7490746],[10.7994587,49.7491078],[10.801001,49.7478851],[10.8001486,49.7458046],[10.8004883,49.7423715],[10.7998464,49.7419936],[10.8013169,49.742188],[10.801247,49.7413881],[10.8030477,49.7406419],[10.8034372,49.7378488],[10.8096911,49.7383521],[10.8096813,49.7392415],[10.8132022,49.7381303],[10.8228944,49.7406019],[10.8273127,49.7423943],[10.8269653,49.7432711],[10.8254599,49.7438145],[10.8259131,49.744184],[10.8256387,49.7452834],[10.8289888,49.7495691],[10.8327449,49.7493703],[10.8365792,49.7523714],[10.841878,49.7533448],[10.8459029,49.7554106],[10.8538956,49.7554115],[10.8564801,49.7587788],[10.8603714,49.7590679],[10.8610865,49.7577222],[10.8649566,49.7585063],[10.8658382,49.7564077],[10.8701534,49.7575286],[10.8713963,49.7548369],[10.8778858,49.7563765],[10.877562,49.7571481],[10.8787215,49.7574294],[10.8782059,49.759024],[10.8766975,49.7605575],[10.8755912,49.7606221],[10.8764978,49.7631904],[10.8776557,49.7637868],[10.8777256,49.765788],[10.8770436,49.7658985],[10.8776116,49.7664879],[10.8718212,49.7677814],[10.8711248,49.7691655],[10.8701086,49.7690384],[10.8705506,49.7706192],[10.875504,49.771443],[10.8785834,49.7729058],[10.8875162,49.7740425],[10.8878128,49.7735868],[10.8910427,49.774586],[10.8909413,49.7758541],[10.8936871,49.7762631],[10.8951764,49.775757],[10.8988327,49.7725257],[10.9037015,49.7734948],[10.9042846,49.7737402],[10.9006277,49.7751887],[10.8992919,49.7770423],[10.9004814,49.777549],[10.8998573,49.7783262],[10.9065246,49.7796215],[10.9064158,49.7806313],[10.9081999,49.7801325],[10.9085137,49.7810515],[10.9118621,49.7813407],[10.9128444,49.7799315],[10.9148051,49.7802166],[10.9154193,49.7823342],[10.9208761,49.7853585],[10.9253304,49.7844638],[10.92613,49.784942],[10.927829,49.7838687],[10.928554,49.7851047],[10.9296074,49.785543],[10.9324855,49.7852188],[10.93065,49.7842215],[10.9302635,49.7829876],[10.920407,49.7802128],[10.9168413,49.7772648],[10.9172522,49.7757032],[10.9192793,49.7748717],[10.9186768,49.7736694],[10.9196996,49.7727796],[10.9187219,49.7722415],[10.9256699,49.7695626],[10.9254818,49.7680546],[10.9277002,49.7675535],[10.9277602,49.7687038],[10.9266882,49.7691004],[10.9279951,49.7697113],[10.9279507,49.7724323],[10.9323083,49.7724499],[10.9296801,49.7759424],[10.9349645,49.779002],[10.9394034,49.7790062],[10.9411201,49.778107],[10.9448505,49.7779516],[10.9444209,49.7771464],[10.9454178,49.7773271],[10.9458691,49.7765369],[10.9472788,49.7768648],[10.9481156,49.7761207],[10.9512783,49.7761443],[10.9517179,49.7753178],[10.9542422,49.7760089],[10.9548584,49.7744844],[10.953893,49.7742392],[10.9542739,49.7727821],[10.9563224,49.7736368],[10.9582789,49.7717724],[10.9603643,49.7735291],[10.9613153,49.7735154],[10.9621944,49.7704598],[10.9637728,49.7704662],[10.9659604,49.7707579],[10.9658419,49.7729925],[10.9680021,49.7721981],[10.9691253,49.773025],[10.9706531,49.7721812],[10.9718995,49.7741238],[10.973923,49.7731093],[10.9753284,49.7737801],[10.9748229,49.7750608],[10.9765693,49.7742175],[10.9774535,49.7751928],[10.9786017,49.7747129],[10.9792252,49.7752534],[10.9778378,49.7759535],[10.9781787,49.7776256],[10.9767103,49.77921],[10.9795326,49.7806226],[10.9798304,49.7813426],[10.9849453,49.7812107],[10.9848663,49.7817294],[10.9859466,49.7821247],[10.9836109,49.783303],[10.9842577,49.7845993],[10.9823923,49.7856311],[10.9829248,49.7860203],[10.985317,49.7841264],[10.9872304,49.7835088],[10.988333,49.784565],[10.9880593,49.785354],[10.9889503,49.7857213],[10.9963673,49.7844257],[11.0023069,49.7844038],[11.0024444,49.782447],[11.0074227,49.7825521],[11.0081213,49.7843357],[11.0089081,49.7846765],[11.0093079,49.781776],[11.0113752,49.7813334],[11.0124432,49.7817088],[11.0129092,49.7832055],[11.016054,49.7831085],[11.0209068,49.7843507],[11.0229923,49.7857328],[11.0246585,49.7856362],[11.0260607,49.7864339],[11.0251234,49.7875557],[11.029421,49.7895699],[11.0302682,49.7891842],[11.0325806,49.7898754],[11.0335447,49.7890597],[11.039015,49.7911678],[11.0420827,49.7912571],[11.0453758,49.7925676],[11.0485658,49.7948964],[11.0553196,49.7941787],[11.0659203,49.7949545],[11.0679833,49.7956306],[11.0689279,49.7971112],[11.0715547,49.7985959],[11.0721357,49.7979397],[11.0758467,49.7980308],[11.0759924,49.796134],[11.0751706,49.79595],[11.0758518,49.7952417],[11.0747535,49.7945635],[11.0745219,49.7934934],[11.0812924,49.7939968],[11.081922,49.7959608],[11.0836614,49.7963139],[11.0874807,49.8001284],[11.0864597,49.8005696],[11.085047,49.7998008],[11.0853077,49.8008622],[11.0844079,49.8008742],[11.0838523,49.8016164],[11.0838004,49.8030226],[11.0865536,49.8030737],[11.0867602,49.8021957],[11.0922436,49.8028499],[11.092105,49.8033129],[11.093227,49.8039638],[11.0957559,49.8040147],[11.1000975,49.8056235],[11.1006936,49.8104619],[11.0997872,49.8112435],[11.0994969,49.8125827],[11.1001982,49.8133234],[11.1006483,49.8164264],[11.0995887,49.8180812],[11.1002018,49.8184953],[11.0989219,49.8188208],[11.1032922,49.8198219],[11.1041514,49.8227605],[11.1036712,49.826187],[11.1044664,49.8299927],[11.1034587,49.8316809],[11.1031796,49.8341257],[11.1048851,49.8351758],[11.1043516,49.8357094],[11.1045359,49.8369526],[11.1077715,49.8374069],[11.1077522,49.8389521],[11.1162712,49.8400572],[11.1202182,49.8378848],[11.1264365,49.8377078],[11.128313,49.8386193],[11.1285333,49.8396197],[11.1313414,49.8415931],[11.1359247,49.8406308],[11.1387405,49.8409622],[11.1405941,49.8425494],[11.1414664,49.8447571],[11.1442107,49.8435994],[11.1483449,49.8450089],[11.1546344,49.8446298],[11.1590656,49.8436683],[11.1648141,49.8451796],[11.165185,49.8444203],[11.1676111,49.8449764],[11.1702276,49.8447277],[11.1701171,49.8439312],[11.1711633,49.8432331],[11.1688875,49.8425396],[11.1695803,49.8416029],[11.1687782,49.8409701],[11.1687677,49.8404678],[11.1696498,49.8404286],[11.1691414,49.8393616],[11.176043,49.8395875],[11.1744265,49.838308],[11.1695164,49.8378458],[11.1685646,49.8367274],[11.1669234,49.8366764],[11.1727912,49.8354113],[11.1733851,49.8343493],[11.172999,49.8335327],[11.174438,49.8332185],[11.1739035,49.8326995],[11.1751036,49.8322767],[11.1779823,49.8336156],[11.1801595,49.8335863],[11.1823853,49.8351356],[11.1881628,49.8358848],[11.1893196,49.8367596],[11.1890635,49.838903],[11.1939988,49.8381945],[11.1934397,49.8356528],[11.196932,49.8349146],[11.197663,49.8332051],[11.1991736,49.8327497],[11.2005229,49.8342152],[11.1981582,49.8351981],[11.1986261,49.8369915],[11.2020719,49.8383641],[11.2054744,49.8375003],[11.2057808,49.8383278],[11.2091708,49.8383084],[11.2096506,49.8367686],[11.2197272,49.8363697],[11.2219303,49.8340922],[11.2228563,49.8342874],[11.2225692,49.8348019],[11.2266161,49.8353918],[11.2316728,49.8374729],[11.2321053,49.8389428],[11.2334958,49.8403796],[11.2308855,49.8401789],[11.2304331,49.84073],[11.2308508,49.8409533],[11.2292126,49.8423044],[11.2301047,49.8428608],[11.2292886,49.8440039],[11.23027,49.8446575],[11.2306498,49.8469427],[11.2275008,49.8469902],[11.227566,49.849694],[11.2343631,49.8500239],[11.233541,49.8524931],[11.2324226,49.8537847],[11.2261379,49.8574553],[11.2286065,49.8580163],[11.2276787,49.8620314],[11.2311125,49.8634545],[11.232223,49.8623566],[11.2315334,49.8618264],[11.2321059,49.8617199],[11.232987,49.8624802],[11.2323791,49.8635666],[11.2338613,49.8639968],[11.2378304,49.8645579],[11.2424674,49.8641758],[11.2439981,49.8650819],[11.2394351,49.866601],[11.2407572,49.8670636],[11.239611,49.8696699],[11.2360719,49.8723764],[11.2356033,49.8740363],[11.2340731,49.8752196],[11.2271309,49.8743448],[11.2212636,49.8743744],[11.2172386,49.8755773],[11.2179328,49.8758785],[11.2163272,49.8766669],[11.2147347,49.876971],[11.2128265,49.8764361],[11.2125922,49.8792372],[11.2081985,49.8781048],[11.2068446,49.8794024],[11.2049646,49.8791269],[11.2031701,49.8803766],[11.199738,49.8813732],[11.1925402,49.8810929],[11.1933065,49.8838117],[11.190563,49.8857658],[11.1928633,49.8892591],[11.1956527,49.8914177],[11.1991058,49.8927813],[11.1976811,49.8930085],[11.1981803,49.8937616],[11.1974362,49.8937547],[11.1974344,49.8946769],[11.1951193,49.8949391],[11.1943642,49.8959135],[11.1946291,49.896602],[11.191905,49.8988767],[11.1929165,49.9004244],[11.1905868,49.9016605],[11.1903108,49.9027669],[11.1855471,49.9034766],[11.1849816,49.9062829],[11.1865028,49.9066805],[11.185772,49.9075101],[11.1858299,49.9085129],[11.1841671,49.9088791],[11.1951,49.9088925],[11.1958361,49.9103891],[11.1995776,49.9106748],[11.2035196,49.9134507],[11.2034536,49.9157],[11.2047113,49.9176107],[11.2052061,49.920877],[11.2091711,49.9218211],[11.2082287,49.9241325],[11.2101104,49.9242198],[11.2111753,49.9253146],[11.2101001,49.9288681],[11.2140161,49.9302544],[11.211256,49.933394],[11.2128046,49.9362705],[11.21508,49.9365063],[11.215273,49.9388569],[11.2142837,49.9404147],[11.2115945,49.9426335],[11.2110399,49.9443959],[11.2106262,49.9439251],[11.205627,49.944063],[11.2051632,49.9453852],[11.2036647,49.9442373],[11.2023114,49.9455642],[11.1993662,49.9452942],[11.1998459,49.9466932],[11.1994198,49.9470278],[11.1957525,49.9475642],[11.1969186,49.9482329],[11.1941404,49.9481753],[11.1934478,49.9511484],[11.19644,49.9516095],[11.1957079,49.9543406],[11.2037199,49.9558515],[11.2062521,49.9567709],[11.2057869,49.9575261],[11.2073508,49.9570739],[11.2100857,49.957917],[11.2048955,49.9598699],[11.2039957,49.9615642],[11.2051234,49.9602689],[11.2093273,49.9588282],[11.2168504,49.9627132],[11.2161565,49.9630772],[11.2171588,49.9642745],[11.2160345,49.9647207],[11.2146247,49.9679546],[11.2184826,49.9693474],[11.2173956,49.9713867],[11.2188994,49.9721384],[11.2188574,49.9732089],[11.2259705,49.9739373],[11.232081,49.9734525],[11.2369005,49.9738653],[11.2382019,49.974838],[11.2377238,49.9755858],[11.2397044,49.976581],[11.2407167,49.975704],[11.2433124,49.9764989],[11.2427826,49.9770779],[11.2441156,49.9770745],[11.243765,49.9778973],[11.2445729,49.9792807],[11.249836,49.9791536],[11.2514099,49.9780706],[11.2526562,49.9788084],[11.2509767,49.9814212],[11.2447714,49.9858993],[11.2454709,49.9870283],[11.2492697,49.9888371],[11.2463724,49.9893023],[11.2452509,49.9907087],[11.2422471,49.9905195],[11.2424189,49.9911925],[11.2417108,49.9915079],[11.238843,49.9914637],[11.2377955,49.9930464],[11.2352073,49.9938445],[11.2358533,49.9953355],[11.2352352,49.9985245],[11.2289052,49.9988893],[11.22849,49.999988],[11.2288802,50.0009973],[11.2265735,50.0012252],[11.2268231,50.001756],[11.2259373,50.0022536],[11.2230613,50.0031872],[11.2210168,50.003471],[11.2210058,50.0025081],[11.2200013,50.0024971],[11.2198469,50.0034281],[11.2206305,50.0038935],[11.2191903,50.006078],[11.2201298,50.0065794],[11.2185828,50.0079712],[11.2191261,50.0083004],[11.2184751,50.0088277],[11.2235955,50.0101308],[11.2216765,50.0121914],[11.2201518,50.0129667],[11.2176603,50.013038],[11.2159364,50.0144283],[11.2158417,50.0152228],[11.2168772,50.0158576],[11.2125801,50.0160171],[11.2104143,50.0150959],[11.209484,50.0158641],[11.2086237,50.0157491],[11.2030611,50.0108579],[11.1927243,50.0076697],[11.1911605,50.0075677],[11.1887788,50.0097146],[11.1891687,50.0120811],[11.1900119,50.0123601],[11.1889062,50.0139239],[11.1851557,50.0106015],[11.1817749,50.0122813],[11.18434,50.014757],[11.1865645,50.0150297],[11.1857846,50.0155013],[11.1868711,50.0155903],[11.1863319,50.0161289],[11.1934989,50.019507],[11.193894,50.0198851],[11.1918305,50.02143],[11.1944006,50.0234575],[11.1958487,50.0238629],[11.1965117,50.025591],[11.1916132,50.0242446],[11.1884928,50.0242904],[11.1882846,50.0247496],[11.1814201,50.0242486],[11.1809546,50.0239585],[11.1814814,50.0216874],[11.1787882,50.0193512],[11.1755387,50.0175202],[11.1721006,50.0166759],[11.1712848,50.0177603],[11.1690125,50.0160537],[11.1645568,50.0184351],[11.1623459,50.0170455],[11.1594075,50.0176233],[11.1557596,50.0167827],[11.1534032,50.0185512],[11.1533731,50.0191865],[11.1467064,50.0215646],[11.147456,50.0253415],[11.1498212,50.0273603],[11.1504166,50.0289127],[11.1516409,50.0292051],[11.1528741,50.0321687],[11.1562075,50.0310429],[11.1570383,50.0316439],[11.1556424,50.032361],[11.1554434,50.0328414],[11.1561869,50.0333274],[11.1577185,50.0320526],[11.1596343,50.0316081],[11.1598636,50.0322344],[11.164048,50.0319023],[11.1640455,50.0327969],[11.1734874,50.0336652],[11.1727783,50.0356847],[11.1701487,50.0360125],[11.1709172,50.0386368],[11.1726976,50.0380051],[11.1737543,50.0388321],[11.1757942,50.0375183],[11.1773461,50.037478],[11.1801986,50.038926],[11.1827597,50.0390183],[11.1832565,50.0399025],[11.190804,50.0437679],[11.1911762,50.0451443],[11.1917759,50.0450483],[11.1935203,50.0481111],[11.1892787,50.0501616],[11.192599,50.050283],[11.1945293,50.0488147],[11.1960216,50.0487593],[11.1958181,50.0499283],[11.1944097,50.0512498],[11.1968908,50.0489831],[11.1976752,50.0489396],[11.1960008,50.0506922],[11.1841476,50.0579003],[11.1789098,50.0581006],[11.1807293,50.0576735],[11.1773207,50.0566294],[11.1744115,50.0568643],[11.1665447,50.0543656],[11.1630267,50.0546553],[11.1616521,50.0537222],[11.1618487,50.0530931],[11.1568712,50.0521332],[11.1580477,50.049727],[11.1601392,50.0485068],[11.1590554,50.0462995],[11.1528306,50.0468602],[11.1525548,50.0450304],[11.1517389,50.0450568],[11.1520668,50.0443465],[11.148983,50.0434665],[11.1479823,50.0449296],[11.1435885,50.0440009],[11.141416,50.0456417],[11.1413427,50.0450777],[11.1405944,50.045106],[11.130608,50.0478595],[11.1273881,50.0477766],[11.1272851,50.0484348],[11.1244888,50.0485227],[11.1234068,50.0481432],[11.1201597,50.0443645],[11.1167852,50.0457399],[11.1146736,50.0455131],[11.1147354,50.0449567],[11.111916,50.0451773],[11.1104633,50.0446682],[11.1070658,50.0421681],[11.1068658,50.0407045],[11.1044863,50.0408139],[11.1035845,50.0375603],[11.0979718,50.038668],[11.0978931,50.0377817],[11.0945724,50.0380161],[11.0945744,50.0374625],[11.0929991,50.0369686],[11.0932106,50.0359483],[11.0918511,50.036026],[11.0908194,50.0352111],[11.0881302,50.0356866],[11.0845419,50.03526],[11.0850021,50.0379985],[11.0833558,50.0379805],[11.0751669,50.0353513],[11.0724816,50.0349211],[11.0703779,50.0356617],[11.0699819,50.0346705],[11.065539,50.0370026],[11.0603117,50.0334324],[11.0553589,50.0314945],[11.0545246,50.029738],[11.0490792,50.0270765],[11.0458785,50.0246189],[11.041576,50.0261449],[11.0352065,50.0246638],[11.0329539,50.0257207],[11.0311917,50.0255417],[11.0293957,50.0265872],[11.0277421,50.0263822],[11.0250681,50.0277629],[11.0247226,50.0267008],[11.023598,50.0264574],[11.0220517,50.0290326],[11.016081,50.0248388],[11.0121133,50.0238943],[11.0130149,50.02299],[11.0118346,50.0217601],[11.0125076,50.0213372],[11.0118704,50.0199884],[11.0120219,50.0178115],[11.0086005,50.015861],[11.0028602,50.0158709],[10.9889579,50.0185207],[10.986485,50.020084],[10.9839958,50.0202083],[10.9838797,50.0220537],[10.9825322,50.02261],[10.9823754,50.0232522],[10.9831515,50.0267117],[10.9880478,50.0265035],[10.9893203,50.0250802],[10.9942703,50.0296274],[10.9906347,50.0312766],[10.9915096,50.0342879],[10.989249,50.0365949],[10.9847944,50.0379776],[10.9801406,50.0406841],[10.9793857,50.0401677],[10.9756811,50.0410565],[10.9754081,50.040028],[10.9765517,50.0392258],[10.9763205,50.0388383],[10.9726937,50.0397434],[10.9661224,50.0391638],[10.9637074,50.0405478],[10.9604995,50.0393524],[10.9589667,50.0406777],[10.9587354,50.0431064],[10.9577839,50.0431568],[10.9581244,50.0458031],[10.9554062,50.0459272],[10.9551954,50.0488795],[10.9536688,50.0488517],[10.9532221,50.0481151],[10.9510523,50.0486688],[10.951299,50.0499503],[10.9496141,50.050108],[10.948965,50.0484711],[10.9471502,50.0484044],[10.9459998,50.0455207],[10.9413356,50.0447926],[10.9346887,50.0458698],[10.9335887,50.0445805],[10.9350106,50.0428365],[10.9333006,50.0403943],[10.9338706,50.0390054],[10.9321681,50.0378349],[10.932803,50.0376924],[10.9332298,50.0359295],[10.9313277,50.0351516],[10.9293376,50.0355648],[10.9299235,50.0369714],[10.9231684,50.0392646],[10.922744,50.0387961],[10.9182597,50.0406492],[10.9168187,50.0418821],[10.9126399,50.0430757],[10.9114293,50.0418325],[10.9134723,50.0409557],[10.9138627,50.0414416],[10.9146355,50.0411036],[10.9133904,50.0399541],[10.9090056,50.0414209],[10.9078631,50.0395097],[10.9064664,50.0395302],[10.9029855,50.0372593],[10.9008406,50.0377474],[10.9000185,50.0369727],[10.8927966,50.0366014],[10.8932086,50.0408454],[10.8988196,50.0426955],[10.8987347,50.0433963],[10.9003002,50.0441173],[10.9006511,50.0458915],[10.9016412,50.0470937],[10.9040469,50.0487669],[10.8955024,50.0523724],[10.892444,50.0522382],[10.8955694,50.0537043],[10.8943005,50.0546807],[10.8940713,50.0556297],[10.8959753,50.0580881],[10.8912356,50.0590703],[10.8867042,50.0613668],[10.8895936,50.0627652],[10.8876711,50.0647267],[10.8851616,50.0631025],[10.8819033,50.0653841],[10.8777901,50.0670058],[10.8803919,50.068129],[10.8809094,50.0688387],[10.8802921,50.0699963],[10.8814908,50.0701842],[10.8811024,50.0713729],[10.880067,50.07015],[10.8755326,50.0710847],[10.8747657,50.0728427],[10.875396,50.0759135],[10.8825072,50.0743631],[10.8858264,50.0726659],[10.888238,50.0737752],[10.8886894,50.0749734],[10.8875061,50.0765952],[10.8873843,50.0814609],[10.89051,50.0851714],[10.891502,50.087712],[10.8884608,50.089572],[10.887411,50.0917274],[10.8862554,50.0923642],[10.8847993,50.0927389],[10.8801329,50.090963],[10.8784047,50.0928264],[10.879059,50.0942037],[10.8757032,50.0954074],[10.8747941,50.0943483],[10.8730768,50.0946847],[10.8716805,50.0936034],[10.8689818,50.0942465],[10.8691485,50.0935714],[10.8668435,50.0939396],[10.8666922,50.0906755],[10.8639945,50.0906154],[10.8642174,50.0896398],[10.8636063,50.0895365],[10.8641415,50.0882671],[10.8636143,50.0882356],[10.8624374,50.0903361],[10.8624512,50.0915162],[10.860424,50.09179],[10.8605895,50.0891489],[10.8592788,50.0878828],[10.8602561,50.0874181],[10.8606259,50.085191],[10.8625463,50.0852674],[10.8623477,50.0834767],[10.8631967,50.0820071],[10.8596606,50.080009],[10.8618367,50.0783531],[10.8597205,50.0764313],[10.8589103,50.0737163],[10.8593649,50.0734041],[10.8570339,50.0737498],[10.8556721,50.0729447],[10.8547606,50.0737677],[10.8492703,50.0740531],[10.848852,50.0750293],[10.8465691,50.0751004],[10.8438168,50.0761054],[10.8412433,50.0736907],[10.8370049,50.0730021],[10.8376288,50.0694249],[10.8346553,50.0658115],[10.8319936,50.0648665],[10.838307,50.0608579],[10.8341466,50.0585025],[10.8324331,50.056448],[10.8334002,50.0539507],[10.8320436,50.0525687],[10.8365593,50.0508946],[10.8385376,50.0508609],[10.8390094,50.0499448],[10.8350692,50.0484041],[10.8378635,50.0466716],[10.8362808,50.044837],[10.8340777,50.0460835],[10.8309779,50.0462156],[10.823571,50.0429146],[10.8254919,50.0417191],[10.8242389,50.0402095],[10.8217477,50.0391332],[10.8165184,50.0375976],[10.8154096,50.0377258],[10.815278,50.0382867],[10.8071618,50.0375393],[10.8058474,50.0376592],[10.8040145,50.0398537],[10.799117,50.0408239],[10.7979706,50.0426571],[10.7993355,50.0433083],[10.7979203,50.044723],[10.7953395,50.0438287],[10.7920607,50.0470951],[10.7878991,50.0473054],[10.7826929,50.0463793],[10.7820075,50.0452902],[10.7796947,50.0447686],[10.7761129,50.0428127],[10.777797,50.0393804],[10.7772697,50.0390847],[10.7776677,50.0384317],[10.773891,50.0379759],[10.7723958,50.0372045],[10.7736788,50.0351599],[10.771941,50.0339343],[10.7754138,50.0302462],[10.7715034,50.0297109],[10.7718973,50.0284194],[10.7705395,50.0271993],[10.7725901,50.0250702],[10.7722973,50.0244167],[10.7681913,50.0234574],[10.767411,50.0222514],[10.7668895,50.0225932],[10.7674582,50.0239872],[10.7649477,50.0243001],[10.7616536,50.0213987],[10.7617209,50.0222181],[10.7642737,50.0243474],[10.7586459,50.0243485],[10.7573817,50.0235295],[10.7535903,50.0230224],[10.7527187,50.0206742],[10.7500123,50.0196243],[10.7501511,50.018527],[10.7522011,50.0190628],[10.7526615,50.0160011],[10.7521633,50.0148769],[10.7532129,50.0127932],[10.7546143,50.0138305],[10.7595621,50.0130959],[10.7638788,50.0139495],[10.7652136,50.0133754],[10.7666114,50.0097251],[10.763578,50.0032557],[10.7647652,50.0003993],[10.7625002,49.9994859],[10.7630915,49.9988929],[10.7597193,49.997825],[10.7584696,49.9967987],[10.7584231,49.9958086],[10.7531964,49.9935203],[10.7512293,49.9929863],[10.7500806,49.9937189],[10.7406475,49.9917409],[10.748263,49.9871327],[10.7481753,49.9845117],[10.7489356,49.981797],[10.7511461,49.9801075],[10.7528601,49.9771229],[10.7581983,49.9750455],[10.7605046,49.9735046],[10.7609673,49.9726462],[10.760059,49.9720634],[10.7605,49.9701101],[10.7613182,49.969918],[10.761419,49.9682925],[10.758234,49.9689162],[10.7580754,49.9681521],[10.7571078,49.9681316],[10.7576707,49.9657359],[10.7563122,49.9656991],[10.7559284,49.9641562],[10.7542884,49.964009],[10.7542551,49.9625784],[10.7533965,49.9619808],[10.7511023,49.9622726],[10.7507804,49.9617464],[10.7412934,49.9612362],[10.7413538,49.9617868],[10.7400461,49.9618236],[10.7399461,49.9622901],[10.7326133,49.9612238],[10.7312538,49.9613047],[10.7296998,49.9626059],[10.728494,49.9613728],[10.729077,49.9608155],[10.7285172,49.960312],[10.7269077,49.9594148],[10.7247078,49.9594492],[10.7232976,49.9580567],[10.7231877,49.9569273],[10.7211195,49.9562216],[10.7236676,49.9547329],[10.7250743,49.9569198],[10.7267408,49.9574631],[10.727634,49.955827],[10.7302733,49.9545477],[10.7327485,49.9519499],[10.7352065,49.9519371],[10.7351274,49.9507681],[10.73699,49.9507626],[10.7363544,49.9494749],[10.7401909,49.9490484],[10.7422078,49.947637],[10.7368353,49.9435065],[10.7355325,49.9403445],[10.7367505,49.9386643],[10.7347028,49.9384181],[10.7322892,49.9391287],[10.7331528,49.9385497],[10.7326991,49.9364342],[10.7296456,49.9362697],[10.7263018,49.9338679],[10.7175292,49.9328591],[10.7158579,49.9319563],[10.7161511,49.9311789],[10.7180434,49.9315896],[10.7182671,49.9304347],[10.7172115,49.9296599],[10.7172185,49.9288881],[10.7188243,49.9273577],[10.7187792,49.9263675],[10.7132162,49.9245343],[10.7129107,49.9241701],[10.7139703,49.9223991],[10.7073586,49.9250276],[10.7079556,49.922364],[10.7053268,49.9218761],[10.7064841,49.9206299],[10.7011009,49.9186052],[10.6967823,49.9185356],[10.6978033,49.9173536],[10.6968848,49.9171636],[10.6971115,49.9166845],[10.6940452,49.9161121],[10.6931846,49.9141368],[10.6913765,49.9122898],[10.6946841,49.910999],[10.6941628,49.9097477],[10.6964004,49.9084283],[10.6952997,49.9076789],[10.6960506,49.9065726],[10.6975041,49.9069011],[10.7058885,49.9045584],[10.7052542,49.9032107],[10.694976,49.9029723],[10.6946628,49.9002327],[10.6892647,49.8989544],[10.689973,49.8982101],[10.6865644,49.8966561],[10.6867945,49.8950632],[10.6855626,49.8946124],[10.68682,49.8934351],[10.685239,49.8923806],[10.6921732,49.8916604],[10.6940404,49.8902431],[10.6842213,49.8849685],[10.6836319,49.8839729],[10.6849956,49.8830232],[10.6826405,49.8821816],[10.6802884,49.8841849],[10.6790323,49.8835309],[10.678329,49.8873794],[10.6688729,49.886244],[10.6687697,49.8899894],[10.6645022,49.8903884],[10.6630697,49.8911383],[10.6609953,49.8899781],[10.6568762,49.8901619],[10.6567231,49.8891863],[10.654791,49.8888269],[10.6543866,49.8881871],[10.6554421,49.8866845],[10.6560985,49.8838226],[10.6536048,49.8837238],[10.6539106,49.882448],[10.6522561,49.8825435],[10.6509437,49.8814252],[10.6408531,49.8790268],[10.637548,49.877399],[10.6379707,49.8762731],[10.6364763,49.8765403],[10.6323336,49.8745796],[10.6310238,49.8728035],[10.6305995,49.8705442],[10.6319901,49.8699709],[10.6293,49.8641164],[10.6221655,49.8614595],[10.6203912,49.860154],[10.615571,49.8595167],[10.607721,49.8568103],[10.6053041,49.8566555],[10.6051452,49.8553058],[10.5972613,49.8555953],[10.5976144,49.8569664],[10.5954087,49.859477],[10.5964071,49.8604748],[10.5960539,49.8616295],[10.5972535,49.863071],[10.6056416,49.8704326],[10.6070785,49.8727312],[10.6068823,49.874234],[10.6077173,49.8753625],[10.6072637,49.8755187],[10.6061633,49.874821],[10.604045,49.8751426],[10.5950185,49.8729811],[10.5905763,49.8703133],[10.5899056,49.8696782],[10.5896109,49.867307],[10.5876066,49.8643208],[10.5876207,49.8631355],[10.5870701,49.8630832],[10.5882372,49.8586325],[10.5813802,49.8598619],[10.5735858,49.8627916],[10.5788012,49.8656468],[10.5794639,49.8668314],[10.5795867,49.8676603],[10.5787807,49.8675599],[10.5784224,49.8691492],[10.5792599,49.8692851],[10.5789622,49.8703514],[10.5796866,49.8716841],[10.5785569,49.8729527],[10.5760448,49.8726836],[10.5758775,49.8736505],[10.5719314,49.873488],[10.572733,49.8729933],[10.5714652,49.8722802],[10.5720255,49.8719905],[10.5713423,49.8715205],[10.5713451,49.8696576],[10.5703772,49.8696498],[10.5689889,49.8679406],[10.5670935,49.8670941],[10.5652564,49.8667749],[10.5654609,49.8693933],[10.5636291,49.8689438],[10.5628393,49.8680809],[10.5631846,49.8678529],[10.5608937,49.8667253],[10.5608617,49.866043],[10.5621758,49.8651776],[10.5605292,49.8647022],[10.5604167,49.8660667],[10.5594736,49.8662301],[10.5595001,49.8676566],[10.55903,49.8676433],[10.5603965,49.8685575],[10.5597894,49.8697794],[10.55738,49.8699508],[10.5573447,49.8705638],[10.5563511,49.8706211],[10.5574076,49.8713784],[10.5573382,49.8722967],[10.5567532,49.8723821],[10.557201,49.8734609],[10.5559797,49.8732907],[10.554766,49.8745475],[10.5538794,49.8742002],[10.552672,49.875484],[10.5549962,49.877173],[10.559129,49.878695],[10.5574623,49.8815005],[10.5501705,49.88172],[10.5474792,49.8782876],[10.5435889,49.8758702],[10.542881,49.8766133],[10.5409857,49.8767325],[10.5341158,49.8759514],[10.5325726,49.876789],[10.5265572,49.8754505],[10.5235346,49.8756999],[10.5223255,49.87512],[10.521637,49.8733921],[10.5199764,49.8730621],[10.5185323,49.873331],[10.5182521,49.8736726],[10.5190964,49.8742569],[10.5177637,49.8754444],[10.5147014,49.8755899],[10.5125183,49.8768958],[10.5062135,49.8772034],[10.505287,49.8766718],[10.5045032,49.8725013],[10.5024779,49.8713756],[10.4914705,49.8723531],[10.4747298,49.8769864],[10.4647656,49.8774264],[10.4594143,49.8787712],[10.4590787,49.8771681],[10.4571323,49.875462],[10.4574481,49.8740888],[10.456704,49.8733281],[10.4569014,49.8724252],[10.4554675,49.8707433],[10.4528807,49.8721504],[10.452677,49.8709934],[10.4535474,49.8685751],[10.4526164,49.8677164],[10.4519604,49.8635049],[10.4491594,49.8554485],[10.4443914,49.849075],[10.4474589,49.8485297],[10.4407161,49.8466471],[10.4401106,49.8451486]],[[10.5256412,49.8427717],[10.5264257,49.8420125],[10.5265079,49.8405946],[10.5256932,49.8406524],[10.5256412,49.8427717]],[[10.5540924,49.8586075],[10.5543649,49.8590128],[10.5557195,49.8585696],[10.5552056,49.8578916],[10.5540924,49.8586075]],[[10.5542872,49.8668357],[10.5543776,49.8668612],[10.5552692,49.8670753],[10.5566365,49.8674627],[10.5566806,49.8673282],[10.5567191,49.86721],[10.5560329,49.8670276],[10.5543457,49.8667121],[10.5543105,49.8667862],[10.5542872,49.8668357]],[[10.5631321,49.8645049],[10.5639326,49.8647508],[10.5639664,49.8638151],[10.5631579,49.8638322],[10.5631321,49.8645049]],[[10.5644248,49.8650834],[10.5651633,49.8651214],[10.5650943,49.8640423],[10.5645321,49.8639073],[10.5644248,49.8650834]],[[10.8265043,49.8984054],[10.8313622,49.9003439],[10.8310051,49.9006532],[10.8332391,49.9017957],[10.8360434,49.9026961],[10.8396728,49.9028142],[10.8401279,49.9042458],[10.8438003,49.9045865],[10.8454067,49.9069505],[10.8475331,49.9072109],[10.8376073,49.9107703],[10.8309102,49.9138195],[10.830803,49.9146522],[10.8410107,49.9163741],[10.8434204,49.9178209],[10.8508453,49.9171912],[10.8596435,49.91755],[10.8605931,49.9150484],[10.8682156,49.9118999],[10.8735801,49.9147584],[10.8759801,49.9127279],[10.88042,49.9145737],[10.8791143,49.9159912],[10.8804867,49.9167794],[10.8814526,49.9164043],[10.884729,49.9186936],[10.8854481,49.9218932],[10.8934928,49.9220239],[10.9014028,49.9229842],[10.9087672,49.9250131],[10.9166875,49.9286327],[10.9210998,49.9253089],[10.9221343,49.9253397],[10.9348397,49.9170473],[10.9407998,49.9113643],[10.9460101,49.9041309],[10.9490234,49.8958425],[10.9498605,49.890289],[10.9497286,49.8854198],[10.9491974,49.8826955],[10.9426664,49.8820271],[10.949054,49.8820707],[10.9485242,49.879921],[10.9490887,49.8765721],[10.9464728,49.8729522],[10.9460768,49.8714068],[10.9469598,49.8671216],[10.9491655,49.8657889],[10.9492058,49.8644598],[10.9504514,49.8624693],[10.9500204,49.8623199],[10.9605945,49.8490401],[10.956126,49.8507547],[10.9561931,49.8517231],[10.9534044,49.8548004],[10.9509268,49.8558409],[10.9490598,49.8555145],[10.9478608,49.8560784],[10.9447105,49.8550353],[10.9453599,49.8541932],[10.9438891,49.8537653],[10.9425028,49.8536303],[10.9418213,49.8546929],[10.9373851,49.8546669],[10.9335047,49.8528285],[10.9317589,49.8528955],[10.9319788,49.8525562],[10.9284487,49.8505798],[10.9302007,49.8476175],[10.9289336,49.8468114],[10.9308636,49.8430456],[10.9302532,49.8429282],[10.9296629,49.8428395],[10.9294873,49.8435923],[10.9273139,49.8426463],[10.9266437,49.84317],[10.9257888,49.8427927],[10.9134725,49.8464876],[10.9107966,49.8466772],[10.9055977,49.8490627],[10.9006393,49.8488942],[10.901471,49.851324],[10.9007643,49.8517873],[10.894105,49.8520148],[10.8870625,49.8547019],[10.887054,49.8563413],[10.8858326,49.8566748],[10.8826782,49.8555706],[10.8810821,49.8563943],[10.8806971,49.8571435],[10.8813485,49.8576108],[10.8807833,49.8588361],[10.8859716,49.8613604],[10.8813559,49.8598943],[10.8806686,49.8600508],[10.8807736,49.8608377],[10.8792578,49.8595103],[10.8781007,49.859534],[10.8749479,49.8626966],[10.8723281,49.8635691],[10.8723148,49.8640561],[10.8705921,49.8638949],[10.8701535,49.8646782],[10.8686098,49.8636811],[10.866498,49.8644019],[10.8651718,49.864162],[10.8663463,49.86564],[10.8650795,49.8653737],[10.8699325,49.8686856],[10.8669733,49.8678104],[10.8666418,49.8683169],[10.863069,49.8679237],[10.8586238,49.8688798],[10.8579593,49.8692204],[10.8592044,49.8712365],[10.8579482,49.8715439],[10.8559937,49.8707537],[10.8544909,49.8722218],[10.8549179,49.8743441],[10.8531754,49.8745216],[10.8527496,49.8752913],[10.850449,49.8762323],[10.84483,49.8729061],[10.8444884,49.8741924],[10.8455887,49.8755485],[10.8419524,49.8758163],[10.8384478,49.8752784],[10.8382328,49.8758621],[10.8394791,49.8774176],[10.8379715,49.8794471],[10.8396937,49.8800758],[10.8408368,49.8816243],[10.8440616,49.8824231],[10.8437448,49.8829713],[10.8423084,49.8828127],[10.839472,49.883959],[10.8381397,49.8827365],[10.835647,49.8826409],[10.8368035,49.8813817],[10.8357716,49.8803957],[10.8331501,49.8810691],[10.8325819,49.8830849],[10.8336764,49.883917],[10.8331666,49.88559],[10.8362073,49.8868799],[10.8363173,49.8879736],[10.8347308,49.8900541],[10.8351634,49.890951],[10.8360832,49.8911123],[10.8355369,49.8932059],[10.8309423,49.8932465],[10.8295457,49.8946505],[10.8283848,49.8945129],[10.8265043,49.8984054]]],[[[10.8734848,49.7411659],[10.8752703,49.7411428],[10.8754693,49.7405291],[10.876813,49.7408938],[10.8762622,49.7420429],[10.8743083,49.7419146],[10.8734848,49.7411659]]],[[[10.8775532,49.7419204],[10.8777746,49.7413231],[10.8805633,49.7414483],[10.8831899,49.7395925],[10.8822794,49.7384707],[10.8841779,49.7380119],[10.8881983,49.7388733],[10.8933525,49.7376306],[10.8935406,49.7383751],[10.8936123,49.7403118],[10.8918212,49.7402992],[10.8911904,49.7411033],[10.8887211,49.7417115],[10.8831175,49.741878],[10.882309,49.7422422],[10.883009,49.7428486],[10.8809177,49.7438564],[10.8799202,49.7433349],[10.8801531,49.7428557],[10.8778413,49.7429838],[10.8775532,49.7419204]]]]}}