{"type":"Feature","properties":{"osm_display_name":"Landkreis Bayreuth, Bayern, Deutschland","osm_id":62378,"hinweis":"Landkreis fuer den Hero der Stadtseite. Der Stadtmittelpunkt liegt im aeusseren Ring dieses Kreises (geprueft). Vereinfacht, Toleranz 0.0004 Grad."},"geometry":{"type":"Polygon","coordinates":[[[11.1841671,49.9088791],[11.1858299,49.9085129],[11.185772,49.9075101],[11.1865028,49.9066805],[11.1849816,49.9062829],[11.1855471,49.9034766],[11.1903108,49.9027669],[11.1905868,49.9016605],[11.1929165,49.9004244],[11.191905,49.8988767],[11.1946291,49.896602],[11.1943642,49.8959135],[11.1951193,49.8949391],[11.1974344,49.8946769],[11.1974362,49.8937547],[11.1981803,49.8937616],[11.1976811,49.8930085],[11.1991058,49.8927813],[11.1956527,49.8914177],[11.1928633,49.8892591],[11.190563,49.8857658],[11.1932558,49.8839238],[11.1927594,49.8809828],[11.199738,49.8813732],[11.2031701,49.8803766],[11.2049646,49.8791269],[11.2068446,49.8794024],[11.2081985,49.8781048],[11.2125922,49.8792372],[11.2128265,49.8764361],[11.2147347,49.876971],[11.2163272,49.8766669],[11.2179328,49.8758785],[11.2172386,49.8755773],[11.2212636,49.8743744],[11.2271309,49.8743448],[11.2340731,49.8752196],[11.2356033,49.8740363],[11.2360719,49.8723764],[11.2384625,49.8709468],[11.2428486,49.8722959],[11.2420231,49.8731178],[11.2422954,49.8736237],[11.2439037,49.8740439],[11.2443578,49.873163],[11.246163,49.873034],[11.2504366,49.874459],[11.2534513,49.8733898],[11.256346,49.8740662],[11.2580906,49.8738039],[11.259448,49.8747275],[11.2612649,49.8740235],[11.2615073,49.8703765],[11.2660252,49.8689255],[11.2655492,49.8679742],[11.2673803,49.8664608],[11.2682031,49.86481],[11.2710661,49.8645906],[11.2708247,49.8625403],[11.2700484,49.8615181],[11.2703356,49.8606601],[11.2567048,49.8566909],[11.2576528,49.8549382],[11.2591304,49.854957],[11.2586408,49.8534492],[11.2624452,49.8541571],[11.2633839,49.8523755],[11.2659781,49.8510514],[11.2656822,49.8502526],[11.2635355,49.8505436],[11.2621235,49.8488407],[11.2631972,49.847318],[11.2635086,49.8442942],[11.2671342,49.8413055],[11.2679622,49.8393594],[11.2676627,49.8381109],[11.270893,49.8365945],[11.2714547,49.8356312],[11.2700718,49.8348195],[11.2703072,49.834013],[11.2726758,49.8325973],[11.2775508,49.83129],[11.2780498,49.8305039],[11.276871,49.8281064],[11.2812389,49.8260203],[11.2840448,49.8230536],[11.283926,49.8219466],[11.2828009,49.8210901],[11.2831488,49.8201514],[11.2841515,49.8197881],[11.2848749,49.8185701],[11.2864142,49.8181706],[11.2874773,49.8159943],[11.2925674,49.8152141],[11.2928117,49.8132951],[11.2967373,49.8108118],[11.2960115,49.8092789],[11.2967836,49.8084595],[11.2970133,49.8064383],[11.2954607,49.8053841],[11.2963772,49.8042049],[11.3063631,49.8000139],[11.310458,49.79969],[11.3145931,49.8000348],[11.3144945,49.8004987],[11.3153977,49.8008157],[11.3203679,49.8019116],[11.3212412,49.8034257],[11.3239106,49.803888],[11.3238433,49.8048111],[11.3260647,49.8065189],[11.3283004,49.8066706],[11.3265739,49.8052592],[11.3285396,49.8044692],[11.3319559,49.8051729],[11.3335226,49.8063432],[11.3303377,49.8079747],[11.3285575,49.8072232],[11.3282066,49.8077429],[11.328658,49.8092182],[11.3326275,49.8114051],[11.3308223,49.8116213],[11.331636,49.8121946],[11.330501,49.8146233],[11.3287433,49.8145306],[11.3271646,49.8157812],[11.3273478,49.8167838],[11.3291963,49.8176522],[11.3324294,49.8163234],[11.3348423,49.8163649],[11.333347,49.8147999],[11.3380096,49.8146961],[11.3367477,49.8117084],[11.3374148,49.8102451],[11.338798,49.8115903],[11.3427903,49.8128242],[11.3432039,49.811413],[11.34409,49.8112799],[11.3432871,49.8112371],[11.3433293,49.8105186],[11.3449367,49.8102214],[11.347294,49.8115158],[11.3491548,49.8112985],[11.3478129,49.8102478],[11.3476381,49.8092491],[11.3540462,49.808001],[11.354548,49.8087648],[11.3559392,49.8067552],[11.3574229,49.8078668],[11.3588676,49.8079704],[11.3589499,49.8068955],[11.360991,49.8053833],[11.361434,49.8056627],[11.3659242,49.8038181],[11.365332,49.8032458],[11.3668209,49.8036297],[11.36801,49.8012079],[11.3670339,49.7994603],[11.3674269,49.7989141],[11.3659613,49.7969895],[11.3612148,49.7973907],[11.3604496,49.795635],[11.3615202,49.7946659],[11.3597954,49.7942896],[11.3594434,49.7934719],[11.3562945,49.7928878],[11.3562386,49.7922696],[11.3550278,49.7916716],[11.3549714,49.7907436],[11.3537611,49.7906099],[11.352858,49.7888902],[11.3530263,49.7877705],[11.3520121,49.7871262],[11.3530665,49.7857547],[11.347356,49.7836647],[11.3494072,49.782313],[11.3546801,49.7834917],[11.3553442,49.781857],[11.356623,49.7812781],[11.3569061,49.7796505],[11.359997,49.7819978],[11.3660362,49.7827374],[11.3656645,49.7792554],[11.3649702,49.7790567],[11.3648792,49.778331],[11.3669351,49.7771047],[11.3669688,49.7777678],[11.3713846,49.7784919],[11.3758952,49.7774471],[11.3800041,49.7781547],[11.3820317,49.7757504],[11.3802492,49.7748028],[11.3797277,49.7738568],[11.3803223,49.773795],[11.3802228,49.7732116],[11.3773394,49.7714617],[11.3813196,49.7686555],[11.3806963,49.7678287],[11.3816934,49.7667643],[11.3843059,49.7659474],[11.3838237,49.7641911],[11.382104,49.7630367],[11.3851527,49.760285],[11.3844881,49.7593086],[11.3848305,49.7570125],[11.3833937,49.7569662],[11.3841437,49.7562806],[11.3840352,49.7547679],[11.3883854,49.7529859],[11.3849364,49.7514733],[11.3801159,49.7513455],[11.3782103,49.7507008],[11.3779564,49.7512773],[11.3762788,49.7508466],[11.3763323,49.7514261],[11.3746136,49.7514314],[11.3741512,49.7503476],[11.3716472,49.7496224],[11.3678709,49.743926],[11.362919,49.7386212],[11.3637711,49.7364067],[11.3655629,49.7352455],[11.3662833,49.7334101],[11.3642679,49.7332947],[11.3642128,49.7314485],[11.3599816,49.7283929],[11.3616289,49.7278796],[11.3606103,49.7246834],[11.3555647,49.7234705],[11.3582017,49.723384],[11.3587069,49.721306],[11.3621404,49.7207365],[11.3625745,49.7197992],[11.3605581,49.719677],[11.3607573,49.7189613],[11.3594251,49.7182616],[11.3604701,49.7171403],[11.3617564,49.7168162],[11.3621488,49.7157477],[11.3616887,49.715295],[11.3642057,49.7141348],[11.3648038,49.7130552],[11.36692,49.7126386],[11.3605491,49.708517],[11.3595196,49.707265],[11.3581138,49.7078293],[11.3572236,49.7050146],[11.3558672,49.7045093],[11.3602482,49.7028616],[11.3591382,49.7022029],[11.359562,49.7013063],[11.3609353,49.701463],[11.3623779,49.700711],[11.3643866,49.7016868],[11.3678738,49.7007529],[11.3705273,49.7011882],[11.3704424,49.7034394],[11.372511,49.7035841],[11.3777667,49.7024215],[11.3773719,49.7017818],[11.3786094,49.7011201],[11.3791488,49.7015692],[11.3808197,49.70067],[11.3832467,49.7004361],[11.3831285,49.6999197],[11.3802071,49.6999452],[11.3767757,49.7009637],[11.3742847,49.7000404],[11.3737536,49.7011175],[11.3725122,49.7015952],[11.3717338,49.7006346],[11.3724404,49.6989274],[11.3714123,49.6983868],[11.3712745,49.6958942],[11.3710126,49.6973064],[11.3696712,49.6971957],[11.3692936,49.6988061],[11.3670632,49.6981585],[11.3671146,49.6992996],[11.3666372,49.6991468],[11.3644131,49.6964657],[11.3674955,49.6955878],[11.3701036,49.6957515],[11.3705164,49.6926637],[11.3714214,49.6926876],[11.3716892,49.6944179],[11.3726373,49.6934395],[11.3733212,49.6940087],[11.3770004,49.6936641],[11.3771279,49.6928511],[11.3748981,49.6916197],[11.3760507,49.6906583],[11.3753196,49.6896414],[11.3762192,49.6890495],[11.3750978,49.6879703],[11.3705235,49.6867196],[11.3723108,49.6872114],[11.3725365,49.6867674],[11.3706607,49.6861883],[11.3700431,49.6848417],[11.3686332,49.685082],[11.3684211,49.6857533],[11.3662585,49.6848385],[11.3628047,49.6816633],[11.3614824,49.6795374],[11.3600374,49.6797835],[11.3557751,49.6788269],[11.3549441,49.6797209],[11.3532529,49.6783062],[11.3513061,49.6781424],[11.349361,49.6788877],[11.3468478,49.6781978],[11.3468051,49.6760775],[11.347243,49.6755799],[11.3518736,49.6751426],[11.3528603,49.6742412],[11.3547677,49.6747533],[11.3560226,49.6763116],[11.3570822,49.6751272],[11.3559686,49.6734876],[11.3609382,49.6722488],[11.3636115,49.6726946],[11.366132,49.6716546],[11.3661275,49.6704398],[11.3676055,49.6694923],[11.3677593,49.6685915],[11.3692848,49.6684979],[11.3694376,49.6675071],[11.3685021,49.666646],[11.3689911,49.6663911],[11.3705559,49.6669738],[11.3707941,49.6678661],[11.3723909,49.6681188],[11.3735741,49.6694459],[11.3774616,49.6685465],[11.3760439,49.6649408],[11.372297,49.6623591],[11.3710066,49.6588236],[11.3738323,49.6580926],[11.378393,49.6593294],[11.3798737,49.65869],[11.3810987,49.6571587],[11.381084,49.6553675],[11.381838,49.6548321],[11.3845559,49.6538769],[11.387625,49.6540996],[11.3871199,49.6506853],[11.3894882,49.6500419],[11.3884526,49.6482875],[11.3919135,49.6470748],[11.3910186,49.6460648],[11.3897119,49.6461704],[11.3926333,49.6431971],[11.3944844,49.6425007],[11.3911959,49.6417667],[11.3922377,49.64174],[11.3939733,49.6401863],[11.3931842,49.6391727],[11.3937737,49.6385253],[11.3926852,49.6377337],[11.3919372,49.6344926],[11.3924455,49.6344544],[11.3908678,49.6333804],[11.3911493,49.6327278],[11.3974295,49.6336577],[11.3970173,49.6332689],[11.3976791,49.6313056],[11.3999026,49.6311839],[11.3995565,49.630164],[11.398988,49.6301906],[11.3990375,49.6287753],[11.3961574,49.627437],[11.3967539,49.6258574],[11.3978106,49.6249232],[11.3999406,49.6247999],[11.4023214,49.6229792],[11.404416,49.6227475],[11.4098193,49.6236613],[11.4142527,49.6260129],[11.4150648,49.6219882],[11.4133394,49.6215569],[11.4152406,49.6217682],[11.4158762,49.6201546],[11.4200108,49.617689],[11.4212819,49.6162005],[11.4253453,49.6157553],[11.4264739,49.6138511],[11.429012,49.6147992],[11.428939,49.6165684],[11.431605,49.6187036],[11.4293936,49.6227405],[11.4316693,49.6233744],[11.4311814,49.6245065],[11.433094,49.6257882],[11.4308158,49.6251462],[11.428501,49.6267834],[11.4289998,49.6280118],[11.4298049,49.6280799],[11.4295602,49.6274314],[11.4303253,49.6268119],[11.4313599,49.6288612],[11.4371215,49.6275738],[11.444986,49.6271236],[11.4455081,49.6263888],[11.4493269,49.627514],[11.4505981,49.6264978],[11.4562327,49.6269728],[11.4586957,49.6281833],[11.4574566,49.6283747],[11.4571989,49.6294034],[11.4599472,49.6296153],[11.4565103,49.6299143],[11.4573729,49.6307661],[11.4569351,49.6315797],[11.4583605,49.6326059],[11.4578266,49.6330731],[11.4611515,49.6332624],[11.46054,49.6355082],[11.4683266,49.6372649],[11.4708193,49.6371808],[11.4713181,49.6373801],[11.4685602,49.6386858],[11.4684125,49.6397972],[11.4711046,49.639431],[11.4747217,49.640464],[11.4721397,49.6434421],[11.472822,49.6446033],[11.481005,49.6444913],[11.4822203,49.6414607],[11.4838668,49.6419596],[11.4836541,49.6413661],[11.4868572,49.6417147],[11.4871329,49.6413124],[11.4862131,49.6403396],[11.4887266,49.6396686],[11.4914754,49.6429488],[11.4910346,49.6447672],[11.4933648,49.6456619],[11.4932529,49.6465729],[11.4950343,49.647108],[11.4947805,49.646565],[11.495891,49.646381],[11.4981861,49.6481987],[11.500023,49.6485198],[11.5022351,49.6470274],[11.5075234,49.6466871],[11.5070294,49.647934],[11.5117069,49.6485794],[11.5126655,49.6496395],[11.5139094,49.6497572],[11.5147055,49.648943],[11.518514,49.6486379],[11.5180302,49.6481284],[11.519127,49.6475582],[11.5214283,49.6482879],[11.5218349,49.6480458],[11.5202985,49.6470708],[11.5207651,49.6464677],[11.5218694,49.6469043],[11.5232917,49.6458451],[11.524884,49.6466971],[11.5272853,49.6461788],[11.5275032,49.6454104],[11.5283787,49.6459098],[11.5296256,49.6451387],[11.5290745,49.6446119],[11.5296811,49.6442243],[11.5342485,49.6437329],[11.5349154,49.6445069],[11.5372577,49.6430557],[11.5378882,49.6445862],[11.5372574,49.6437518],[11.535655,49.6442989],[11.5389906,49.6459142],[11.5387598,49.6439147],[11.5379496,49.6430403],[11.5446042,49.6415979],[11.5423391,49.6434636],[11.5428691,49.6438628],[11.5466633,49.640394],[11.5504408,49.6406186],[11.5509038,49.6417247],[11.550488,49.6423982],[11.5529535,49.6433575],[11.557334,49.6424312],[11.5575842,49.6442543],[11.5563753,49.6468441],[11.5572071,49.6465036],[11.5598479,49.6471149],[11.5597419,49.6486248],[11.5585333,49.6489401],[11.5606947,49.6508596],[11.5601734,49.65124],[11.5598493,49.6540526],[11.5575013,49.6551655],[11.5605014,49.6569438],[11.5573933,49.6598838],[11.5602627,49.6627413],[11.5647297,49.6644944],[11.5638224,49.6656687],[11.5638246,49.6672036],[11.5616863,49.6690096],[11.5609003,49.6711885],[11.5563716,49.6725149],[11.5568744,49.6734041],[11.5575706,49.6733806],[11.5567792,49.674064],[11.5583183,49.6760275],[11.5563805,49.6764773],[11.5556665,49.6774488],[11.5572178,49.678833],[11.5570208,49.6793712],[11.5584931,49.67968],[11.5585574,49.6817231],[11.5633617,49.6840798],[11.5635107,49.6852646],[11.5642138,49.6857306],[11.5607626,49.6875915],[11.5604031,49.6883659],[11.5573473,49.6893729],[11.557555,49.6887944],[11.5527766,49.6901635],[11.550914,49.6894147],[11.547023,49.6896043],[11.5465533,49.6904455],[11.5407445,49.6933237],[11.5414647,49.6943494],[11.5460949,49.6961516],[11.5503445,49.6958572],[11.555469,49.6974069],[11.5610542,49.6976282],[11.5578618,49.701697],[11.5555629,49.7026009],[11.5550064,49.7042977],[11.5556331,49.7056247],[11.558963,49.7069361],[11.5606306,49.706712],[11.5603904,49.7085521],[11.5579208,49.7104409],[11.5578766,49.7120573],[11.5587497,49.71334],[11.5579105,49.7134503],[11.5587601,49.7160211],[11.5592294,49.7159071],[11.5588962,49.7145192],[11.5593687,49.7145652],[11.5629907,49.7180186],[11.563367,49.7205006],[11.5645205,49.7227278],[11.5642866,49.7238343],[11.5603224,49.7250189],[11.5585139,49.7263183],[11.5582948,49.7272304],[11.5563543,49.7270361],[11.5551461,49.7284122],[11.5540639,49.7285813],[11.553552,49.729441],[11.5566585,49.7302113],[11.5575014,49.7310338],[11.5556003,49.731276],[11.5554239,49.7317644],[11.5541361,49.7315365],[11.5524639,49.7329593],[11.5528717,49.7333738],[11.5523853,49.7338069],[11.5536947,49.7331483],[11.5589542,49.7343871],[11.5618873,49.7334532],[11.5625083,49.7326286],[11.5620675,49.7321274],[11.5681342,49.7321754],[11.5675639,49.7312753],[11.5711202,49.7293123],[11.5694052,49.7280652],[11.5698517,49.7276661],[11.5750566,49.727785],[11.5769396,49.726777],[11.5801676,49.7272761],[11.5802212,49.7281102],[11.5816902,49.7284133],[11.5822242,49.7278468],[11.5835928,49.7285715],[11.5845209,49.7280612],[11.5870603,49.7285374],[11.5863456,49.7297822],[11.5876898,49.7312781],[11.5891906,49.7318452],[11.5899074,49.7334506],[11.5915534,49.7338176],[11.5919092,49.7349171],[11.5937629,49.7355859],[11.5956955,49.7354543],[11.5962443,49.7379602],[11.5977804,49.7391196],[11.5967947,49.7431573],[11.5982715,49.7434976],[11.5982615,49.7446913],[11.5990182,49.7448075],[11.5986286,49.7460579],[11.5976812,49.7459796],[11.5964282,49.7478107],[11.5948168,49.7516428],[11.5927743,49.7518388],[11.5938938,49.7533251],[11.5966432,49.7541321],[11.596702,49.755038],[11.6008608,49.7544294],[11.6011618,49.7554365],[11.602694,49.7550861],[11.6076239,49.7563112],[11.6089075,49.7555106],[11.6197011,49.7601991],[11.6215383,49.7597702],[11.6249702,49.7608075],[11.6254646,49.7603292],[11.629057,49.760878],[11.6319382,49.7605564],[11.6337582,49.7613677],[11.6294323,49.7628186],[11.6324259,49.7655351],[11.6312259,49.7657549],[11.6286786,49.7639375],[11.6315802,49.7693913],[11.6304125,49.7702504],[11.6302619,49.7737565],[11.6314028,49.7717055],[11.6331281,49.7715334],[11.6388123,49.7740259],[11.6418883,49.7746864],[11.6432835,49.7762216],[11.6467735,49.7764991],[11.6451907,49.7772604],[11.6463577,49.7789599],[11.6452235,49.7860613],[11.634068,49.7878475],[11.6350971,49.7916448],[11.6404504,49.7957287],[11.640275,49.7968954],[11.6387812,49.7976355],[11.6402436,49.8007493],[11.6388338,49.8019812],[11.6381274,49.8018033],[11.6407013,49.8026728],[11.6416132,49.8035592],[11.6418681,49.8056805],[11.6432329,49.8057894],[11.6445715,49.8074319],[11.645487,49.8069442],[11.6467125,49.8043312],[11.6496501,49.8061627],[11.6507723,49.8046044],[11.6530275,49.8044138],[11.6540372,49.8030418],[11.6589239,49.8021154],[11.6619008,49.8052912],[11.6650885,49.8067959],[11.6698558,49.807632],[11.6712168,49.8084664],[11.6704534,49.8090876],[11.6732448,49.8110485],[11.6779001,49.8060335],[11.6792898,49.8053965],[11.6829703,49.8045466],[11.6841005,49.8065271],[11.6861782,49.8060203],[11.6922096,49.8028336],[11.6936752,49.8032858],[11.69838,49.8022282],[11.6951825,49.8033832],[11.6955327,49.8038123],[11.6928097,49.8042528],[11.6949371,49.8061783],[11.6958978,49.8057026],[11.697354,49.8066743],[11.7000752,49.8071658],[11.7001941,49.8098245],[11.6993317,49.8134126],[11.6993779,49.8154731],[11.6998602,49.8155614],[11.6993041,49.8163971],[11.7014835,49.8165435],[11.7002874,49.8188475],[11.7004277,49.8200357],[11.7020875,49.8199998],[11.7027034,49.8207723],[11.7044564,49.820389],[11.705287,49.8210739],[11.7050045,49.8199552],[11.7085038,49.818136],[11.7113983,49.8179875],[11.7159864,49.8190487],[11.720888,49.8177961],[11.723527,49.8183386],[11.7231505,49.8189195],[11.7243222,49.8199387],[11.7231465,49.8202102],[11.7227665,49.8235507],[11.7213068,49.8236452],[11.7213119,49.8274519],[11.7274078,49.8276714],[11.725733,49.830132],[11.7262841,49.8316032],[11.7309909,49.8316795],[11.7331529,49.8339139],[11.739178,49.8348616],[11.7342078,49.8363456],[11.7333302,49.8378186],[11.7335856,49.8392462],[11.7386432,49.8402606],[11.7428049,49.8383128],[11.7447546,49.8401578],[11.7473553,49.8410841],[11.7493356,49.8390299],[11.7522319,49.8376368],[11.7552995,49.8374581],[11.7626317,49.8384693],[11.7634166,49.8376243],[11.7602902,49.8352047],[11.761352,49.8348267],[11.7635537,49.8365893],[11.7655824,49.836539],[11.7647993,49.837309],[11.7678629,49.8408815],[11.7712401,49.8412124],[11.772072,49.8399729],[11.7732485,49.8400727],[11.7744649,49.8387825],[11.7750432,49.8391814],[11.7807879,49.8387551],[11.7804482,49.8373845],[11.7818322,49.8374409],[11.7818209,49.8378832],[11.7873197,49.8376261],[11.7848233,49.8367894],[11.7852504,49.8359122],[11.7906769,49.8369133],[11.7904431,49.8376612],[11.7935059,49.8379871],[11.7974168,49.8399356],[11.7994755,49.8420879],[11.8010474,49.8424283],[11.801287,49.844065],[11.8021029,49.8448074],[11.8041515,49.8448222],[11.8026876,49.8483209],[11.804142,49.8484082],[11.8040056,49.8489809],[11.8122504,49.8480361],[11.8121967,49.8467382],[11.8153296,49.8463762],[11.8179006,49.8451962],[11.8204064,49.8447265],[11.8234611,49.8450459],[11.8241757,49.8438381],[11.8225999,49.8432415],[11.8227364,49.8424787],[11.824652,49.8416092],[11.8273885,49.8418015],[11.8263475,49.8446249],[11.8335128,49.84507],[11.8329648,49.8461747],[11.8360034,49.8461619],[11.8352996,49.8475669],[11.8347079,49.8476009],[11.8350067,49.8481808],[11.8311459,49.8493422],[11.8318814,49.8503317],[11.8333704,49.8499958],[11.8376769,49.8521262],[11.8449489,49.8497021],[11.8465249,49.8510444],[11.8476097,49.8505388],[11.8484714,49.8513213],[11.8547637,49.847105],[11.8569657,49.8472982],[11.8592093,49.8489223],[11.8612946,49.8508567],[11.8607909,49.8515926],[11.8619394,49.8520092],[11.8609544,49.8524155],[11.8611722,49.8531197],[11.8593305,49.8538129],[11.8601786,49.8548843],[11.8590352,49.8552761],[11.8585324,49.8564644],[11.8556351,49.8563702],[11.8539503,49.8569774],[11.8524724,49.8587331],[11.8509647,49.8588983],[11.8488641,49.8610161],[11.8422536,49.865145],[11.8427959,49.8653591],[11.842286,49.8659221],[11.844223,49.867234],[11.8422118,49.867622],[11.8418562,49.8687827],[11.8428375,49.8696398],[11.8436856,49.8694717],[11.8444787,49.8707649],[11.8450162,49.8718556],[11.8444599,49.8729325],[11.8453057,49.8735455],[11.844902,49.8740121],[11.8455685,49.8754223],[11.8390493,49.8786854],[11.8392561,49.8795103],[11.8446128,49.8829332],[11.8469371,49.8818328],[11.8493496,49.8852614],[11.8542516,49.8864917],[11.8520243,49.887585],[11.8539826,49.8899005],[11.8548547,49.892271],[11.851084,49.8925146],[11.8478058,49.8919001],[11.8472488,49.8923914],[11.8476566,49.8931814],[11.8496979,49.8940075],[11.8467283,49.8954442],[11.8454747,49.8933879],[11.8416586,49.8928579],[11.8399581,49.893441],[11.8406744,49.8945142],[11.8395781,49.8949822],[11.8393627,49.8958143],[11.8401378,49.8960173],[11.8408859,49.8981548],[11.8405324,49.8988292],[11.8380361,49.8987843],[11.837783,49.8992261],[11.8368165,49.8986953],[11.8364847,49.8993018],[11.8317439,49.9007434],[11.8318324,49.9001157],[11.831082,49.9006207],[11.8292885,49.8989568],[11.8280833,49.9001263],[11.8261587,49.9004849],[11.8287146,49.9012618],[11.8280773,49.9020407],[11.8242858,49.9012395],[11.8229171,49.9025417],[11.8264878,49.9053354],[11.8329591,49.9045481],[11.8364839,49.904937],[11.8374081,49.9055124],[11.8367279,49.9063873],[11.8371794,49.9069371],[11.839404,49.9076365],[11.8381834,49.9080871],[11.836571,49.9077451],[11.8354581,49.9085537],[11.8352689,49.9103055],[11.8381705,49.913603],[11.8347076,49.9159721],[11.8343333,49.9168893],[11.8351019,49.9185772],[11.8349423,49.9203876],[11.8336977,49.9204911],[11.8339417,49.9218197],[11.8330289,49.923863],[11.8308554,49.9247521],[11.8314905,49.9276533],[11.8283094,49.9315671],[11.8281986,49.9344654],[11.826055,49.9358137],[11.8223237,49.9353959],[11.8222125,49.9318134],[11.8209231,49.9309074],[11.8170203,49.9322179],[11.8119,49.9328535],[11.8129152,49.9338355],[11.8127144,49.9347111],[11.8164744,49.9367594],[11.8148379,49.9371741],[11.8149167,49.9382291],[11.8164047,49.9396501],[11.8167436,49.9409719],[11.8207268,49.9404387],[11.8198492,49.9415893],[11.8202114,49.9437052],[11.8196962,49.944626],[11.8125178,49.9464997],[11.8128513,49.9487515],[11.814514,49.9497845],[11.8110995,49.9518846],[11.8110691,49.9528186],[11.8120858,49.9548426],[11.814105,49.9559674],[11.8112972,49.958447],[11.8118199,49.9597362],[11.8112024,49.9611163],[11.8149243,49.9638095],[11.8154031,49.963788],[11.8136815,49.9623443],[11.8163692,49.9606424],[11.8195977,49.9613617],[11.8228526,49.9630113],[11.8266304,49.9624755],[11.8297856,49.9629804],[11.8327546,49.9625819],[11.8335043,49.961011],[11.834806,49.9616499],[11.8414677,49.9604181],[11.8492193,49.9613007],[11.8502147,49.9596411],[11.8514814,49.9598418],[11.850897,49.9590258],[11.8512439,49.9585196],[11.8548895,49.9607514],[11.8566434,49.9610267],[11.8634192,49.9610597],[11.8644586,49.9608464],[11.8648446,49.9598983],[11.8653977,49.9601555],[11.8651037,49.9609709],[11.8683261,49.9608038],[11.8699621,49.9647216],[11.8714776,49.9654976],[11.8716203,49.9662704],[11.8738825,49.9657959],[11.8784296,49.9671629],[11.8772368,49.9683338],[11.8803682,49.9680331],[11.8812205,49.9674287],[11.8833995,49.9675662],[11.8853636,49.9690598],[11.8879736,49.9684705],[11.8936143,49.9687957],[11.9012925,49.9703141],[11.9007381,49.970765],[11.9015796,49.9710654],[11.9015372,49.9726701],[11.9026539,49.9729808],[11.9026198,49.9739367],[11.9044974,49.974787],[11.9018844,49.9772024],[11.9019249,49.978388],[11.9032089,49.9791815],[11.9038732,49.9816869],[11.9012507,49.9826545],[11.9009824,49.9848176],[11.8998598,49.985412],[11.9020218,49.9878685],[11.8995895,49.9898735],[11.9001506,49.99042],[11.8984061,49.9925141],[11.8997353,49.997175],[11.899298,49.9989637],[11.894466,50.0027174],[11.8886645,50.0048886],[11.8858612,50.006747],[11.8854929,50.0077247],[11.8795022,50.0120917],[11.8764132,50.0170028],[11.8663122,50.0200723],[11.8588858,50.0232278],[11.8578889,50.0275389],[11.8591867,50.0280188],[11.8604267,50.0295897],[11.8623411,50.0294304],[11.8703999,50.0311815],[11.8716867,50.0318672],[11.8713403,50.0326639],[11.8725577,50.0328946],[11.8730816,50.0323345],[11.8737185,50.0328905],[11.8731957,50.034507],[11.8706299,50.0357685],[11.8693823,50.0372922],[11.8667446,50.0423742],[11.8657248,50.0429854],[11.8637687,50.0429663],[11.8610656,50.0446311],[11.8546419,50.0466708],[11.8459944,50.0469717],[11.841711,50.0500322],[11.8405396,50.051723],[11.8384836,50.0521158],[11.837913,50.0530851],[11.8351218,50.0543489],[11.834153,50.0574547],[11.8343171,50.0588116],[11.8329539,50.0606152],[11.8328452,50.061834],[11.8339156,50.0632055],[11.8332259,50.0652256],[11.8242981,50.0690791],[11.8177041,50.0694811],[11.8117836,50.0713865],[11.8065515,50.0700236],[11.8044616,50.0703114],[11.8015224,50.0718932],[11.7998235,50.0743488],[11.7968927,50.0764814],[11.7970461,50.0796171],[11.797883,50.0802857],[11.797939,50.0817563],[11.7992226,50.0801433],[11.8001548,50.0828322],[11.801477,50.0842913],[11.8045779,50.0853272],[11.8076556,50.0841432],[11.8171035,50.0848407],[11.8164331,50.086123],[11.8183991,50.0881478],[11.8160313,50.0893532],[11.8104122,50.0906409],[11.8116924,50.094253],[11.8092984,50.097456],[11.8034258,50.1002034],[11.7917194,50.1022258],[11.7855395,50.1050514],[11.7856448,50.1075382],[11.7838577,50.1126403],[11.7908997,50.1123966],[11.7894502,50.113737],[11.7878736,50.113498],[11.7891772,50.1146772],[11.7899013,50.1165544],[11.7843978,50.1167258],[11.7843305,50.1174205],[11.783754,50.1174435],[11.7818532,50.1167126],[11.7828554,50.1175153],[11.7781367,50.1200639],[11.782249,50.1218245],[11.7793244,50.1210743],[11.7787826,50.1226985],[11.7774874,50.1228156],[11.7784102,50.1248372],[11.7755507,50.1267823],[11.77107,50.1250636],[11.7655077,50.1247163],[11.7620032,50.1217973],[11.7580824,50.1212257],[11.7484011,50.1173716],[11.7472282,50.1177636],[11.7451106,50.116767],[11.7437413,50.1181067],[11.7461986,50.1201441],[11.7432621,50.1202281],[11.7417618,50.1195692],[11.7411228,50.1199802],[11.7418265,50.1204056],[11.7400237,50.1218173],[11.73568,50.1213511],[11.7357112,50.1218725],[11.7344412,50.1217349],[11.7345585,50.1228153],[11.733486,50.1234932],[11.7312953,50.1224931],[11.729808,50.1239247],[11.7279088,50.1230799],[11.7265185,50.1214131],[11.7201337,50.1204811],[11.7176128,50.1195404],[11.7173923,50.121024],[11.7167924,50.1212776],[11.7130895,50.121013],[11.710961,50.1220805],[11.706721,50.1228898],[11.7072662,50.1255336],[11.7021274,50.1279163],[11.7046401,50.1309302],[11.6994032,50.1339305],[11.6912329,50.1281131],[11.6902618,50.1251893],[11.684017,50.1244729],[11.6798456,50.1253479],[11.6778948,50.1245726],[11.6797021,50.1240276],[11.6804659,50.1225055],[11.6778908,50.118575],[11.6780421,50.1159304],[11.6765396,50.1132829],[11.6768691,50.1127111],[11.6750817,50.1122478],[11.6755971,50.1088354],[11.6768846,50.1081934],[11.6758907,50.1060341],[11.6745731,50.1048347],[11.6784819,50.1028498],[11.6777023,50.1005252],[11.6787827,50.1003768],[11.6788939,50.0990611],[11.6756086,50.0962672],[11.6789003,50.0947766],[11.6769258,50.0938482],[11.6804567,50.0915356],[11.6797959,50.0908712],[11.680621,50.090496],[11.6801892,50.0898694],[11.6808145,50.0897165],[11.6825003,50.0911211],[11.6845102,50.0911686],[11.6861847,50.0903075],[11.687169,50.0907108],[11.6879376,50.0897713],[11.6858773,50.0894418],[11.6843463,50.0876599],[11.6825241,50.0886068],[11.6809786,50.088353],[11.6672013,50.0814104],[11.6661595,50.0814788],[11.6571392,50.0777443],[11.6573247,50.0772972],[11.6547422,50.0767402],[11.6565527,50.0735279],[11.6547273,50.0721407],[11.6522275,50.0722669],[11.652553,50.0715789],[11.6514682,50.0710452],[11.6515612,50.069374],[11.650114,50.0689691],[11.6492266,50.0704366],[11.6473576,50.0716937],[11.6437079,50.0732941],[11.64121,50.0735219],[11.6411918,50.0742059],[11.6347459,50.0720198],[11.6342349,50.070342],[11.6347429,50.0694953],[11.6326617,50.0692904],[11.6316378,50.0677228],[11.6322203,50.0673749],[11.6345576,50.0681266],[11.6369647,50.0665883],[11.6357886,50.0642775],[11.6362482,50.0634095],[11.6373311,50.0637063],[11.6383015,50.0629606],[11.639261,50.0642819],[11.6433222,50.0629491],[11.6411653,50.0612006],[11.639591,50.0615592],[11.6405663,50.0620413],[11.6376498,50.0613029],[11.638164,50.0598293],[11.6361684,50.0587025],[11.6424157,50.0559633],[11.6419716,50.0550957],[11.6423786,50.0544512],[11.6433684,50.0546846],[11.6463529,50.053158],[11.6522033,50.054176],[11.6526432,50.0534103],[11.6515836,50.0530775],[11.6499306,50.0507704],[11.6505818,50.0497824],[11.650259,50.0481134],[11.6528447,50.0464192],[11.6499854,50.0442127],[11.6508159,50.0436272],[11.6507115,50.0427461],[11.6492705,50.0431166],[11.6472005,50.0419311],[11.6427397,50.0440568],[11.637627,50.0449224],[11.6346448,50.0439742],[11.6340766,50.0429237],[11.631447,50.0430594],[11.6320169,50.0424712],[11.6312764,50.0421646],[11.6277712,50.042267],[11.6273146,50.040228],[11.6293687,50.040216],[11.6295635,50.0382546],[11.6312446,50.0383306],[11.6321181,50.0359951],[11.6306762,50.0341781],[11.6289681,50.0340733],[11.6284654,50.0334915],[11.6229214,50.0344604],[11.6209225,50.0358451],[11.6204188,50.0376527],[11.6195163,50.0377842],[11.6176218,50.0398182],[11.6165689,50.0390361],[11.6162382,50.0375016],[11.6144389,50.0367789],[11.6144958,50.0348076],[11.6048263,50.0311936],[11.6043264,50.0308179],[11.6052271,50.0291194],[11.6046007,50.0283588],[11.6037469,50.0285381],[11.6025228,50.0266492],[11.6014259,50.0263466],[11.6018024,50.0254814],[11.6027527,50.0255193],[11.6043815,50.0266449],[11.6040467,50.0176079],[11.6019,50.0168767],[11.6000169,50.0177098],[11.5957385,50.0182205],[11.5814282,50.0115756],[11.578369,50.0090498],[11.578632,50.0082919],[11.572981,50.0091626],[11.5738983,50.0098072],[11.5727411,50.0108385],[11.5701373,50.0110192],[11.5669689,50.0127508],[11.5538554,50.0070356],[11.5490915,50.0030986],[11.5361549,49.9992421],[11.5339553,49.9991921],[11.537523,50.0016057],[11.5361158,50.005153],[11.5265229,50.0058619],[11.527146,50.0048131],[11.5271478,50.004189],[11.5264538,50.0042031],[11.5274253,50.0026398],[11.5274211,50.0011069],[11.5265591,50.0012274],[11.5265312,50.0005851],[11.5221074,49.9989252],[11.5152223,49.9982509],[11.5120912,49.9986422],[11.5067317,49.9954713],[11.5061509,49.9966033],[11.5066819,49.9968916],[11.5058706,49.9971526],[11.5056636,49.99612],[11.5061969,49.995811],[11.505402,49.9954215],[11.5062615,49.9952332],[11.5064492,49.993855],[11.5051261,49.9935139],[11.5051033,49.9921842],[11.504395,49.9917587],[11.5036087,49.9939611],[11.4995825,49.9931782],[11.4984313,49.9949431],[11.4965599,49.9951342],[11.4945781,49.9932958],[11.4917105,49.9943728],[11.4897992,49.9938876],[11.488128,49.9924152],[11.4879524,49.991519],[11.4867022,49.9909788],[11.4830691,49.9927013],[11.4846435,49.9940273],[11.4805261,49.9958671],[11.4764917,49.9953392],[11.4739761,49.993642],[11.4721722,49.9908894],[11.4695092,49.9890771],[11.469694,49.9884033],[11.4671858,49.9839582],[11.4656176,49.9825135],[11.4643487,49.9825056],[11.4633312,49.9812183],[11.4601801,49.9802299],[11.4573231,49.9806194],[11.4566451,49.9801339],[11.4545871,49.9809708],[11.4483821,49.9795328],[11.4456187,49.9797911],[11.4419274,49.9814677],[11.4403425,49.9829262],[11.4373772,49.9839368],[11.4371375,49.9846172],[11.439198,49.984438],[11.4411796,49.9856581],[11.4444758,49.9865023],[11.4423204,49.9893188],[11.4426719,49.9901126],[11.4420674,49.9906879],[11.4377932,49.9909022],[11.4365854,49.9917372],[11.4338541,49.9921327],[11.4303114,49.9897098],[11.4190792,49.9893569],[11.4181431,49.9889991],[11.4168849,49.9870832],[11.4173031,49.9847314],[11.4159934,49.982369],[11.4169273,49.9789422],[11.4154484,49.9785125],[11.4152161,49.9763045],[11.4166935,49.9761736],[11.4156152,49.9754302],[11.4172914,49.9745514],[11.4155821,49.9734629],[11.4183636,49.9719167],[11.4220956,49.9718852],[11.4216466,49.9714503],[11.4235725,49.9693325],[11.4278859,49.9659746],[11.4294131,49.9625323],[11.4288329,49.9622366],[11.4292486,49.9615548],[11.428847,49.9605403],[11.4270921,49.9603583],[11.4276047,49.9575716],[11.4261057,49.9567647],[11.4255513,49.9553807],[11.4241231,49.9557107],[11.4251892,49.9568338],[11.424884,49.9573225],[11.4203966,49.9599144],[11.4202481,49.9591856],[11.4186148,49.9593572],[11.4167711,49.9597715],[11.4169108,49.9602502],[11.4134949,49.960151],[11.4128021,49.9607689],[11.410558,49.960437],[11.4101165,49.9594219],[11.4004493,49.9593528],[11.4004321,49.9606738],[11.3965427,49.9612213],[11.3965166,49.9583101],[11.3940143,49.9581817],[11.3947577,49.9548253],[11.3930688,49.9545005],[11.3933745,49.9531017],[11.391789,49.9517456],[11.3929815,49.9509573],[11.3926756,49.950619],[11.3947189,49.9498692],[11.396841,49.9457218],[11.3911636,49.9447387],[11.3893597,49.9434702],[11.3887653,49.9419886],[11.386924,49.9421785],[11.3868021,49.9411889],[11.3879465,49.9410195],[11.3859681,49.9378106],[11.3866759,49.9377154],[11.3886438,49.9392258],[11.3888893,49.938514],[11.3882724,49.9380884],[11.3880951,49.9363484],[11.3863954,49.9355366],[11.3861296,49.9342818],[11.3839293,49.9337368],[11.3768191,49.9352237],[11.3761257,49.9358219],[11.3767051,49.9389828],[11.3747897,49.9407716],[11.3734284,49.9403487],[11.372915,49.9394091],[11.3668395,49.9383707],[11.3656608,49.9388841],[11.3641749,49.9385331],[11.3619976,49.9403248],[11.3616148,49.9413526],[11.3593379,49.9422965],[11.3594405,49.9428553],[11.3585267,49.9423921],[11.3588054,49.9433735],[11.3548216,49.9440831],[11.3546916,49.9449164],[11.3543086,49.943394],[11.3528496,49.9433432],[11.3525993,49.9456267],[11.3498941,49.946534],[11.347572,49.9452188],[11.347343,49.9463397],[11.348403,49.9472516],[11.3470876,49.9468779],[11.3447374,49.9477527],[11.3471152,49.9490318],[11.3449381,49.9493194],[11.3439698,49.9510418],[11.3443675,49.9511836],[11.3436904,49.9514953],[11.3437215,49.9531146],[11.3394139,49.9537817],[11.335881,49.9560654],[11.3340251,49.9554619],[11.33322,49.9567289],[11.3279586,49.9565112],[11.3278746,49.9569985],[11.3263263,49.9569847],[11.3237033,49.9581887],[11.3213644,49.9580548],[11.3206394,49.9589026],[11.3182191,49.9596286],[11.3186592,49.9604959],[11.3196133,49.9607405],[11.3167051,49.9636659],[11.3105674,49.9626531],[11.3094433,49.9637037],[11.3076249,49.9640426],[11.3054614,49.9633774],[11.3045621,49.9642309],[11.2994244,49.9637319],[11.2972213,49.9640884],[11.2957503,49.9654727],[11.2930532,49.9654004],[11.2932078,49.9659255],[11.292167,49.9661997],[11.2901251,49.9659388],[11.288901,49.9676348],[11.286451,49.9670298],[11.2859263,49.9674877],[11.2816309,49.9656791],[11.2809875,49.9658267],[11.281098,49.966419],[11.2804411,49.9662837],[11.280814,49.9651563],[11.2802456,49.9652521],[11.2777554,49.9675092],[11.2776036,49.9690736],[11.2808527,49.9699256],[11.2821371,49.9717],[11.2813264,49.9750075],[11.2829602,49.9753804],[11.2828368,49.9791924],[11.2867722,49.9789956],[11.285162,49.9822536],[11.2845608,49.9880589],[11.2794992,49.9897413],[11.2747775,49.9903773],[11.2740577,49.9897809],[11.2733366,49.9908427],[11.2690559,49.9906691],[11.266005,49.9918606],[11.2657781,49.9924511],[11.2640773,49.9922241],[11.2614448,49.9950358],[11.2620484,49.9980671],[11.2602448,49.9980178],[11.2595599,50.0001348],[11.2568062,49.9994779],[11.2550802,50.0008199],[11.2541036,50.0005874],[11.2484723,49.9989229],[11.2535333,49.9956103],[11.2544967,49.9934401],[11.2506747,49.9904968],[11.247441,49.9904859],[11.2461423,49.9895473],[11.2492697,49.9888371],[11.2454709,49.9870283],[11.2447714,49.9858993],[11.2509767,49.9814212],[11.2526562,49.9788084],[11.2514099,49.9780706],[11.249836,49.9791536],[11.2445729,49.9792807],[11.243765,49.9778973],[11.2441156,49.9770745],[11.2427826,49.9770779],[11.2433124,49.9764989],[11.2407167,49.975704],[11.2397044,49.976581],[11.2377238,49.9755858],[11.2382019,49.974838],[11.2369005,49.9738653],[11.232081,49.9734525],[11.2259705,49.9739373],[11.2188574,49.9732089],[11.2188994,49.9721384],[11.2173956,49.9713867],[11.2184826,49.9693474],[11.2146247,49.9679546],[11.2160345,49.9647207],[11.2171588,49.9642745],[11.2161565,49.9630772],[11.2168504,49.9627132],[11.2093273,49.9588282],[11.2051234,49.9602689],[11.2039957,49.9615642],[11.2048955,49.9598699],[11.2100857,49.957917],[11.2073508,49.9570739],[11.2057869,49.9575261],[11.2062521,49.9567709],[11.2037199,49.9558515],[11.1957079,49.9543406],[11.19644,49.9516095],[11.1934478,49.9511484],[11.1941404,49.9481753],[11.1969186,49.9482329],[11.1957525,49.9475642],[11.1994198,49.9470278],[11.1998459,49.9466932],[11.1993662,49.9452942],[11.2023114,49.9455642],[11.2036647,49.9442373],[11.2051632,49.9453852],[11.205627,49.944063],[11.2106262,49.9439251],[11.2110399,49.9443959],[11.2115945,49.9426335],[11.2142837,49.9404147],[11.215273,49.9388569],[11.21508,49.9365063],[11.2128046,49.9362705],[11.211256,49.933394],[11.2140161,49.9302544],[11.2101001,49.9288681],[11.2111753,49.9253146],[11.2101104,49.9242198],[11.2082287,49.9241325],[11.2091711,49.9218211],[11.2052061,49.920877],[11.2047113,49.9176107],[11.2034536,49.9157],[11.2035196,49.9134507],[11.1995776,49.9106748],[11.1958361,49.9103891],[11.1951,49.9088925],[11.1841671,49.9088791]],[[11.4751181,49.9528026],[11.4759481,49.9560038],[11.4766343,49.9562075],[11.4767069,49.9551773],[11.4751181,49.9528026]],[[11.4751328,49.9571191],[11.4756294,49.9586351],[11.4776175,49.9598035],[11.4844686,49.9616712],[11.4930712,49.963033],[11.4955014,49.9645873],[11.4955845,49.965275],[11.4966566,49.965011],[11.4908613,49.9598383],[11.4901371,49.9573291],[11.4918522,49.9551553],[11.4933241,49.9545771],[11.4911485,49.9544944],[11.4878547,49.9525048],[11.4872057,49.9499283],[11.4884776,49.9483535],[11.4865597,49.948666],[11.4862107,49.9501838],[11.4833661,49.9498593],[11.4806198,49.9488048],[11.4795797,49.9471899],[11.4789951,49.9472096],[11.4795997,49.9491321],[11.4825228,49.9504235],[11.486195,49.951056],[11.4869777,49.9526445],[11.4912847,49.9551633],[11.4896445,49.9572367],[11.4899505,49.9597934],[11.4895083,49.9602383],[11.490657,49.9607289],[11.4910045,49.9622984],[11.4798763,49.9597029],[11.4764636,49.9562703],[11.4756145,49.956099],[11.4751328,49.9571191]],[[11.4942738,49.9477793],[11.4953302,49.9508161],[11.4949169,49.9510239],[11.4985685,49.9549325],[11.4976909,49.9566109],[11.4995345,49.9585183],[11.5005054,49.9582003],[11.5042795,49.9610784],[11.5099727,49.9600849],[11.511095,49.9583801],[11.5089133,49.9566742],[11.5102247,49.9561175],[11.5174885,49.9569527],[11.5251079,49.9586716],[11.5251783,49.9599243],[11.5265814,49.959083],[11.5295951,49.9586335],[11.5306105,49.959231],[11.5304492,49.9586148],[11.5317338,49.9583319],[11.5324396,49.9607458],[11.5352081,49.9616821],[11.5353412,49.9601669],[11.5381616,49.9565432],[11.541683,49.9560252],[11.5427184,49.9580174],[11.544374,49.9592217],[11.5448377,49.9603648],[11.5441671,49.9612116],[11.5444471,49.961897],[11.5455382,49.9610032],[11.5479726,49.9609179],[11.5477913,49.9616222],[11.5468501,49.9614408],[11.5461961,49.9621408],[11.5465608,49.9630643],[11.5444091,49.9634773],[11.5449044,49.9640796],[11.5441579,49.9646105],[11.5449027,49.9656111],[11.5487781,49.9648441],[11.5493437,49.9656539],[11.550729,49.9659973],[11.548188,49.968183],[11.5482265,49.9688984],[11.5504754,49.9697458],[11.5514043,49.9686685],[11.5530244,49.9691205],[11.5540734,49.9702213],[11.5584563,49.9707687],[11.5560537,49.9729306],[11.5593897,49.9742213],[11.5611583,49.9747188],[11.5623981,49.9738003],[11.5641643,49.974116],[11.5697762,49.9752384],[11.5727432,49.9767204],[11.5766502,49.9764615],[11.5766398,49.9756332],[11.5778654,49.9754402],[11.5819807,49.9772589],[11.5855531,49.9752587],[11.592302,49.972802],[11.5948496,49.9734898],[11.5960208,49.9747114],[11.5973721,49.9746777],[11.598888,49.9734473],[11.5997896,49.9715556],[11.5983171,49.9712649],[11.600658,49.9709082],[11.6030938,49.9715561],[11.6063766,49.970598],[11.6062418,49.9696373],[11.610296,49.9695872],[11.6101514,49.9687941],[11.6176967,49.9685989],[11.6207897,49.9668178],[11.6228092,49.9670439],[11.6231228,49.9689214],[11.6282502,49.9696015],[11.6313041,49.9726839],[11.6329464,49.9717524],[11.6364245,49.9717011],[11.6391845,49.9705157],[11.6472763,49.9729687],[11.6481726,49.971773],[11.6500739,49.9719802],[11.6498717,49.9727842],[11.6508227,49.9727238],[11.6550991,49.9720822],[11.6540827,49.9705962],[11.6499786,49.9694323],[11.6514776,49.9679408],[11.6541759,49.9669823],[11.6513399,49.9654366],[11.652485,49.9641366],[11.6501693,49.9635992],[11.648403,49.959423],[11.6466937,49.9593977],[11.6421092,49.9613251],[11.6401501,49.9603263],[11.6396917,49.9593083],[11.6390174,49.9594609],[11.6379501,49.956845],[11.6477885,49.9529251],[11.6493265,49.950473],[11.6501688,49.9507221],[11.6522045,49.9483893],[11.6570845,49.9469252],[11.6568597,49.9437869],[11.6591769,49.9416663],[11.6608227,49.9425021],[11.6598469,49.9428953],[11.6608465,49.9439517],[11.662116,49.9435022],[11.6629497,49.9441418],[11.6652362,49.9439154],[11.6653521,49.94217],[11.6686765,49.9398548],[11.6664552,49.9382109],[11.6717441,49.9368069],[11.6721206,49.9354611],[11.6728262,49.9351138],[11.6702788,49.9335717],[11.6694118,49.9336395],[11.6695939,49.9326783],[11.66916,49.9326285],[11.6660668,49.933529],[11.6591223,49.9333708],[11.6560275,49.9357064],[11.6537671,49.936017],[11.6473237,49.9323905],[11.6426221,49.9311026],[11.6385122,49.9312172],[11.6375706,49.9292732],[11.6342832,49.9291427],[11.6343494,49.9284656],[11.631804,49.9259399],[11.6321183,49.9254869],[11.6302037,49.9256561],[11.6289182,49.9251486],[11.6295023,49.9245201],[11.628293,49.9242775],[11.6271766,49.9230125],[11.6236325,49.9222646],[11.6236232,49.9192419],[11.6216517,49.9164947],[11.6197974,49.9153805],[11.6194276,49.9125871],[11.622693,49.9101866],[11.6217754,49.9083828],[11.6222248,49.9080108],[11.6259917,49.9078306],[11.6253406,49.9068817],[11.6263855,49.9053423],[11.6250761,49.9055117],[11.625874,49.9046116],[11.6240033,49.9037084],[11.6233122,49.9013031],[11.6218704,49.9017103],[11.6207056,49.9013022],[11.6225912,49.8988853],[11.6210009,49.8998069],[11.6200785,49.8994701],[11.6208139,49.9002376],[11.6205224,49.9007206],[11.6155058,49.8993837],[11.6155859,49.8977732],[11.6167014,49.895703],[11.6154969,49.8949239],[11.6128603,49.8947445],[11.6137107,49.8938415],[11.6131176,49.8938182],[11.6132968,49.8928038],[11.6100211,49.8932389],[11.6067127,49.89506],[11.6041958,49.8936308],[11.6013612,49.8939774],[11.6008319,49.892577],[11.6013947,49.8925079],[11.6010712,49.8901855],[11.6000901,49.890276],[11.5994542,49.8914474],[11.5979849,49.8922498],[11.5990813,49.8926344],[11.5995067,49.893674],[11.5984735,49.8938321],[11.5988357,49.8946429],[11.5939683,49.8944265],[11.5909551,49.8937838],[11.5898237,49.8919713],[11.587686,49.8918216],[11.586655,49.8907582],[11.5848418,49.8918486],[11.5772487,49.8923573],[11.5776128,49.8906707],[11.5768162,49.890488],[11.5760916,49.889189],[11.5736693,49.8881942],[11.5719209,49.8891914],[11.5690987,49.8890529],[11.569625,49.8898289],[11.5690169,49.8900773],[11.5710253,49.8928199],[11.5692574,49.8929065],[11.5681621,49.8917213],[11.5657183,49.8906495],[11.5645193,49.8920371],[11.5602525,49.8924408],[11.559269,49.8934046],[11.5546006,49.8926119],[11.553798,49.8949382],[11.5549306,49.8974492],[11.5544927,49.8979942],[11.5551165,49.9002852],[11.5544461,49.9014056],[11.5561323,49.9015514],[11.5555527,49.9038908],[11.5602814,49.9038772],[11.5609179,49.9028698],[11.564435,49.9015933],[11.5679494,49.9020202],[11.5665462,49.9032156],[11.5671583,49.9055611],[11.5647756,49.9051437],[11.5627011,49.9073359],[11.5636701,49.9077477],[11.5635173,49.9083959],[11.5596884,49.910693],[11.5547407,49.9109317],[11.5530037,49.911758],[11.5503011,49.9156702],[11.54588,49.9190931],[11.5440545,49.9200974],[11.538708,49.9212533],[11.535392,49.9236716],[11.5319214,49.9236204],[11.5317902,49.9204451],[11.5333894,49.920052],[11.5328439,49.9197728],[11.5306688,49.9202997],[11.5290229,49.9218311],[11.5266236,49.9228876],[11.5243731,49.9256433],[11.524482,49.9266823],[11.5217876,49.9268489],[11.5223962,49.9274371],[11.520839,49.9280025],[11.5201828,49.9290269],[11.5274091,49.92875],[11.5304116,49.9301167],[11.528067,49.9310173],[11.5292759,49.9324573],[11.5279362,49.9330205],[11.5265989,49.9351806],[11.5248708,49.9356854],[11.5255766,49.93635],[11.5237665,49.9373595],[11.523227,49.9384113],[11.5209751,49.9384255],[11.5208347,49.9378539],[11.5168451,49.9412306],[11.5153793,49.9412692],[11.5152446,49.9421582],[11.5114805,49.9414918],[11.5109795,49.9431808],[11.5114655,49.9439306],[11.5101092,49.9455024],[11.5020824,49.9464044],[11.4982713,49.9455147],[11.4979789,49.9460128],[11.495808,49.9456086],[11.4942738,49.9477793]],[[11.8033956,49.9523189],[11.8077122,49.9537334],[11.8087234,49.953253],[11.8078789,49.9524673],[11.8081926,49.9521188],[11.8100746,49.9527875],[11.8109083,49.9521115],[11.8074697,49.9514457],[11.8064258,49.9501056],[11.8046246,49.9505167],[11.8049608,49.9512501],[11.8033956,49.9523189]]]}}