{"type":"Feature","properties":{"osm_display_name":"Landkreis Coburg, Bayern, Deutschland","osm_id":62561,"hinweis":"Landkreis fuer den Hero der Stadtseite. Der Stadtmittelpunkt liegt im aeusseren Ring dieses Kreises (geprueft). Vereinfacht, Toleranz 0.0004 Grad."},"geometry":{"type":"Polygon","coordinates":[[[10.7123208,50.3545216],[10.7129294,50.3489912],[10.71399,50.3489547],[10.714021,50.3461221],[10.7163533,50.347439],[10.7187282,50.347823],[10.7187251,50.3486689],[10.7196111,50.3494782],[10.7225644,50.349469],[10.7240603,50.3487669],[10.7286313,50.3487963],[10.728784,50.3478361],[10.7266516,50.3468807],[10.7274905,50.3466177],[10.7284962,50.3448961],[10.7294282,50.3446902],[10.7276853,50.3442377],[10.7281416,50.3431631],[10.727292,50.3433736],[10.7271937,50.3407993],[10.7279646,50.3403123],[10.7275392,50.3394252],[10.7283164,50.3380991],[10.7246125,50.3353971],[10.7230025,50.3356419],[10.7232054,50.3347365],[10.7200202,50.3332553],[10.7150259,50.3329923],[10.7162635,50.3279989],[10.7141868,50.3250658],[10.7159973,50.3208333],[10.7196036,50.3198848],[10.7201453,50.318519],[10.7217304,50.3180783],[10.7274811,50.3183828],[10.7367187,50.3141952],[10.738207,50.3153318],[10.7417519,50.3159832],[10.7441503,50.3139735],[10.7435989,50.3136723],[10.7441307,50.3131662],[10.7459332,50.3121838],[10.7465026,50.3124508],[10.7483289,50.3106558],[10.7477024,50.3102569],[10.7507509,50.3095835],[10.7520258,50.3068372],[10.7598455,50.3034605],[10.7625399,50.2983636],[10.7663015,50.2958309],[10.7683407,50.2951721],[10.7694936,50.2931176],[10.7709674,50.2926413],[10.7739199,50.293522],[10.7748911,50.2945889],[10.7835594,50.2949052],[10.7873991,50.2938875],[10.7931106,50.2954438],[10.7942598,50.2953546],[10.7948817,50.2939788],[10.796889,50.2928164],[10.802478,50.2919696],[10.8041304,50.2906851],[10.8043101,50.2886742],[10.8016689,50.2850165],[10.8031299,50.2842437],[10.8017131,50.2830923],[10.8029357,50.282086],[10.8026817,50.280911],[10.804201,50.2796103],[10.8071811,50.278869],[10.8109241,50.2795498],[10.8115041,50.2774984],[10.8146859,50.2788255],[10.8168246,50.2774763],[10.8209975,50.277017],[10.8264328,50.2780045],[10.8269824,50.2773148],[10.8297848,50.2765734],[10.8322361,50.2735791],[10.8358865,50.2730939],[10.8448032,50.2759644],[10.8454097,50.2766902],[10.846696,50.2760222],[10.845247,50.2724597],[10.8451592,50.2700151],[10.846725,50.2676621],[10.8512275,50.2646611],[10.8515312,50.2627419],[10.8504061,50.2601141],[10.8509818,50.2550603],[10.8521476,50.253267],[10.8518489,50.2513889],[10.8501997,50.2506184],[10.8490228,50.2489151],[10.8478207,50.2469722],[10.8477475,50.2450834],[10.8446408,50.2433221],[10.8359739,50.2420677],[10.8365256,50.2409505],[10.8360555,50.2409479],[10.8358438,50.2393349],[10.8312769,50.2390399],[10.8280011,50.2377826],[10.8243993,50.2375155],[10.8208842,50.2379987],[10.8169567,50.2395312],[10.8073614,50.2401812],[10.8078428,50.2414706],[10.8066425,50.2415398],[10.8058542,50.2436158],[10.8068891,50.2443392],[10.8053902,50.2450315],[10.8049314,50.246662],[10.8005252,50.2515624],[10.7929461,50.2502467],[10.7897283,50.2510924],[10.7819996,50.2512048],[10.7847498,50.2485427],[10.780402,50.2469203],[10.7783858,50.2445383],[10.7760847,50.24344],[10.77467,50.2437439],[10.7738987,50.242367],[10.7719771,50.2421458],[10.769392,50.2407598],[10.7664307,50.241969],[10.7642238,50.2411665],[10.758873,50.2423997],[10.7559646,50.2416366],[10.7532608,50.241884],[10.7524743,50.2424923],[10.74982,50.2421733],[10.7490711,50.2436473],[10.7461352,50.2437395],[10.7458983,50.2446734],[10.7469351,50.2447223],[10.7485368,50.2475931],[10.7413784,50.2503506],[10.7322621,50.2517977],[10.7282224,50.2496544],[10.7270306,50.2484045],[10.7267874,50.2472143],[10.7301606,50.2444991],[10.7296841,50.2424658],[10.7278637,50.2423821],[10.7281428,50.2418135],[10.7269032,50.2417599],[10.7270229,50.2409619],[10.7259213,50.2410191],[10.7279862,50.2385792],[10.7269992,50.2306936],[10.7413961,50.227735],[10.745974,50.2277182],[10.7495565,50.2256311],[10.7522388,50.2255074],[10.754768,50.2238639],[10.7592609,50.2233791],[10.7623778,50.2220356],[10.7565184,50.2183504],[10.7558773,50.2166563],[10.7566902,50.2156296],[10.7553381,50.2153224],[10.7540381,50.2131799],[10.7649767,50.2089473],[10.7652083,50.2067539],[10.7671908,50.2072543],[10.7653884,50.2059645],[10.7706637,50.2023443],[10.7714235,50.2011508],[10.7724084,50.1966579],[10.775967,50.1972594],[10.7768204,50.1943125],[10.7802606,50.1944056],[10.77979,50.1926436],[10.7803312,50.1906506],[10.7797565,50.1905214],[10.779521,50.1885125],[10.7796257,50.1878926],[10.7801763,50.1880024],[10.7800354,50.1857431],[10.7791451,50.183183],[10.781621,50.1824047],[10.7814027,50.179563],[10.7818848,50.1787012],[10.7812639,50.1777085],[10.7817627,50.1769188],[10.7756713,50.1748185],[10.7744147,50.1727018],[10.7743782,50.171265],[10.77353,50.1708887],[10.7737375,50.1682258],[10.772887,50.1656353],[10.7740568,50.1636713],[10.7731901,50.1611317],[10.7744262,50.1596833],[10.7766615,50.1538838],[10.7762098,50.1507209],[10.7772062,50.1494191],[10.7787813,50.1489528],[10.7792884,50.1494942],[10.7815606,50.1487219],[10.7830979,50.1477458],[10.7832502,50.1465565],[10.7842685,50.1470134],[10.7847053,50.1483675],[10.7868921,50.1484527],[10.7866189,50.1502007],[10.7847703,50.1509515],[10.7875606,50.1509696],[10.7903634,50.1519798],[10.7887549,50.1492061],[10.7897411,50.1477087],[10.791051,50.1473897],[10.7928902,50.1452722],[10.7945252,50.1444864],[10.7923448,50.1417419],[10.7933452,50.141457],[10.8039571,50.1412019],[10.8023787,50.1467372],[10.807244,50.1476585],[10.8082303,50.1490122],[10.8103729,50.1493123],[10.8120668,50.1491078],[10.8114429,50.1486963],[10.8122438,50.1463155],[10.8178693,50.1472141],[10.8188321,50.1495977],[10.8244812,50.1463209],[10.8300938,50.147767],[10.8333191,50.1465734],[10.8350564,50.1474597],[10.839467,50.1464809],[10.8416438,50.1441079],[10.8468467,50.1468903],[10.8453125,50.1476836],[10.8470976,50.1495239],[10.8430359,50.1508355],[10.8419097,50.1518633],[10.8441035,50.152791],[10.8428989,50.1536293],[10.8439775,50.1542789],[10.8437246,50.1547255],[10.8490159,50.1559618],[10.8522062,50.1576095],[10.8559164,50.1567632],[10.8586026,50.1525007],[10.8611084,50.1506352],[10.867511,50.1487118],[10.8743629,50.1477824],[10.8778163,50.1446864],[10.8800428,50.1437815],[10.8805979,50.1425038],[10.8801929,50.1416538],[10.8753906,50.139948],[10.8752033,50.1391544],[10.8759586,50.1382833],[10.8734318,50.1375362],[10.8727321,50.1382568],[10.8705866,50.1364838],[10.8701758,50.1343656],[10.8708346,50.1340839],[10.8699778,50.1305856],[10.8714972,50.1295762],[10.8712482,50.1280862],[10.8690368,50.1260019],[10.8662819,50.1256043],[10.8650631,50.1243242],[10.8615515,50.124684],[10.8620682,50.1242113],[10.8618642,50.1226819],[10.864395,50.1214818],[10.8627175,50.1194407],[10.8626662,50.1175211],[10.8591122,50.1158677],[10.859725,50.1132027],[10.8561557,50.103294],[10.8563053,50.1019952],[10.8592415,50.0976983],[10.858655,50.096405],[10.8621358,50.093431],[10.8610724,50.0929931],[10.860424,50.09179],[10.8624512,50.0915162],[10.8624374,50.0903361],[10.8636143,50.0882356],[10.8641415,50.0882671],[10.8636063,50.0895365],[10.8642174,50.0896398],[10.8639945,50.0906154],[10.8666922,50.0906755],[10.8668435,50.0939396],[10.8691485,50.0935714],[10.8689818,50.0942465],[10.8716805,50.0936034],[10.8730768,50.0946847],[10.8747941,50.0943483],[10.8757032,50.0954074],[10.879059,50.0942037],[10.8784047,50.0928264],[10.8801329,50.090963],[10.8846417,50.0926012],[10.8850976,50.0930335],[10.8804147,50.0948569],[10.8822789,50.0964635],[10.883125,50.0987256],[10.8856836,50.1007115],[10.8848845,50.1014283],[10.8865283,50.101623],[10.886626,50.1029985],[10.8834005,50.1035365],[10.884414,50.1043415],[10.8835579,50.1045831],[10.8882394,50.1090977],[10.8912103,50.1098232],[10.8904916,50.1110357],[10.8948164,50.1112406],[10.8943632,50.1121433],[10.8995122,50.1132063],[10.9067328,50.112698],[10.9092384,50.1129123],[10.9100734,50.113803],[10.9111808,50.113487],[10.9116067,50.114532],[10.9125831,50.1144304],[10.9118723,50.1162413],[10.9128846,50.1164727],[10.9142213,50.1189779],[10.9152187,50.1183748],[10.916354,50.1191851],[10.9190556,50.1184064],[10.9202595,50.1192672],[10.9228553,50.117318],[10.9266731,50.1169006],[10.9282757,50.1145949],[10.9305575,50.1132423],[10.9372296,50.1125634],[10.9383544,50.1148875],[10.9413696,50.1168158],[10.9416738,50.1186879],[10.9439743,50.1192392],[10.94513,50.1209213],[10.9458108,50.1206317],[10.948551,50.1224824],[10.9461171,50.1243994],[10.9466425,50.1252585],[10.9454989,50.1260603],[10.9482653,50.12665],[10.9474621,50.128042],[10.9439251,50.1282936],[10.9426224,50.1304017],[10.940099,50.1316716],[10.9393315,50.1313172],[10.934272,50.1363559],[10.931665,50.1350089],[10.9294641,50.1355912],[10.9302244,50.1378622],[10.9290625,50.1396991],[10.9248092,50.1381748],[10.9234949,50.1396962],[10.9241027,50.139863],[10.9220287,50.1413007],[10.9178082,50.1403207],[10.9154333,50.1405891],[10.9176555,50.1428043],[10.9228432,50.1431214],[10.9259114,50.1445835],[10.9251812,50.1450454],[10.9248573,50.1479264],[10.9204633,50.1500373],[10.921193,50.1506361],[10.9224133,50.1498217],[10.9229321,50.1504186],[10.9287609,50.1507512],[10.9312186,50.1522507],[10.9357592,50.1534574],[10.9370958,50.1530605],[10.9370285,50.1538553],[10.9380844,50.1537633],[10.938633,50.1552095],[10.942397,50.1541583],[10.9453454,50.1554186],[10.9474331,50.1555183],[10.9482334,50.1546215],[10.9523463,50.1558301],[10.9506805,50.1567389],[10.9541171,50.1594417],[10.9551794,50.1615326],[10.954205,50.161851],[10.9564942,50.1626968],[10.9555786,50.1663952],[10.9561337,50.1665395],[10.9527759,50.1709806],[10.9581261,50.1729341],[10.96052,50.174502],[10.9622377,50.1723912],[10.9661469,50.1734486],[10.9769192,50.1745561],[10.9804841,50.1743334],[10.98015,50.1732284],[10.983409,50.1732679],[10.9839665,50.1744335],[10.9860547,50.1760236],[10.9904466,50.1745662],[10.9931907,50.1770271],[10.995538,50.1763303],[10.9964423,50.1769611],[10.9996888,50.177091],[11.000494,50.1777502],[11.0036552,50.1776292],[11.0042744,50.1781455],[11.0077434,50.1775462],[11.0092074,50.1796345],[11.0012396,50.1837536],[11.0020152,50.1852609],[11.0015041,50.1854504],[11.0041749,50.1878314],[11.0039378,50.1883087],[11.0070834,50.1902985],[11.0083036,50.1918706],[11.0105571,50.1917431],[11.0110422,50.1938251],[11.0083685,50.1939239],[11.0039891,50.1956372],[11.0028285,50.1974263],[11.0011098,50.198091],[11.0053931,50.1991185],[11.0071454,50.1998293],[11.0069489,50.200231],[11.002843,50.1990602],[10.9994153,50.1997644],[10.9993669,50.2010376],[10.9962523,50.202476],[10.9981976,50.2035815],[10.9978149,50.2039558],[10.9909655,50.2045659],[10.9857514,50.2074107],[10.9841507,50.2096818],[10.9845294,50.2104833],[10.9839246,50.2113745],[10.9853844,50.211372],[10.9850065,50.2118167],[10.989729,50.2127156],[10.9894366,50.2131343],[10.9914695,50.2139034],[10.997235,50.2145095],[10.9985453,50.2153717],[11.0093527,50.2152008],[11.0162909,50.2161314],[11.0170389,50.2181323],[11.0200942,50.219592],[11.0241414,50.2183821],[11.0272233,50.2190161],[11.0286231,50.2184812],[11.0343325,50.2188843],[11.0338094,50.2151742],[11.0361279,50.2147069],[11.0358907,50.214094],[11.0394035,50.2132239],[11.0409463,50.2156197],[11.0429617,50.2159485],[11.0435704,50.2147489],[11.0462192,50.2139424],[11.0461379,50.2131555],[11.0472863,50.2125457],[11.0491094,50.2124427],[11.0514661,50.210634],[11.0544366,50.2105519],[11.056147,50.2094269],[11.0607371,50.20861],[11.062796,50.2060971],[11.0644828,50.2055023],[11.0654628,50.2065144],[11.0654795,50.208179],[11.0668873,50.2107687],[11.0707575,50.2088593],[11.0735003,50.2100655],[11.0761268,50.2091323],[11.0803165,50.2094286],[11.0818921,50.2076381],[11.0870961,50.2061735],[11.0883819,50.2043167],[11.0893328,50.2045074],[11.0891619,50.2057855],[11.0932792,50.2069201],[11.0948579,50.2093232],[11.1026756,50.2105812],[11.1035213,50.2087618],[11.1091433,50.2046283],[11.1120261,50.2057928],[11.1138334,50.2056121],[11.1183101,50.2035089],[11.1183361,50.1999558],[11.1150952,50.1996912],[11.1088429,50.2006909],[11.1097773,50.1979916],[11.1077982,50.1966198],[11.1071393,50.1952133],[11.1091712,50.1933701],[11.1105712,50.1941961],[11.1120148,50.1929974],[11.1165494,50.1912892],[11.1211836,50.1932349],[11.1210121,50.1941484],[11.1235112,50.1959733],[11.1241263,50.1957656],[11.123976,50.1945376],[11.1296753,50.1948846],[11.1305507,50.1942498],[11.1313417,50.1951446],[11.1326684,50.1940231],[11.1337304,50.1944768],[11.1341961,50.1932015],[11.1396348,50.1927277],[11.1403469,50.1951777],[11.1456504,50.1955402],[11.14544,50.1961132],[11.1477075,50.1963888],[11.1474328,50.1973604],[11.1528602,50.1982823],[11.1538705,50.1961012],[11.1564862,50.1958905],[11.1600652,50.1934632],[11.1597096,50.191582],[11.1584332,50.1902696],[11.1593851,50.1891219],[11.1661801,50.1870327],[11.1696739,50.1865269],[11.1741216,50.1869542],[11.1751601,50.1861767],[11.1799746,50.1850934],[11.1856376,50.1908839],[11.1852318,50.1912076],[11.1857842,50.1917853],[11.1894582,50.1941443],[11.1910068,50.1963106],[11.1970396,50.1978253],[11.1984435,50.1998543],[11.1982636,50.202148],[11.197272,50.2022828],[11.1925772,50.2009975],[11.1900228,50.2011129],[11.1849567,50.1995923],[11.17676,50.2002239],[11.1759761,50.201053],[11.173274,50.2014832],[11.1684227,50.2070859],[11.1721358,50.2091421],[11.178204,50.210169],[11.1826426,50.2122429],[11.1818366,50.213091],[11.1834737,50.2133362],[11.1828321,50.2144323],[11.1829547,50.2165902],[11.1821766,50.218997],[11.1804831,50.2190605],[11.1804808,50.2207787],[11.1813538,50.2208587],[11.1814042,50.2220942],[11.1809326,50.2240531],[11.1800243,50.2240356],[11.1798365,50.2247581],[11.1856595,50.2265718],[11.1862605,50.2262406],[11.1883602,50.2276053],[11.191841,50.2285857],[11.1921608,50.2297698],[11.189722,50.2311178],[11.1895521,50.2320174],[11.1935385,50.2346368],[11.1922841,50.2362636],[11.1934112,50.2384013],[11.1907033,50.2383668],[11.1900803,50.2397059],[11.1923336,50.2406266],[11.1931278,50.2418248],[11.1893376,50.2423769],[11.1880511,50.2444642],[11.1816332,50.2466188],[11.1797338,50.248962],[11.1777633,50.2485966],[11.1788631,50.250791],[11.1809627,50.2494548],[11.1855657,50.2499882],[11.1870326,50.2507101],[11.1890745,50.2503421],[11.1902408,50.2510541],[11.1881339,50.2523565],[11.189498,50.2531028],[11.1901024,50.2525833],[11.1928589,50.2534774],[11.1935532,50.2513726],[11.196088,50.2518945],[11.1955176,50.2539438],[11.1946,50.254579],[11.1954328,50.2547943],[11.1951013,50.25531],[11.1971793,50.2556136],[11.1984643,50.2546707],[11.2004782,50.2549164],[11.2002614,50.2559653],[11.2028232,50.2566271],[11.2020163,50.259551],[11.198797,50.2632834],[11.1949798,50.2621449],[11.1942409,50.26268],[11.1921289,50.2650363],[11.1964091,50.2666105],[11.1960865,50.2671345],[11.1939225,50.2668245],[11.1922098,50.2701165],[11.1896512,50.2705597],[11.1879882,50.2691968],[11.1820903,50.270461],[11.1756043,50.2691893],[11.1741068,50.2698614],[11.1744956,50.2703096],[11.173508,50.2709291],[11.1751199,50.2723652],[11.1748956,50.2733302],[11.1762933,50.2756899],[11.1788322,50.2744823],[11.1838519,50.28105],[11.177222,50.2812326],[11.171673,50.2834111],[11.1682347,50.2833626],[11.1666798,50.282617],[11.1644757,50.2829344],[11.1591396,50.2862419],[11.158333,50.2891158],[11.1549629,50.2860922],[11.1552734,50.2852531],[11.1543107,50.2845669],[11.1548601,50.2839405],[11.1543217,50.2834945],[11.1528591,50.2842897],[11.1517101,50.2861049],[11.1459647,50.284913],[11.1409195,50.2892614],[11.1427767,50.2905881],[11.1430121,50.293309],[11.1397895,50.2930469],[11.1402654,50.29511],[11.1377047,50.2996512],[11.1322432,50.3002858],[11.1319198,50.3009239],[11.1304997,50.3061189],[11.1322977,50.3118322],[11.1338755,50.3128873],[11.135666,50.3127951],[11.1354952,50.3133278],[11.1342579,50.3134227],[11.1437079,50.319186],[11.1505711,50.3210925],[11.1523001,50.3231106],[11.154188,50.3226639],[11.1555186,50.3239272],[11.1582308,50.3239051],[11.1591064,50.3253821],[11.1572916,50.3260639],[11.1573389,50.3266232],[11.1595094,50.3302269],[11.1557332,50.3334162],[11.1531043,50.3346848],[11.1501282,50.3384258],[11.1468861,50.3411363],[11.1448302,50.3414654],[11.1417993,50.3451218],[11.1362905,50.3494795],[11.137952,50.3508094],[11.1382097,50.3517075],[11.1374893,50.3526261],[11.138986,50.3536018],[11.1357365,50.353275],[11.1318672,50.3551213],[11.1267868,50.3562406],[11.126351,50.3560715],[11.1266687,50.3555436],[11.1252224,50.3554932],[11.1234138,50.3521477],[11.1235096,50.3506143],[11.1219483,50.3492505],[11.1192556,50.3486244],[11.1161602,50.3498221],[11.1141369,50.3526285],[11.1165066,50.3537548],[11.1194,50.3592301],[11.1175906,50.3620118],[11.1169287,50.3644111],[11.1151366,50.3652794],[11.1158009,50.366268],[11.1154177,50.3669314],[11.1135296,50.3673298],[11.1096473,50.3666375],[11.1018238,50.3675639],[11.0983734,50.3669864],[11.0969502,50.3663536],[11.0971589,50.365585],[11.0897295,50.3659559],[11.0875813,50.3647975],[11.087982,50.362903],[11.0856184,50.362087],[11.0853491,50.3607651],[11.0865447,50.359151],[11.0832387,50.3567125],[11.0819548,50.3539598],[11.0828848,50.3530196],[11.0859957,50.352271],[11.0809971,50.3517243],[11.0732989,50.3537968],[11.0719374,50.3517777],[11.0673582,50.3509701],[11.0644628,50.3491913],[11.0587122,50.3492976],[11.0537491,50.3476367],[11.0461268,50.3462955],[11.0430217,50.3447614],[11.0411629,50.3466868],[11.0368724,50.3452292],[11.0350578,50.3486586],[11.0333891,50.3493863],[11.0323876,50.350702],[11.0300725,50.3513558],[11.0299899,50.3517786],[11.0318582,50.3513735],[11.0370599,50.3527636],[11.0433781,50.3524012],[11.0433097,50.3534302],[11.035076,50.3542134],[11.0321497,50.3551021],[11.031496,50.3539727],[11.0311454,50.3544934],[11.0329774,50.3559326],[11.033215,50.3574277],[11.0363745,50.3586514],[11.0356204,50.3590301],[11.0362698,50.3595726],[11.0359677,50.3599885],[11.0333529,50.3613436],[11.0325255,50.3602593],[11.0301493,50.3608972],[11.0281246,50.3604792],[11.0272733,50.3613126],[11.0242563,50.3604272],[11.0236834,50.3613501],[11.0220441,50.3611496],[11.021414,50.3620953],[11.0198955,50.3622696],[11.0200152,50.3611567],[11.019337,50.3608313],[11.0152327,50.363067],[11.0144664,50.3620649],[11.0080955,50.3651116],[11.0015348,50.3642443],[10.9979839,50.3657638],[10.9933577,50.3653943],[10.9929117,50.3647611],[10.9940089,50.3641557],[10.9929482,50.3634947],[10.9922109,50.3604543],[10.993054,50.3600866],[10.9939703,50.3573666],[10.9931001,50.3552839],[10.9938825,50.3548315],[10.9942227,50.3535767],[10.9977264,50.3538383],[10.9982496,50.3520869],[10.9993476,50.3519711],[10.9989009,50.3502676],[10.9961055,50.3467059],[10.9926328,50.349153],[10.9905193,50.3479911],[10.9858687,50.347333],[10.9828215,50.3504411],[10.9825881,50.3519565],[10.973564,50.3577038],[10.9685615,50.3624947],[10.9628274,50.3658519],[10.9617317,50.3677919],[10.9597994,50.3672993],[10.9564645,50.3686002],[10.9628396,50.3718765],[10.9635036,50.3749125],[10.9625309,50.3770461],[10.9607043,50.3775337],[10.9611661,50.3770815],[10.9597267,50.3752774],[10.956363,50.3777083],[10.9486403,50.3815292],[10.9494746,50.382268],[10.9496106,50.3836918],[10.9465934,50.3857069],[10.9467099,50.3862462],[10.943109,50.387262],[10.9372391,50.3921579],[10.9329943,50.3926022],[10.9300133,50.3919495],[10.9185626,50.3885911],[10.9118388,50.385203],[10.9086943,50.3873371],[10.9051615,50.3854564],[10.8990863,50.3845608],[10.8932131,50.3801715],[10.890723,50.3817687],[10.8866593,50.3881304],[10.8848318,50.3886954],[10.8875118,50.3913733],[10.8871774,50.3925953],[10.8808303,50.3934394],[10.8781819,50.393094],[10.8767563,50.3945526],[10.8760946,50.396647],[10.8732099,50.3967156],[10.8673882,50.3937846],[10.8663751,50.3920569],[10.8660054,50.3893186],[10.8605546,50.3876216],[10.8508351,50.388245],[10.8497878,50.3904303],[10.8359015,50.3911534],[10.8304723,50.3927122],[10.8239184,50.388355],[10.8201151,50.3848093],[10.8167533,50.386018],[10.8126959,50.3838892],[10.8108757,50.3841379],[10.8105009,50.3824159],[10.8043776,50.3791651],[10.8014128,50.3790198],[10.797968,50.3803715],[10.797922,50.3812167],[10.7948744,50.3810822],[10.7902809,50.3821139],[10.7871379,50.3835943],[10.7858232,50.3853169],[10.7805124,50.3808502],[10.7765038,50.374551],[10.773962,50.3718858],[10.7668906,50.3704786],[10.7652737,50.3716319],[10.7634074,50.37017],[10.7630275,50.3695311],[10.7647504,50.3691153],[10.7622394,50.3682465],[10.7603832,50.3624139],[10.7545725,50.3580936],[10.7489972,50.3579225],[10.7385861,50.3629717],[10.7360031,50.3623687],[10.7355177,50.3629998],[10.7325102,50.3632265],[10.7280196,50.36242],[10.715275,50.363687],[10.714917,50.3621508],[10.7171556,50.3600406],[10.7166794,50.3574366],[10.7177785,50.3554681],[10.7123208,50.3545216]],[[10.8868702,50.2817424],[10.8889711,50.2835907],[10.893703,50.2850705],[10.9057319,50.2860274],[10.9055525,50.2865016],[10.9063403,50.2865624],[10.9062964,50.2882736],[10.9099122,50.2875651],[10.9103048,50.2883961],[10.9130528,50.2892845],[10.9131826,50.2906463],[10.9180797,50.2914884],[10.9183481,50.2931393],[10.9195495,50.2921936],[10.9200314,50.2947967],[10.9243557,50.2954396],[10.9268411,50.2946315],[10.9291374,50.2965406],[10.9306233,50.29601],[10.9314568,50.2937675],[10.9360719,50.2924719],[10.9357958,50.2937704],[10.9377021,50.2937585],[10.938499,50.2955129],[10.9427037,50.2952365],[10.9424589,50.2972296],[10.9461305,50.2974206],[10.9460617,50.2989443],[10.9477314,50.2988843],[10.9477076,50.2981755],[10.9508334,50.2981173],[10.950754,50.29666],[10.9532501,50.2957628],[10.9578616,50.2972422],[10.9623741,50.2978311],[10.9645119,50.2948317],[10.9645173,50.2923239],[10.9681399,50.2923844],[10.9685797,50.2914733],[10.9743998,50.2907269],[10.9815075,50.2912596],[10.9871291,50.2904496],[10.9893655,50.291699],[10.9938244,50.2882216],[10.989911,50.2862376],[10.9881447,50.2845386],[10.9808351,50.2814081],[10.9844911,50.2776505],[10.9847169,50.2773095],[10.9838755,50.2770808],[10.984242,50.2764413],[10.9866839,50.2772211],[10.9884835,50.2754056],[10.9937783,50.2777718],[10.9933074,50.277257],[10.9940904,50.2770275],[10.9941557,50.2759785],[10.9959447,50.2756166],[10.9975272,50.276254],[10.9990856,50.275535],[11.0001225,50.2759314],[11.0008706,50.2757025],[10.9999635,50.2748629],[11.0052971,50.2742877],[11.0065517,50.2733386],[11.0068969,50.2713881],[11.0090734,50.2693663],[11.0099441,50.2669919],[11.0114153,50.2675501],[11.0119065,50.2666792],[11.0129776,50.2666362],[11.0231641,50.2682192],[11.0238129,50.2665374],[11.0302349,50.2688947],[11.0354042,50.2722407],[11.040465,50.2697688],[11.041324,50.2701319],[11.0416044,50.2715539],[11.0407209,50.2731859],[11.0436281,50.2750787],[11.0446746,50.2751269],[11.0456275,50.2744917],[11.0476282,50.2746885],[11.0485945,50.2735661],[11.0500102,50.2742057],[11.0510153,50.272922],[11.0503155,50.2711557],[11.0528279,50.2697337],[11.0614136,50.2686352],[11.0637628,50.2650545],[11.0621613,50.264393],[11.0599992,50.2652724],[11.0536034,50.2634138],[11.0518321,50.2635101],[11.0469959,50.2605855],[11.0459226,50.2607649],[11.04591,50.2597983],[11.0410427,50.2598955],[11.0383685,50.2585166],[11.0353977,50.2601765],[11.0341801,50.2593916],[11.0331745,50.2566823],[11.0349597,50.2551368],[11.0350419,50.2537954],[11.0304873,50.2501969],[11.0286464,50.2507451],[11.0269656,50.249631],[11.0235758,50.2514666],[11.0190951,50.247923],[11.0157374,50.2470957],[11.0099569,50.2471627],[11.0104688,50.2460268],[11.0082207,50.2460822],[11.005065,50.2445889],[11.0009069,50.243625],[10.9999532,50.242198],[10.9971162,50.2415469],[10.9972975,50.2409412],[10.9941407,50.239448],[10.9952728,50.2386159],[10.9944342,50.2360493],[10.9970792,50.234246],[10.9989115,50.2320467],[10.9934392,50.2305639],[10.989932,50.2305068],[10.9903699,50.2289505],[10.9895553,50.2271117],[10.9870184,50.2251384],[10.9872129,50.223947],[10.9845498,50.2237506],[10.9825369,50.2228928],[10.9821357,50.2218043],[10.981189,50.2217501],[10.9808576,50.2227043],[10.9776661,50.2221082],[10.9772904,50.2227829],[10.9753064,50.2232536],[10.9761078,50.2246739],[10.9752974,50.22538],[10.9746823,50.2251211],[10.9741085,50.226172],[10.9751067,50.2267582],[10.9730394,50.2273276],[10.9722882,50.2286097],[10.9722762,50.2298031],[10.9748896,50.2304148],[10.9725904,50.2349182],[10.9729425,50.2357672],[10.9716664,50.2371602],[10.9674738,50.2366474],[10.964917,50.2381828],[10.9659528,50.2427201],[10.9645062,50.2439309],[10.9616295,50.2438966],[10.9574919,50.2450809],[10.9533429,50.2443509],[10.9511929,50.2446641],[10.9462908,50.2428527],[10.9446937,50.2436496],[10.9388533,50.2394065],[10.9354091,50.2394781],[10.932764,50.2418211],[10.9289318,50.2415235],[10.9283458,50.243282],[10.9215949,50.241254],[10.9137504,50.2398807],[10.9114923,50.2414974],[10.9091283,50.2412895],[10.908305,50.2425742],[10.8993179,50.247817],[10.8920931,50.2505241],[10.8943323,50.253734],[10.8965911,50.2547915],[10.9002491,50.2540961],[10.8999458,50.25364],[10.9008603,50.253093],[10.9015303,50.2536685],[10.904333,50.2534477],[10.9042585,50.2544222],[10.9051143,50.2545569],[10.9108808,50.2547269],[10.9146453,50.2534953],[10.9182067,50.2547894],[10.9181977,50.2558031],[10.9170235,50.2569992],[10.9200145,50.2589249],[10.9187924,50.2596104],[10.9161704,50.2629282],[10.9164259,50.265904],[10.9219042,50.265547],[10.9170325,50.2684969],[10.9128639,50.2684918],[10.9129536,50.2690762],[10.9116133,50.2692837],[10.9066778,50.2691987],[10.9039916,50.2704536],[10.9042584,50.2719345],[10.899653,50.2743924],[10.8969507,50.2771925],[10.8961623,50.2789731],[10.8937392,50.2797274],[10.8943376,50.2803182],[10.8927955,50.2801574],[10.8868702,50.2817424]]]}}