{"type": "Feature", "properties": {"name": "Coburg", "source": "OpenStreetMap / Nominatim", "osm_display_name": "Coburg, Bayern, 96450, Deutschland", "osm_id": 62717, "osm_type": "relation"}, "geometry": {"type": "Polygon", "coordinates": [[[10.8868702, 50.2817424], [10.8873183, 50.2817211], [10.8875699, 50.2816991], [10.8878709, 50.2816625], [10.888042, 50.2816398], [10.8883485, 50.2815895], [10.888609, 50.2815532], [10.8888422, 50.2815098], [10.8891377, 50.2814418], [10.8893532, 50.281392], [10.8896075, 50.2813323], [10.8898712, 50.2812575], [10.8903285, 50.2811346], [10.8905997, 50.2810824], [10.8909509, 50.2810054], [10.8912496, 50.2809093], [10.8915181, 50.2808228], [10.8917823, 50.2807238], [10.8920867, 50.2806095], [10.8923375, 50.2805228], [10.892474, 50.2804195], [10.8926271, 50.2802937], [10.8927955, 50.2801574], [10.8940019, 50.2802673], [10.8941901, 50.2802964], [10.8942391, 50.280304], [10.8943376, 50.2803182], [10.8942318, 50.2802272], [10.8941635, 50.2801732], [10.8939738, 50.2800231], [10.8937725, 50.2798636], [10.8937185, 50.2797925], [10.8937392, 50.2797274], [10.8938, 50.2796752], [10.8939211, 50.279642], [10.8942678, 50.2795743], [10.8947005, 50.279495], [10.8950823, 50.2794144], [10.8954251, 50.2793433], [10.8956299, 50.2792891], [10.8957714, 50.2792233], [10.8958857, 50.2791643], [10.8959697, 50.2791072], [10.8960874, 50.279031], [10.8961623, 50.2789731], [10.8962656, 50.2788789], [10.8963765, 50.2787385], [10.8964714, 50.2785803], [10.8965676, 50.2783792], [10.8965032, 50.2783787], [10.896592, 50.2781063], [10.896657, 50.2781349], [10.8967751, 50.2777155], [10.8968323, 50.2774868], [10.896882, 50.2773152], [10.8969507, 50.2771925], [10.8970757, 50.277036], [10.8971606, 50.2769308], [10.8973539, 50.2767126], [10.89766, 50.2764089], [10.898041, 50.2760577], [10.8982813, 50.275834], [10.8985084, 50.275637], [10.8987145, 50.2754232], [10.8988086, 50.275326], [10.8989482, 50.2751831], [10.8992753, 50.2747952], [10.8994227, 50.2746222], [10.8994935, 50.2745453], [10.899653, 50.2743924], [10.8997629, 50.274307], [10.8998867, 50.2742193], [10.900103, 50.2740777], [10.9007026, 50.2737334], [10.9012332, 50.2734853], [10.9016668, 50.2732722], [10.9022365, 50.2729851], [10.9026232, 50.27281], [10.9028937, 50.2726902], [10.9034149, 50.2724622], [10.9036483, 50.2723348], [10.9039159, 50.272179], [10.9040707, 50.2720761], [10.904153, 50.272018], [10.9042584, 50.2719345], [10.9043222, 50.2718527], [10.904364, 50.2717746], [10.9043988, 50.2716613], [10.9044098, 50.2715599], [10.9043955, 50.271438], [10.9043437, 50.2712807], [10.9041996, 50.2709479], [10.9039916, 50.2704536], [10.9054459, 50.2698456], [10.9057653, 50.2697207], [10.9059028, 50.269639], [10.9060515, 50.2695488], [10.9063105, 50.2693924], [10.9066778, 50.2691987], [10.9069564, 50.2690982], [10.907361, 50.26898], [10.907889, 50.2688208], [10.9089527, 50.2689608], [10.9096893, 50.269065], [10.9099057, 50.2690906], [10.91065, 50.2691799], [10.9110352, 50.2692234], [10.9116133, 50.2692837], [10.9124135, 50.269151], [10.9129536, 50.2690762], [10.912955, 50.2690211], [10.9129545, 50.2688875], [10.9128639, 50.2684918], [10.9130754, 50.2684808], [10.913552, 50.268469], [10.9141303, 50.2684441], [10.914604, 50.2684328], [10.9150801, 50.2684275], [10.915418, 50.2684343], [10.9156888, 50.2684389], [10.9162145, 50.2684678], [10.916387, 50.2684769], [10.9164872, 50.2684934], [10.9165989, 50.2685191], [10.9167956, 50.2685331], [10.9169627, 50.268508], [10.9170325, 50.2684969], [10.9170658, 50.2684853], [10.9171211, 50.2684652], [10.9172036, 50.2684317], [10.9173735, 50.2683574], [10.9174963, 50.2682815], [10.9180849, 50.2678175], [10.9212328, 50.2659506], [10.921565, 50.2657536], [10.9219042, 50.265547], [10.921649, 50.2656346], [10.9212771, 50.2657161], [10.9206046, 50.2658334], [10.9200048, 50.2659414], [10.9194796, 50.2660252], [10.9189673, 50.2660713], [10.9182899, 50.2661016], [10.9179363, 50.2660838], [10.9174416, 50.2660159], [10.9168959, 50.2659446], [10.9164259, 50.265904], [10.9162843, 50.2641409], [10.9162616, 50.2638585], [10.9162735, 50.2636948], [10.916326, 50.2635418], [10.9161774, 50.2636245], [10.9161315, 50.2634653], [10.9161103, 50.2633292], [10.9161007, 50.2631674], [10.916112, 50.2630529], [10.9161704, 50.2629282], [10.9163088, 50.2627462], [10.9163894, 50.2626571], [10.9165664, 50.2624535], [10.9167034, 50.2623209], [10.9168309, 50.2622588], [10.916906, 50.2622059], [10.9169572, 50.2620645], [10.9169757, 50.2619305], [10.9169953, 50.2617779], [10.9169878, 50.2615171], [10.9171558, 50.2614355], [10.9173721, 50.2612979], [10.9175021, 50.2612129], [10.917668, 50.2610872], [10.9178259, 50.2609559], [10.9184758, 50.2602611], [10.9186022, 50.2601184], [10.9188644, 50.2599061], [10.9188262, 50.2597512], [10.9187924, 50.2596104], [10.9189519, 50.2594944], [10.919145, 50.2594207], [10.9193264, 50.2593886], [10.9194149, 50.2593075], [10.9194944, 50.2592424], [10.9194757, 50.2592339], [10.9197317, 50.2590337], [10.9197542, 50.2590467], [10.9198852, 50.2589727], [10.9200145, 50.2589249], [10.9199094, 50.2589043], [10.9197766, 50.2588622], [10.9196885, 50.2588111], [10.9193839, 50.2585421], [10.9192525, 50.258418], [10.9188478, 50.2581302], [10.9184702, 50.2578595], [10.918156, 50.2576661], [10.9174748, 50.2572525], [10.9173054, 50.2571695], [10.9171834, 50.2570868], [10.9170235, 50.2569992], [10.9172199, 50.2568353], [10.9174504, 50.2566214], [10.9175442, 50.2565348], [10.9176627, 50.2564011], [10.9177765, 50.256263], [10.9180296, 50.2559621], [10.9181977, 50.2558031], [10.9178195, 50.2556624], [10.9178031, 50.2555726], [10.9178891, 50.2553884], [10.9181254, 50.2549434], [10.9182067, 50.2547894], [10.9180671, 50.2547461], [10.9169897, 50.2544093], [10.9155153, 50.2538943], [10.9146453, 50.2534953], [10.9142429, 50.2534896], [10.9141319, 50.2535022], [10.9139952, 50.253528], [10.9136687, 50.2536908], [10.9134908, 50.2538385], [10.9131145, 50.2539983], [10.9125346, 50.2540153], [10.9120206, 50.2542829], [10.9118649, 50.2543745], [10.9116278, 50.2545298], [10.9115237, 50.2546225], [10.9108808, 50.2547269], [10.9099609, 50.254704], [10.9097803, 50.254703], [10.909577, 50.2546713], [10.9093746, 50.2546574], [10.9093221, 50.2546495], [10.9088932, 50.2546957], [10.9086704, 50.2547572], [10.908336, 50.2547557], [10.9082615, 50.2547567], [10.9080246, 50.2547417], [10.9069237, 50.2546442], [10.906264, 50.2545988], [10.9060516, 50.2545684], [10.9058652, 50.2545656], [10.9056647, 50.254555], [10.9054658, 50.2545524], [10.9052889, 50.2545652], [10.9051143, 50.2545569], [10.905123, 50.2543906], [10.9049079, 50.2543875], [10.9045496, 50.2543973], [10.9042585, 50.2544222], [10.9042546, 50.2543219], [10.9042366, 50.2540001], [10.904333, 50.2534477], [10.9035722, 50.2534443], [10.9033421, 50.2534466], [10.902721, 50.2535186], [10.9015303, 50.2536685], [10.9015068, 50.2535742], [10.9009243, 50.2531406], [10.9008603, 50.253093], [10.9008123, 50.2531669], [10.9007215, 50.2532824], [10.9006462, 50.2533602], [10.9004715, 50.253452], [10.9002836, 50.2535398], [10.8999912, 50.2536317], [10.8999458, 50.25364], [10.899994, 50.2537169], [10.9000584, 50.2538031], [10.9002491, 50.2540961], [10.8994824, 50.2541989], [10.8988791, 50.2542702], [10.8983839, 50.2544603], [10.8983366, 50.2544925], [10.8979493, 50.2547473], [10.8978676, 50.2547537], [10.8967533, 50.2547893], [10.8965911, 50.2547915], [10.8963207, 50.2546573], [10.8960852, 50.2545277], [10.8958736, 50.2544264], [10.8950217, 50.2541139], [10.8948343, 50.2540337], [10.8946799, 50.2539496], [10.8945152, 50.253852], [10.8943323, 50.253734], [10.8941843, 50.2535264], [10.8940743, 50.2533679], [10.8939687, 50.2531901], [10.8938963, 50.2530381], [10.8938144, 50.2528863], [10.893665, 50.2527088], [10.8935364, 50.2525404], [10.8933976, 50.2523898], [10.8931185, 50.2521548], [10.8929888, 50.2520571], [10.8928988, 50.2519643], [10.8927851, 50.2518318], [10.892671, 50.2516533], [10.8925173, 50.2514276], [10.8924003, 50.2511693], [10.8922888, 50.2509116], [10.8920931, 50.2505241], [10.8926073, 50.2503031], [10.8934726, 50.2498133], [10.8946081, 50.2492476], [10.8946538, 50.2492287], [10.8952033, 50.2489998], [10.8953761, 50.2489383], [10.8956673, 50.2489174], [10.8963434, 50.2486834], [10.896633, 50.2485943], [10.8969876, 50.2484693], [10.8972801, 50.2484008], [10.8977374, 50.2483222], [10.8985933, 50.2481288], [10.8988741, 50.2480169], [10.8991495, 50.2479052], [10.8993179, 50.247817], [10.899535, 50.2476504], [10.8997216, 50.2474274], [10.899842, 50.2473101], [10.9001009, 50.2471216], [10.9005965, 50.24683], [10.9011794, 50.2465213], [10.9015869, 50.2463175], [10.9022371, 50.2458634], [10.9024758, 50.2457105], [10.9026766, 50.245582], [10.9029935, 50.2453925], [10.903366, 50.2451795], [10.9039949, 50.2448396], [10.9042478, 50.2446776], [10.9044267, 50.2445654], [10.9047708, 50.2443183], [10.905138, 50.2440886], [10.905237, 50.2440635], [10.9053357, 50.2440385], [10.9057525, 50.2438003], [10.9059216, 50.2436379], [10.9070524, 50.2431286], [10.9074958, 50.2428639], [10.9076649, 50.2427421], [10.9081009, 50.2426278], [10.908305, 50.2425742], [10.9083759, 50.2424583], [10.9084264, 50.2424029], [10.9084651, 50.2423607], [10.9086978, 50.2421646], [10.9088978, 50.2419406], [10.9089064, 50.241926], [10.9089842, 50.241678], [10.9090161, 50.2414395], [10.9091283, 50.2412895], [10.9093742, 50.2411808], [10.9094005, 50.2412114], [10.9095056, 50.2413044], [10.9096876, 50.2414602], [10.9098457, 50.2415939], [10.9102316, 50.2415884], [10.9104989, 50.2415845], [10.9109265, 50.2415951], [10.9110634, 50.2415985], [10.9114923, 50.2414974], [10.9117298, 50.2412577], [10.9119735, 50.2410345], [10.9128947, 50.240419], [10.9131915, 50.2402033], [10.9137504, 50.2398807], [10.9145967, 50.24024], [10.9146473, 50.2401852], [10.9147125, 50.2401144], [10.9148507, 50.2399559], [10.914901, 50.2398984], [10.914921, 50.2398984], [10.9170523, 50.2405481], [10.9173101, 50.2406242], [10.9181866, 50.2408036], [10.9184551, 50.2408586], [10.9198058, 50.241099], [10.9203132, 50.2411892], [10.920904, 50.2412191], [10.9215949, 50.241254], [10.9217854, 50.2416588], [10.9229771, 50.2417113], [10.9241058, 50.242075], [10.9242759, 50.2421058], [10.9243536, 50.2421199], [10.9249734, 50.2422573], [10.9257205, 50.2424258], [10.926224, 50.2425584], [10.9268788, 50.2427678], [10.9278904, 50.2431278], [10.9281165, 50.2432614], [10.9283458, 50.243282], [10.9283577, 50.2431763], [10.928354, 50.2431511], [10.9283175, 50.2429513], [10.9283672, 50.2427279], [10.9283846, 50.2425184], [10.9284217, 50.2423441], [10.9286045, 50.242004], [10.9288318, 50.2416355], [10.9289318, 50.2415235], [10.930877, 50.2415842], [10.9320239, 50.2416968], [10.932764, 50.2418211], [10.9329101, 50.241701], [10.9329437, 50.2416621], [10.932963, 50.2416261], [10.9331094, 50.2414102], [10.9336485, 50.2408933], [10.9340869, 50.2404388], [10.9345398, 50.2401098], [10.9354091, 50.2394781], [10.9361033, 50.2394056], [10.9365912, 50.2393502], [10.936853, 50.2393203], [10.9376346, 50.2393487], [10.9388533, 50.2394065], [10.939108, 50.2395938], [10.9393782, 50.2398199], [10.9396596, 50.2399317], [10.9400263, 50.2400136], [10.9401124, 50.2400376], [10.9403491, 50.2401725], [10.9404975, 50.2402978], [10.9406103, 50.2405185], [10.9406753, 50.2408385], [10.9407515, 50.2410282], [10.9407878, 50.2410631], [10.9410112, 50.2412773], [10.9426406, 50.2421826], [10.9430506, 50.2420383], [10.9434039, 50.2425052], [10.9437482, 50.2427077], [10.9439287, 50.2428984], [10.9439185, 50.2429254], [10.9438376, 50.2431359], [10.944512, 50.2435407], [10.9446937, 50.2436496], [10.9448584, 50.2435463], [10.945004, 50.2434545], [10.9452315, 50.2435299], [10.9454229, 50.2435915], [10.9458543, 50.2433066], [10.9460945, 50.2429641], [10.9461758, 50.2428538], [10.9462619, 50.2428506], [10.9462908, 50.2428527], [10.9464265, 50.2428792], [10.9464597, 50.2428916], [10.9465799, 50.2429653], [10.9471088, 50.2430851], [10.9477804, 50.2432881], [10.9478948, 50.2433062], [10.9480057, 50.2433273], [10.9480095, 50.24333], [10.9480884, 50.2433463], [10.9483332, 50.243397], [10.9483577, 50.243405], [10.9487045, 50.2434772], [10.9494534, 50.2439782], [10.9499527, 50.2442655], [10.950249, 50.2443467], [10.9506157, 50.2444229], [10.9508487, 50.2444713], [10.950946, 50.2444953], [10.9509579, 50.2445004], [10.9509754, 50.2445081], [10.9509994, 50.244525], [10.9510568, 50.2445907], [10.9510679, 50.2446016], [10.9511929, 50.2446641], [10.95136, 50.2446309], [10.9514536, 50.2446123], [10.9519146, 50.2444698], [10.9523221, 50.2444256], [10.9523619, 50.2444213], [10.9527796, 50.2444193], [10.9530006, 50.244439], [10.9531347, 50.2443552], [10.9533429, 50.2443509], [10.9534676, 50.2443961], [10.9536366, 50.2443937], [10.9537827, 50.2444631], [10.9545199, 50.2445725], [10.95481, 50.2445653], [10.9551558, 50.2446329], [10.9553973, 50.2446431], [10.9556861, 50.2447167], [10.9560619, 50.2447845], [10.9562425, 50.244817], [10.9563803, 50.2449068], [10.9565166, 50.2449571], [10.9568571, 50.2449652], [10.9569574, 50.2449833], [10.9574919, 50.2450809], [10.9579578, 50.2450605], [10.9581174, 50.2450115], [10.9586241, 50.2449324], [10.9588729, 50.2448512], [10.9590212, 50.244823], [10.9595601, 50.2445861], [10.9604118, 50.2444396], [10.9605158, 50.2444011], [10.960558, 50.2442574], [10.9609638, 50.2441219], [10.9613789, 50.2440385], [10.9615076, 50.2439394], [10.9616295, 50.2438966], [10.9616407, 50.2439396], [10.961653, 50.2439596], [10.9617063, 50.2440108], [10.9617258, 50.2440239], [10.9618387, 50.2440764], [10.9618651, 50.2440844], [10.9620048, 50.2441081], [10.962043, 50.2441084], [10.9626673, 50.2440175], [10.962839, 50.2439826], [10.9628614, 50.243975], [10.9628756, 50.2439683], [10.9629399, 50.2439358], [10.9629571, 50.2439237], [10.9629901, 50.2438912], [10.9631484, 50.2439039], [10.9637592, 50.2439295], [10.9641742, 50.2439807], [10.96433, 50.2439675], [10.9644341, 50.2439495], [10.9645062, 50.2439309], [10.9645778, 50.2438597], [10.9646478, 50.243786], [10.964926, 50.2435682], [10.965717, 50.2429014], [10.9659272, 50.2427366], [10.9659528, 50.2427201], [10.9659215, 50.2426299], [10.9659153, 50.2426114], [10.9658915, 50.2424498], [10.9658874, 50.2424221], [10.9658732, 50.2423255], [10.9658577, 50.2422184], [10.9657052, 50.2420634], [10.9655991, 50.2419283], [10.9655175, 50.2417722], [10.965513, 50.2415786], [10.9655652, 50.2412303], [10.9656601, 50.2408572], [10.9657205, 50.2405434], [10.9657363, 50.240296], [10.9656378, 50.239967], [10.9654707, 50.2397468], [10.9652658, 50.2395273], [10.9650741, 50.239357], [10.9649098, 50.2391471], [10.9648156, 50.2389263], [10.9647308, 50.2386848], [10.964725, 50.2385327], [10.9647729, 50.2383313], [10.964917, 50.2381828], [10.9651456, 50.2380869], [10.9656814, 50.2377434], [10.9659639, 50.237523], [10.9662439, 50.2373387], [10.9665525, 50.2372213], [10.9669973, 50.236978], [10.9670856, 50.2369077], [10.9673676, 50.2367252], [10.9674738, 50.2366474], [10.968023, 50.2368449], [10.9688111, 50.2369292], [10.969663, 50.2370204], [10.970951, 50.2371502], [10.9713533, 50.237165], [10.9714796, 50.2371611], [10.9716664, 50.2371602], [10.971797, 50.2370809], [10.9718498, 50.237008], [10.9719293, 50.2367793], [10.9719881, 50.2366717], [10.9721293, 50.2365625], [10.9724454, 50.2363647], [10.9725313, 50.2362782], [10.9729425, 50.2357672], [10.9730146, 50.2356003], [10.9730233, 50.2355501], [10.9730151, 50.2354874], [10.972968, 50.2353744], [10.9727859, 50.2351629], [10.9726859, 50.2350328], [10.9725904, 50.2349182], [10.9727248, 50.2349081], [10.9729844, 50.2348882], [10.9730257, 50.2348052], [10.9731517, 50.2345756], [10.973174, 50.2344024], [10.9731797, 50.2342008], [10.9731809, 50.2341559], [10.9732037, 50.2341146], [10.9732695, 50.2339953], [10.9733213, 50.2339012], [10.973648, 50.2332741], [10.9736811, 50.2331543], [10.9737233, 50.2330667], [10.9738408, 50.2328503], [10.97402, 50.2324732], [10.9740144, 50.2323319], [10.9740584, 50.2321686], [10.9741881, 50.2319519], [10.9742248, 50.2318252], [10.9742413, 50.2316432], [10.9743449, 50.2313946], [10.9745388, 50.2311085], [10.9748896, 50.2304148], [10.9748197, 50.2302613], [10.9740956, 50.2300917], [10.9733757, 50.2299249], [10.9731755, 50.2298774], [10.9730327, 50.2300051], [10.9723641, 50.2298303], [10.9722762, 50.2298031], [10.9725389, 50.2294994], [10.9726017, 50.2293782], [10.9726168, 50.2292954], [10.9726032, 50.2292299], [10.9725564, 50.2291348], [10.972366, 50.2289213], [10.9723199, 50.2288584], [10.9723013, 50.2287992], [10.9722871, 50.2286844], [10.9722882, 50.2286097], [10.9723031, 50.2285525], [10.9723389, 50.2284655], [10.9724855, 50.2282438], [10.97278, 50.2278163], [10.9728537, 50.2276933], [10.9729192, 50.2275462], [10.9730394, 50.2273276], [10.9731317, 50.227338], [10.9735065, 50.2273806], [10.9742741, 50.2270009], [10.9744577, 50.2270393], [10.9745447, 50.2270018], [10.9747768, 50.226901], [10.9751067, 50.2267582], [10.975141, 50.2264479], [10.9741957, 50.2261926], [10.9741085, 50.226172], [10.9741695, 50.2259514], [10.974228, 50.2257941], [10.97437, 50.2255584], [10.9745989, 50.2252218], [10.9746823, 50.2251211], [10.9747617, 50.2250743], [10.9748191, 50.2250791], [10.974869, 50.2250975], [10.9749224, 50.2251474], [10.9750541, 50.2252882], [10.9751324, 50.2253608], [10.9752183, 50.2253838], [10.9752974, 50.22538], [10.9753586, 50.2253489], [10.975544, 50.2250638], [10.9756811, 50.2249679], [10.9759543, 50.2248124], [10.9761078, 50.2246739], [10.9761361, 50.2245626], [10.9761037, 50.2244835], [10.9757322, 50.2238675], [10.9756867, 50.2236477], [10.9756995, 50.2235164], [10.9756644, 50.2234357], [10.9756181, 50.2234008], [10.9754202, 50.2233604], [10.9753092, 50.2232997], [10.9753064, 50.2232536], [10.9753372, 50.2232211], [10.9753649, 50.2231919], [10.9754991, 50.2231184], [10.9756725, 50.2230776], [10.9758492, 50.2230787], [10.976108, 50.2231733], [10.9761944, 50.2231853], [10.9763787, 50.2231492], [10.9765129, 50.2230524], [10.9765278, 50.2229944], [10.9765113, 50.2227759], [10.9765011, 50.2227155], [10.9765557, 50.2226601], [10.9766497, 50.2226304], [10.9767253, 50.2226378], [10.976826, 50.2226732], [10.9770201, 50.2227627], [10.9771604, 50.2227914], [10.9772904, 50.2227829], [10.9774824, 50.2226749], [10.977737, 50.2224021], [10.9777297, 50.2223181], [10.9777271, 50.2222883], [10.9776661, 50.2221082], [10.9777467, 50.2221138], [10.9781326, 50.2221406], [10.9793494, 50.2222989], [10.9797054, 50.2223282], [10.9798379, 50.2223138], [10.9799039, 50.2223066], [10.9808576, 50.2227043], [10.9808961, 50.2226291], [10.9810786, 50.2221005], [10.981189, 50.2217501], [10.9813473, 50.2217581], [10.9816527, 50.221776], [10.9817509, 50.2217816], [10.9818489, 50.2217873], [10.9821357, 50.2218043], [10.9821306, 50.2219914], [10.9821405, 50.2221252], [10.9821622, 50.2223102], [10.982179, 50.2223998], [10.9822162, 50.2225112], [10.9822895, 50.222645], [10.9823994, 50.2227749], [10.9825369, 50.2228928], [10.9827301, 50.223004], [10.9829125, 50.2230885], [10.9831538, 50.2231809], [10.983597, 50.2232891], [10.9837997, 50.2233118], [10.9840064, 50.2233298], [10.9842141, 50.223348], [10.9843793, 50.2233528], [10.9846154, 50.2233708], [10.9845915, 50.2235613], [10.9845498, 50.2237506], [10.9855374, 50.2238276], [10.987129, 50.2239352], [10.9872129, 50.223947], [10.9870541, 50.2241847], [10.98704, 50.2243684], [10.987032, 50.2244701], [10.9870006, 50.224679], [10.9869934, 50.2247337], [10.9869917, 50.2248482], [10.9869994, 50.2250266], [10.9870184, 50.2251384], [10.9870358, 50.2251645], [10.9876475, 50.2256623], [10.9878803, 50.2258702], [10.9881205, 50.2261111], [10.9888645, 50.2264926], [10.9888031, 50.2266947], [10.9888432, 50.2267905], [10.988865, 50.2268145], [10.9888957, 50.2268339], [10.9891287, 50.2269196], [10.9894922, 50.2270642], [10.9895234, 50.2270876], [10.9895553, 50.2271117], [10.9895421, 50.2271861], [10.9894842, 50.2273392], [10.989483, 50.2273592], [10.989516, 50.2274922], [10.989672, 50.2277171], [10.9899917, 50.2282595], [10.9901687, 50.2286278], [10.9903699, 50.2289505], [10.9902949, 50.2292525], [10.9902889, 50.2292765], [10.9899581, 50.2300563], [10.989976, 50.2303545], [10.989932, 50.2305068], [10.9906449, 50.2304593], [10.99147, 50.2304218], [10.9923699, 50.2304384], [10.9928062, 50.2304856], [10.9934392, 50.2305639], [10.9944034, 50.2308588], [10.9952164, 50.2311009], [10.9962376, 50.2313779], [10.9986597, 50.2319816], [10.9989115, 50.2320467], [10.9986596, 50.2324571], [10.9984606, 50.2327877], [10.998332, 50.2329876], [10.9981718, 50.2331616], [10.9979475, 50.2333635], [10.9978623, 50.23345], [10.9973163, 50.2339739], [10.9970904, 50.2342326], [10.9970792, 50.234246], [10.9966952, 50.2344177], [10.9964287, 50.2346005], [10.9961799, 50.2347713], [10.9959703, 50.234916], [10.9959418, 50.2349396], [10.9957786, 50.2350316], [10.9956125, 50.2351336], [10.9953932, 50.2353348], [10.9950584, 50.2356123], [10.9944342, 50.2360493], [10.994549, 50.2361026], [10.9945329, 50.2367019], [10.9945183, 50.2368224], [10.9946073, 50.2371131], [10.9948001, 50.2373769], [10.9949151, 50.2376195], [10.9950417, 50.2379604], [10.9951937, 50.2384948], [10.9952728, 50.2386159], [10.9945474, 50.2387076], [10.9944762, 50.2387193], [10.9946592, 50.2390207], [10.9947583, 50.2391843], [10.9944764, 50.2392684], [10.9942326, 50.2393614], [10.9941407, 50.239448], [10.9941944, 50.2394604], [10.9942967, 50.2394921], [10.9944123, 50.2395872], [10.9946698, 50.2398435], [10.9948923, 50.2400325], [10.9954518, 50.2403705], [10.9957808, 50.2405041], [10.9964586, 50.2406945], [10.9967289, 50.2407861], [10.997071, 50.2408798], [10.9972975, 50.2409412], [10.9973353, 50.2410442], [10.9973369, 50.2410621], [10.9973149, 50.2411794], [10.9972376, 50.2413068], [10.9971454, 50.2414289], [10.9971425, 50.2414434], [10.9971248, 50.241528], [10.9971162, 50.2415469], [10.9973352, 50.2416109], [10.9973617, 50.2416153], [10.9977416, 50.2416345], [10.9981063, 50.2416443], [10.9983831, 50.2416058], [10.9985453, 50.2415667], [10.9986595, 50.2415547], [10.9986708, 50.2415697], [10.9989759, 50.2417958], [10.9992023, 50.2419153], [10.9994009, 50.2419718], [10.9997301, 50.2420962], [10.9999532, 50.242198], [11.0000648, 50.2422813], [11.0002047, 50.2424292], [11.0002894, 50.2425677], [11.0003439, 50.2427676], [11.000388, 50.2430471], [11.0004197, 50.2431335], [11.0005021, 50.2432427], [11.0009069, 50.243625], [11.0011502, 50.2437479], [11.0014334, 50.2438355], [11.0016928, 50.2438794], [11.0019529, 50.2438979], [11.0024193, 50.2438923], [11.0025443, 50.2439021], [11.0026772, 50.2439206], [11.0029935, 50.2440284], [11.0030233, 50.2440368], [11.0031406, 50.2440701], [11.0045318, 50.2444387], [11.0049069, 50.244538], [11.005065, 50.2445889], [11.0054945, 50.2447731], [11.0056632, 50.2448876], [11.0058212, 50.2449949], [11.0060227, 50.2451483], [11.0064196, 50.2454647], [11.0066032, 50.2455841], [11.0067518, 50.2456582], [11.0069125, 50.2457146], [11.0069439, 50.245721], [11.0071454, 50.2457358], [11.0074637, 50.2457592], [11.0079403, 50.2458286], [11.0080667, 50.2458544], [11.0081271, 50.2458786], [11.0081545, 50.2459355], [11.0082207, 50.2460822], [11.0084213, 50.2460476], [11.0089049, 50.2459766], [11.0102329, 50.2460188], [11.0104688, 50.2460268], [11.0102956, 50.2464575], [11.0102008, 50.2467429], [11.0099569, 50.2471627], [11.0111549, 50.2472552], [11.0114687, 50.2472733], [11.0119287, 50.2473024], [11.0128166, 50.2472407], [11.0130686, 50.2472051], [11.0132553, 50.2471197], [11.0132968, 50.2471007], [11.013416, 50.2470287], [11.0134641, 50.2470409], [11.0139192, 50.2471349], [11.0140251, 50.2471695], [11.0140738, 50.2471854], [11.0142143, 50.2472593], [11.0142451, 50.2472773], [11.014405, 50.2473908], [11.01444, 50.24743], [11.0147782, 50.2473276], [11.0151326, 50.2472386], [11.0156675, 50.2471043], [11.0157374, 50.2470957], [11.0158222, 50.247103], [11.0159938, 50.2471318], [11.0160597, 50.2471499], [11.0165691, 50.2473286], [11.0167937, 50.2473889], [11.0170083, 50.2474689], [11.0173764, 50.2476563], [11.0175705, 50.2477643], [11.0178669, 50.247877], [11.0181278, 50.2479466], [11.0183735, 50.2479851], [11.0185961, 50.2479981], [11.0187141, 50.2479885], [11.0188224, 50.2479767], [11.0190951, 50.247923], [11.0190979, 50.2479277], [11.0200094, 50.2488227], [11.020361, 50.2491934], [11.0224939, 50.2508185], [11.0229149, 50.2511155], [11.0233612, 50.2513784], [11.0234797, 50.2514245], [11.0235758, 50.2514666], [11.0237664, 50.2514725], [11.0242491, 50.2511302], [11.0250034, 50.2506435], [11.0255688, 50.2502981], [11.0256611, 50.2502488], [11.0262602, 50.2499351], [11.0269656, 50.249631], [11.0286464, 50.2507451], [11.0297036, 50.2503685], [11.030012, 50.2502878], [11.0303152, 50.2502133], [11.0304873, 50.2501969], [11.0306326, 50.2503407], [11.0307622, 50.2504751], [11.0309619, 50.2506821], [11.0311613, 50.250889], [11.0312136, 50.2509432], [11.0312658, 50.2509973], [11.0314654, 50.2512043], [11.0316519, 50.2513976], [11.0318844, 50.2515824], [11.0320252, 50.2516941], [11.0323728, 50.2519702], [11.0325603, 50.2520161], [11.0325675, 50.2520178], [11.0327564, 50.2521567], [11.0338143, 50.2529351], [11.0340164, 50.2530977], [11.0350419, 50.2537954], [11.0350289, 50.2538796], [11.0350306, 50.2538963], [11.0350669, 50.2539941], [11.0351377, 50.2540977], [11.0351225, 50.2545974], [11.0351033, 50.2546503], [11.0350773, 50.2547428], [11.0350516, 50.2549497], [11.0350152, 50.2550468], [11.0349597, 50.2551368], [11.0348484, 50.2552513], [11.034627, 50.2554422], [11.0341023, 50.2558199], [11.0334176, 50.256376], [11.0331745, 50.2566823], [11.0332943, 50.2567543], [11.0332872, 50.2567832], [11.0332825, 50.2568207], [11.0332811, 50.2568542], [11.0332856, 50.2569157], [11.0332897, 50.2569744], [11.0333052, 50.2570648], [11.0333188, 50.2571697], [11.0333196, 50.2574525], [11.0333385, 50.2575703], [11.033385, 50.25768], [11.0336086, 50.2580091], [11.0338562, 50.2583561], [11.0339403, 50.2584958], [11.0339535, 50.2585254], [11.0339877, 50.2586007], [11.0339981, 50.2586234], [11.034037, 50.2587346], [11.0340719, 50.2588922], [11.0341241, 50.2592793], [11.0341801, 50.2593916], [11.0342358, 50.2594655], [11.0344956, 50.259738], [11.0346243, 50.2598807], [11.0346393, 50.2599028], [11.0347586, 50.2599], [11.0347865, 50.2598993], [11.0348839, 50.259897], [11.0350561, 50.2598968], [11.0351027, 50.2599643], [11.035196, 50.2600618], [11.0352939, 50.2601289], [11.0353977, 50.2601765], [11.0355335, 50.2602159], [11.0356933, 50.260238], [11.0360281, 50.2602626], [11.0360673, 50.2601713], [11.036213, 50.2599738], [11.0363516, 50.259844], [11.0364762, 50.2597168], [11.036555, 50.2595846], [11.0366446, 50.2593577], [11.0366926, 50.2592608], [11.0367704, 50.259165], [11.0370271, 50.2589557], [11.0372608, 50.2587948], [11.037437, 50.2587444], [11.0381795, 50.2585465], [11.0383685, 50.2585166], [11.0384312, 50.2585212], [11.0388577, 50.2589274], [11.0389456, 50.258998], [11.0390353, 50.2590643], [11.039483, 50.2593705], [11.0396437, 50.2594968], [11.0402038, 50.2596865], [11.0410427, 50.2598955], [11.0413299, 50.2599031], [11.0418661, 50.2599503], [11.0425534, 50.2599919], [11.042989, 50.2599878], [11.0432223, 50.2598792], [11.0435066, 50.2597668], [11.0437655, 50.2597158], [11.0439356, 50.2596966], [11.0440234, 50.2597136], [11.0443943, 50.2598066], [11.0446052, 50.2598195], [11.0449747, 50.2597874], [11.04591, 50.2597983], [11.0461906, 50.2598875], [11.045782, 50.2603374], [11.0457439, 50.2604156], [11.0457217, 50.26049], [11.0457299, 50.2605443], [11.045778, 50.2606267], [11.0459226, 50.2607649], [11.0459997, 50.2607986], [11.046065, 50.260812], [11.0465981, 50.2606955], [11.0467756, 50.2606464], [11.0469959, 50.2605855], [11.0471321, 50.2607013], [11.0479065, 50.2612373], [11.0481215, 50.261372], [11.0482418, 50.2614508], [11.048427, 50.2615495], [11.0487266, 50.2616907], [11.0489821, 50.2617913], [11.0491036, 50.2618506], [11.049272, 50.2619412], [11.0498495, 50.2623399], [11.0501245, 50.2625381], [11.0502893, 50.2626646], [11.0505918, 50.2628874], [11.0507096, 50.2629444], [11.0507736, 50.2629672], [11.0510659, 50.26311], [11.0512742, 50.2632297], [11.0514967, 50.2633575], [11.0516782, 50.2634356], [11.0518321, 50.2635101], [11.0520343, 50.2634195], [11.0521236, 50.2634281], [11.0522719, 50.2634832], [11.0525322, 50.2635352], [11.0526917, 50.2635609], [11.0529145, 50.2634447], [11.053158, 50.2633296], [11.0532665, 50.2633451], [11.0536034, 50.2634138], [11.053813, 50.263463], [11.054213, 50.2635651], [11.0548733, 50.263753], [11.0551529, 50.2638199], [11.0573311, 50.2644247], [11.0574943, 50.2644636], [11.0580506, 50.2645778], [11.058311, 50.2646495], [11.0584973, 50.264719], [11.0586526, 50.2648002], [11.0589354, 50.2650235], [11.0589864, 50.265085], [11.0590252, 50.2651113], [11.0590532, 50.2651242], [11.0591283, 50.2651478], [11.0599992, 50.2652724], [11.0601507, 50.2652881], [11.0604092, 50.2652789], [11.0605929, 50.265262], [11.0608674, 50.2652009], [11.0611114, 50.2651105], [11.0613286, 50.2650129], [11.0621613, 50.264393], [11.0637628, 50.2650545], [11.0633589, 50.2657204], [11.0630825, 50.266033], [11.0629263, 50.2662099], [11.0624221, 50.2666703], [11.0621962, 50.267022], [11.0621057, 50.2671408], [11.0620328, 50.2672688], [11.0619572, 50.2674015], [11.0618219, 50.2677896], [11.0617278, 50.2680069], [11.0616154, 50.2683328], [11.0614136, 50.2686352], [11.0604589, 50.2687173], [11.0593761, 50.2688141], [11.0592514, 50.2688199], [11.0589204, 50.2688906], [11.0586257, 50.2689534], [11.0575579, 50.2691448], [11.0564362, 50.2691888], [11.0555692, 50.269117], [11.0555122, 50.2691124], [11.0548892, 50.2692198], [11.0538195, 50.2694356], [11.0528279, 50.2697337], [11.0522688, 50.2699853], [11.0521368, 50.2700448], [11.052055, 50.2700998], [11.0518454, 50.2702287], [11.0515177, 50.2704017], [11.0513568, 50.2704927], [11.0511961, 50.2705745], [11.0507078, 50.2708052], [11.0505614, 50.2708586], [11.0504924, 50.2709187], [11.0504449, 50.2709981], [11.0503155, 50.2711557], [11.0502808, 50.2713057], [11.0503021, 50.2714607], [11.0502029, 50.2716154], [11.0501681, 50.2717688], [11.0501701, 50.2718316], [11.050203, 50.2719029], [11.0502503, 50.2719736], [11.0504036, 50.2721188], [11.050521, 50.2722048], [11.050668, 50.2723537], [11.0507668, 50.2724703], [11.0508317, 50.2725877], [11.050856, 50.272673], [11.0508571, 50.2726882], [11.0509646, 50.2727791], [11.0510153, 50.272922], [11.0508654, 50.273215], [11.0500102, 50.2742057], [11.049869, 50.2741891], [11.0495509, 50.274142], [11.0492409, 50.2740942], [11.049105, 50.2738513], [11.0490822, 50.273738], [11.0490787, 50.2736571], [11.0485945, 50.2735661], [11.0478969, 50.274313], [11.0476282, 50.2746885], [11.0467829, 50.274564], [11.0466894, 50.2747339], [11.0466126, 50.2748942], [11.0464798, 50.2748775], [11.0462637, 50.2748261], [11.0459775, 50.2747035], [11.0456275, 50.2744917], [11.0455478, 50.2748208], [11.0451545, 50.275067], [11.0446746, 50.2751269], [11.0441588, 50.275142], [11.0436281, 50.2750787], [11.0432398, 50.2746447], [11.0426749, 50.2742557], [11.041157, 50.2735064], [11.0408007, 50.2732779], [11.0407209, 50.2731859], [11.040683, 50.2730716], [11.0406971, 50.2729476], [11.0407034, 50.2729313], [11.0407538, 50.2728564], [11.0408557, 50.2727379], [11.0410844, 50.2725414], [11.0411893, 50.2724377], [11.0412615, 50.2723298], [11.0413426, 50.2721781], [11.0413981, 50.2720364], [11.0414433, 50.2719736], [11.0416138, 50.271773], [11.0416044, 50.2715539], [11.0414809, 50.2712748], [11.0415297, 50.2709385], [11.0415277, 50.2707247], [11.041324, 50.2701319], [11.0411964, 50.2700463], [11.0410315, 50.2700038], [11.0408953, 50.269914], [11.0408686, 50.2698963], [11.040465, 50.2697688], [11.0404021, 50.2697619], [11.0399013, 50.2699946], [11.0390257, 50.2702603], [11.0375797, 50.2709172], [11.0370546, 50.2711736], [11.0368455, 50.2712507], [11.0366826, 50.2713505], [11.036456, 50.2715178], [11.0358463, 50.2720866], [11.0357578, 50.2721404], [11.0356598, 50.2721887], [11.0355143, 50.2722303], [11.0354042, 50.2722407], [11.0348976, 50.2720267], [11.0348654, 50.2719925], [11.0347602, 50.2719295], [11.0344563, 50.2717968], [11.0334566, 50.2713613], [11.0332906, 50.2712763], [11.0331836, 50.2711912], [11.0330872, 50.2710724], [11.0330698, 50.2710202], [11.0330469, 50.27095], [11.0330485, 50.2705333], [11.0330401, 50.2704822], [11.0330242, 50.2704276], [11.033004, 50.2703888], [11.0329775, 50.2703601], [11.0328901, 50.2703007], [11.0304873, 50.2691363], [11.0303887, 50.2690725], [11.0303185, 50.2690005], [11.0302369, 50.2688993], [11.0302349, 50.2688947], [11.0296314, 50.2688139], [11.0295195, 50.2687962], [11.0293221, 50.2687604], [11.0291627, 50.2687084], [11.0287669, 50.268535], [11.028551, 50.2684253], [11.0284099, 50.2683608], [11.0275838, 50.2680678], [11.0273935, 50.267994], [11.0266903, 50.2676341], [11.0265351, 50.2675653], [11.0261184, 50.2673585], [11.0259582, 50.267293], [11.0257948, 50.2672335], [11.0252744, 50.2670902], [11.0249623, 50.267003], [11.0248281, 50.2669618], [11.0243368, 50.2668112], [11.0243044, 50.2667943], [11.0238129, 50.2665374], [11.0237742, 50.2666997], [11.0237521, 50.2671746], [11.0235776, 50.2673161], [11.023411, 50.2674512], [11.0233842, 50.2675012], [11.0233288, 50.2676303], [11.0232561, 50.2678796], [11.023237, 50.2679709], [11.0231988, 50.2681752], [11.0231641, 50.2682192], [11.0222893, 50.2680933], [11.0211189, 50.2679636], [11.0209045, 50.2679426], [11.0196568, 50.2677781], [11.0189624, 50.2676448], [11.0188743, 50.2676279], [11.0183881, 50.2675918], [11.0179155, 50.2675654], [11.017746, 50.2675558], [11.0175394, 50.2675657], [11.0174413, 50.2675703], [11.0174163, 50.2675716], [11.0173431, 50.26755], [11.016686, 50.2673564], [11.0163844, 50.2672676], [11.0156703, 50.2671486], [11.0152045, 50.2671622], [11.0129776, 50.2666362], [11.0127878, 50.2667204], [11.0122158, 50.2667773], [11.0119065, 50.2666792], [11.0114153, 50.2675501], [11.0113711, 50.2675343], [11.0110929, 50.2674584], [11.0109016, 50.2674277], [11.0106055, 50.2673959], [11.0105068, 50.2673408], [11.0100982, 50.2670852], [11.0099441, 50.2669919], [11.0099459, 50.2670648], [11.0099285, 50.2671911], [11.0099167, 50.2672741], [11.0099171, 50.267286], [11.0098925, 50.2674877], [11.0098121, 50.26777], [11.0092555, 50.2690604], [11.0090734, 50.2693663], [11.0089841, 50.2694527], [11.0088325, 50.2696099], [11.0087456, 50.2696834], [11.0085069, 50.2698243], [11.0083099, 50.2699155], [11.0081258, 50.2699824], [11.0079538, 50.270073], [11.0077283, 50.2703278], [11.0071004, 50.2711916], [11.0069255, 50.2713536], [11.0068969, 50.2713881], [11.0065712, 50.2722446], [11.0065193, 50.2724055], [11.0064859, 50.272414], [11.0064674, 50.2724212], [11.0064379, 50.2724517], [11.0064162, 50.2724977], [11.0064097, 50.2725115], [11.006411, 50.2725552], [11.0064221, 50.2725826], [11.0065229, 50.2726974], [11.0066112, 50.2728807], [11.0066361, 50.2730368], [11.0066229, 50.2731639], [11.0066183, 50.2731967], [11.0066118, 50.2732231], [11.0065517, 50.2733386], [11.0064213, 50.2734791], [11.0062679, 50.2735885], [11.006066, 50.2737001], [11.0059138, 50.2737901], [11.0058455, 50.2738398], [11.005371, 50.2742391], [11.0052971, 50.2742877], [11.0050536, 50.2742802], [11.0046033, 50.2742666], [11.0045636, 50.2742695], [11.0037086, 50.2744403], [11.003518, 50.2744511], [11.0032346, 50.2744526], [11.0028956, 50.2746095], [11.0024327, 50.2747778], [11.0016577, 50.2749338], [11.0011594, 50.2749206], [11.000848, 50.2749263], [11.0002059, 50.2748614], [11.0000341, 50.2748567], [10.9999635, 50.2748629], [10.9999888, 50.2749066], [11.0000631, 50.2750763], [11.0000777, 50.2750967], [11.0001202, 50.2751383], [11.0002106, 50.2752265], [11.0004454, 50.2753708], [11.0008496, 50.2756766], [11.0008706, 50.2757025], [11.0005978, 50.2758032], [11.0005229, 50.2758259], [11.0001225, 50.2759314], [11.0001073, 50.2759316], [10.999959, 50.2758911], [10.999826, 50.2758357], [10.9992034, 50.2755659], [10.9990856, 50.275535], [10.9989524, 50.2756095], [10.998796, 50.2757328], [10.9987071, 50.2757534], [10.9986583, 50.2757596], [10.9985019, 50.2757836], [10.998321, 50.2758011], [10.9980045, 50.2757971], [10.9979228, 50.2757882], [10.9978855, 50.2757841], [10.9978763, 50.2758769], [10.9975272, 50.276254], [10.9973951, 50.2761485], [10.9972692, 50.276013], [10.9970937, 50.2758888], [10.9969461, 50.2758006], [10.9967164, 50.2757291], [10.9964513, 50.275678], [10.9959447, 50.2756166], [10.9957882, 50.2756246], [10.9956387, 50.275671], [10.9955333, 50.2757184], [10.9954208, 50.2757828], [10.9952076, 50.2758434], [10.9948267, 50.2759303], [10.9945704, 50.2759557], [10.9941557, 50.2759785], [10.9940768, 50.2760028], [10.9940299, 50.2760417], [10.9940105, 50.2760797], [10.9940264, 50.2761289], [10.9942258, 50.2763186], [10.994273, 50.2763934], [10.9942876, 50.2764855], [10.9942431, 50.2767542], [10.9940904, 50.2770275], [10.9939931, 50.2770955], [10.9938449, 50.2771604], [10.9937105, 50.2771878], [10.9933074, 50.277257], [10.9935863, 50.2774346], [10.9937687, 50.2775183], [10.9938154, 50.2776097], [10.9938266, 50.2776872], [10.9937783, 50.2777718], [10.992705, 50.2774474], [10.992429, 50.2773417], [10.9918103, 50.2771796], [10.9916899, 50.2767777], [10.9906485, 50.2763387], [10.9907367, 50.2762837], [10.9884835, 50.2754056], [10.9879424, 50.2754187], [10.9876292, 50.275753], [10.9877022, 50.2757774], [10.9877479, 50.2758086], [10.987779, 50.2758795], [10.9876421, 50.2760055], [10.9876019, 50.2760524], [10.9872643, 50.2763955], [10.9871862, 50.2764608], [10.9871349, 50.2765602], [10.9871267, 50.2766143], [10.9871213, 50.2768782], [10.9871054, 50.2769617], [10.9870421, 50.2770816], [10.9869733, 50.2771336], [10.9868525, 50.277179], [10.9866839, 50.2772211], [10.9865153, 50.2772344], [10.9861069, 50.2771947], [10.9858548, 50.2771558], [10.9857693, 50.2771282], [10.9856962, 50.2770868], [10.9856023, 50.2769978], [10.9854387, 50.2767875], [10.9854136, 50.2767098], [10.9843563, 50.2764103], [10.9843211, 50.2764428], [10.9843255, 50.2763941], [10.9843009, 50.2763924], [10.984242, 50.2764413], [10.9841775, 50.2765201], [10.9841376, 50.2765942], [10.9838755, 50.2770808], [10.9847169, 50.2773095], [10.9845999, 50.2774727], [10.9844911, 50.2776505], [10.9841216, 50.2775564], [10.9833383, 50.2785038], [10.9816902, 50.2804476], [10.9821298, 50.2805913], [10.981977, 50.2807588], [10.9818987, 50.2808575], [10.9814662, 50.2806979], [10.9808351, 50.2814081], [10.9810328, 50.2814731], [10.9810878, 50.2814872], [10.9814644, 50.2815835], [10.9816288, 50.2816256], [10.9819957, 50.2817394], [10.9822554, 50.2817997], [10.9823002, 50.2818158], [10.9823824, 50.2818428], [10.9824613, 50.2818689], [10.982622, 50.2819197], [10.9828009, 50.2819777], [10.9830129, 50.2821], [10.9830266, 50.2821511], [10.9830554, 50.2821768], [10.9830783, 50.2822204], [10.9831035, 50.2822425], [10.9831145, 50.2822731], [10.9832747, 50.2823545], [10.9838905, 50.2827499], [10.9846029, 50.2832325], [10.9852063, 50.2835175], [10.9853054, 50.2835535], [10.9857342, 50.2837095], [10.9862649, 50.283861], [10.9875855, 50.2842771], [10.9881447, 50.2845386], [10.9884636, 50.2847323], [10.9886611, 50.2850071], [10.9887554, 50.2851382], [10.9890773, 50.2855276], [10.989304, 50.2857618], [10.9893802, 50.2858455], [10.9894544, 50.2859269], [10.989911, 50.2862376], [10.9903689, 50.2865137], [10.990546, 50.2866205], [10.9908459, 50.2867639], [10.9913126, 50.2869566], [10.9918067, 50.2871547], [10.9920541, 50.287273], [10.9921574, 50.2873214], [10.9922741, 50.2873741], [10.9924465, 50.2874521], [10.9926465, 50.2875424], [10.9930357, 50.2877668], [10.9936066, 50.288096], [10.9936934, 50.2881461], [10.9938244, 50.2882216], [10.9936845, 50.2883099], [10.991578, 50.2896809], [10.9915509, 50.2898198], [10.9894303, 50.2916476], [10.9893655, 50.291699], [10.9871291, 50.2904496], [10.9838473, 50.2907865], [10.9832267, 50.2908291], [10.982083, 50.2909123], [10.9820656, 50.2909238], [10.9818318, 50.2909352], [10.9815075, 50.2912596], [10.9812412, 50.2912456], [10.9810118, 50.2912401], [10.9800508, 50.2911772], [10.9799477, 50.2911646], [10.9798456, 50.2911547], [10.9797531, 50.2911388], [10.9796354, 50.2910753], [10.9792957, 50.2910684], [10.9791497, 50.2908738], [10.9772458, 50.2908948], [10.9772514, 50.2909294], [10.9756251, 50.2909332], [10.9755827, 50.2907378], [10.9750494, 50.2907352], [10.9743998, 50.2907269], [10.9739809, 50.2907837], [10.9732775, 50.290841], [10.9730194, 50.2908855], [10.9728721, 50.2909525], [10.9727798, 50.2910101], [10.9687943, 50.2914544], [10.9685797, 50.2914733], [10.968626, 50.2916326], [10.9685717, 50.2919791], [10.9681399, 50.2923844], [10.9645173, 50.2923239], [10.9644452, 50.2926209], [10.9643537, 50.29304], [10.9643754, 50.2930584], [10.9643447, 50.2930558], [10.9642954, 50.2932457], [10.9643975, 50.293345], [10.9644896, 50.2934734], [10.9645432, 50.2936317], [10.9645616, 50.293895], [10.9645222, 50.2944408], [10.9645214, 50.2946485], [10.9645119, 50.2948317], [10.9644519, 50.2948946], [10.9643003, 50.2950273], [10.9638469, 50.295332], [10.9636399, 50.2954794], [10.9634474, 50.295653], [10.9632166, 50.2959621], [10.9630862, 50.2961702], [10.9629519, 50.29641], [10.9628197, 50.2966761], [10.962674, 50.2969105], [10.9625523, 50.2971148], [10.9624531, 50.2973443], [10.9623944, 50.2975499], [10.9623561, 50.297756], [10.9622862, 50.2977789], [10.9623561, 50.2977958], [10.9623741, 50.2978311], [10.9617694, 50.2977141], [10.9613939, 50.2976578], [10.9610776, 50.297633], [10.9608112, 50.2976259], [10.9601792, 50.2975824], [10.9593745, 50.2975014], [10.9587995, 50.2974155], [10.9581777, 50.2973033], [10.9578616, 50.2972422], [10.9575613, 50.2971492], [10.9568899, 50.2968939], [10.9560525, 50.296572], [10.9554625, 50.2963296], [10.9550637, 50.2962104], [10.9532501, 50.2957628], [10.9531861, 50.2959079], [10.9523788, 50.2959644], [10.9525204, 50.2960975], [10.9524057, 50.2961664], [10.9513305, 50.2964949], [10.9510392, 50.2965959], [10.950754, 50.29666], [10.950688, 50.2967368], [10.9507449, 50.2976496], [10.9508334, 50.2981173], [10.9477076, 50.2981755], [10.9477924, 50.2988109], [10.9477314, 50.2988843], [10.9460617, 50.2989443], [10.9460633, 50.2988533], [10.9461668, 50.2978064], [10.9461305, 50.2974206], [10.9450969, 50.2971567], [10.9447567, 50.2971522], [10.9438844, 50.2971247], [10.9434486, 50.2971301], [10.943057, 50.297161], [10.9428104, 50.2971803], [10.9424589, 50.2972296], [10.9426011, 50.296601], [10.9427037, 50.2952365], [10.9422661, 50.2952341], [10.9419881, 50.2952363], [10.9415706, 50.295239], [10.9410616, 50.2952516], [10.940727, 50.2952938], [10.9404087, 50.2953853], [10.9401469, 50.2954865], [10.9399013, 50.2956047], [10.9396919, 50.2957183], [10.938499, 50.2955129], [10.937754, 50.2939241], [10.9376891, 50.2937899], [10.9377021, 50.2937585], [10.9357958, 50.2937704], [10.9357672, 50.2929316], [10.9358629, 50.2926641], [10.9360719, 50.2924719], [10.9356869, 50.2925891], [10.9348745, 50.2925902], [10.9343253, 50.292639], [10.9339955, 50.2926921], [10.9338762, 50.292723], [10.9337438, 50.2927572], [10.9336764, 50.2927864], [10.9335695, 50.2928324], [10.933264, 50.2930332], [10.9330256, 50.2931137], [10.9326037, 50.2932111], [10.932357, 50.2932942], [10.9319528, 50.2935395], [10.931584, 50.293709], [10.9314568, 50.2937675], [10.9313497, 50.2939064], [10.9313047, 50.2941033], [10.9312779, 50.2942206], [10.9312, 50.294423], [10.9310662, 50.2945882], [10.9308413, 50.2947453], [10.9307315, 50.2948887], [10.9307263, 50.2949268], [10.9307099, 50.2950474], [10.9307284, 50.2950998], [10.9307539, 50.2951722], [10.9308965, 50.2952806], [10.9309908, 50.295414], [10.9309751, 50.2954511], [10.9309403, 50.2955338], [10.9308546, 50.2956341], [10.9306233, 50.29601], [10.9304573, 50.2961643], [10.9301849, 50.2962768], [10.9300297, 50.2963467], [10.9298247, 50.2964052], [10.9296583, 50.2964104], [10.9295028, 50.2964435], [10.9292574, 50.2964902], [10.9291374, 50.2965406], [10.9279095, 50.2955435], [10.9276773, 50.2956357], [10.9276393, 50.2956631], [10.9272432, 50.2951924], [10.9268411, 50.2946315], [10.9262328, 50.2948193], [10.925096, 50.2952116], [10.9250007, 50.2952565], [10.9245284, 50.2954341], [10.9243557, 50.2954396], [10.9225388, 50.2949352], [10.9212123, 50.2947244], [10.9202685, 50.294784], [10.9200314, 50.2947967], [10.9197161, 50.292313], [10.9195495, 50.2921936], [10.9193138, 50.2923445], [10.9190478, 50.2925572], [10.9186716, 50.2928804], [10.9183481, 50.2931393], [10.9182464, 50.2925108], [10.9180797, 50.2914884], [10.917455, 50.2914108], [10.9158783, 50.2911918], [10.9143166, 50.2909898], [10.913978, 50.2909446], [10.9138365, 50.2909241], [10.9131826, 50.2906463], [10.9130528, 50.2892845], [10.9129567, 50.2892335], [10.912585, 50.2889201], [10.9123001, 50.2887293], [10.9119635, 50.2885686], [10.9116334, 50.2884309], [10.911419, 50.2883785], [10.9112383, 50.2883638], [10.9110417, 50.2883615], [10.9107056, 50.2883724], [10.9103048, 50.2883961], [10.9099122, 50.2875651], [10.9094993, 50.2875853], [10.9091714, 50.2876683], [10.9086312, 50.2877945], [10.9079646, 50.2880109], [10.9076466, 50.2880934], [10.90702, 50.288192], [10.9065299, 50.2882579], [10.9062964, 50.2882736], [10.906252, 50.2881196], [10.9062399, 50.287928], [10.9062434, 50.2878609], [10.906272, 50.2873113], [10.9063403, 50.2865624], [10.9055525, 50.2865016], [10.9057319, 50.2860274], [10.9050399, 50.2858836], [10.904772, 50.2858388], [10.9045784, 50.2858151], [10.9043189, 50.2857806], [10.9040263, 50.2857514], [10.9037824, 50.2857288], [10.903509, 50.2857145], [10.9033511, 50.2857094], [10.9031684, 50.2857145], [10.9030049, 50.2857314], [10.9029218, 50.2857395], [10.9027773, 50.2857576], [10.9026707, 50.2857777], [10.9025533, 50.2858078], [10.9024252, 50.285865], [10.9022895, 50.2859209], [10.9022618, 50.2859142], [10.9019741, 50.2858893], [10.9011359, 50.2857499], [10.9005002, 50.2856596], [10.9003103, 50.2856346], [10.8997279, 50.2855929], [10.8987821, 50.2855076], [10.8981689, 50.2854188], [10.8975774, 50.2853756], [10.8970083, 50.2853042], [10.8956993, 50.2853067], [10.8953367, 50.2853026], [10.8945599, 50.2852286], [10.893703, 50.2850705], [10.893103, 50.2849323], [10.8930761, 50.2849219], [10.892288, 50.2847012], [10.8917016, 50.284574], [10.8912198, 50.2844178], [10.8902769, 50.2840915], [10.8896079, 50.2837986], [10.8889711, 50.2835907], [10.8884895, 50.2833033], [10.8877051, 50.2829297], [10.8875007, 50.2828068], [10.8873609, 50.2826773], [10.8874586, 50.2822868], [10.8870232, 50.2818114], [10.8868702, 50.2817424]]]}}