{"type":"Feature","properties":{"osm_display_name":"Landkreis Forchheim, Bayern, Deutschland","osm_id":62687,"hinweis":"Landkreis fuer den Hero der Stadtseite. Der Stadtmittelpunkt liegt im aeusseren Ring dieses Kreises (geprueft). Vereinfacht, Toleranz 0.0004 Grad."},"geometry":{"type":"Polygon","coordinates":[[[10.9131407,49.7639631],[10.9143742,49.7617925],[10.9217514,49.7615912],[10.9246155,49.7627843],[10.9248831,49.7613893],[10.927761,49.7620046],[10.9276996,49.7611702],[10.9319145,49.7593659],[10.9310425,49.7575099],[10.9341607,49.7551932],[10.9329249,49.7523127],[10.9305889,49.7525099],[10.9303569,49.7519263],[10.9331443,49.7512011],[10.931628,49.7507532],[10.9323218,49.7498795],[10.9317693,49.7490428],[10.9350403,49.7485164],[10.9348436,49.7478296],[10.9312065,49.7483887],[10.930908,49.7473889],[10.9264512,49.7481192],[10.9265553,49.7469996],[10.9273953,49.7464535],[10.9265638,49.7458028],[10.9190357,49.7432357],[10.9209639,49.7422119],[10.9216207,49.7424554],[10.9237292,49.7388263],[10.9234639,49.7383807],[10.9214406,49.7386923],[10.9219172,49.7377265],[10.9205599,49.7379069],[10.9209332,49.7374453],[10.9232539,49.7359874],[10.9251434,49.7356171],[10.9235996,49.7348174],[10.9260549,49.7330139],[10.9270879,49.7317864],[10.926571,49.7314025],[10.9284534,49.729706],[10.9305596,49.7304922],[10.9324104,49.728695],[10.9300975,49.7278734],[10.9306919,49.7268379],[10.9328728,49.7274922],[10.9335307,49.7264955],[10.934734,49.7267269],[10.9386882,49.727728],[10.9412245,49.7294162],[10.9432678,49.7254033],[10.9448693,49.7244829],[10.9461134,49.7225591],[10.9485066,49.721871],[10.9477781,49.7203705],[10.9488609,49.71997],[10.948194,49.7196243],[10.9516129,49.7182156],[10.9512278,49.7175997],[10.9547657,49.7186855],[10.9624247,49.7168094],[10.9595681,49.7152762],[10.9585624,49.7131167],[10.9566379,49.712824],[10.9557531,49.7118602],[10.9515959,49.7146339],[10.9499997,49.7144389],[10.9506382,49.7130121],[10.9403595,49.7163449],[10.9388402,49.716083],[10.9402525,49.7151605],[10.941565,49.715507],[10.9449492,49.714343],[10.9447866,49.7134782],[10.9439088,49.7137454],[10.9453202,49.7116815],[10.9445354,49.7114402],[10.941031,49.7140764],[10.9379502,49.7145376],[10.9367875,49.7125385],[10.9333772,49.7136079],[10.933768,49.7139235],[10.9320605,49.7150582],[10.9300832,49.7149395],[10.9332891,49.710487],[10.9327915,49.7090936],[10.9315036,49.7105908],[10.9280499,49.7125424],[10.9227159,49.7141731],[10.9230334,49.7117725],[10.9245292,49.7114289],[10.9231929,49.7103682],[10.9227593,49.7089227],[10.923392,49.7088237],[10.9220226,49.706916],[10.9271679,49.7072085],[10.9295537,49.7033564],[10.9321074,49.7008862],[10.9386451,49.6997204],[10.9381371,49.6991794],[10.9467839,49.6972912],[10.9610761,49.6922703],[10.9685933,49.6915309],[10.968812,49.6909342],[10.9705903,49.6904771],[10.9733068,49.6919783],[10.9743058,49.6912578],[10.97281,49.6898454],[10.973635,49.6889271],[10.9738115,49.6874537],[10.9766497,49.6841348],[10.972275,49.6818213],[10.9736234,49.6805945],[10.980478,49.6832924],[10.9817736,49.6832401],[10.9820273,49.6824748],[10.983186,49.6820867],[10.986767,49.6824798],[10.9868292,49.6817127],[10.987649,49.6815076],[10.9880171,49.6821844],[10.9913581,49.6835865],[10.9927502,49.6821725],[11.0095289,49.6852097],[11.0133938,49.6845944],[11.015018,49.6837766],[11.0157319,49.6809373],[11.013423,49.6803775],[11.0133602,49.6772163],[11.0096348,49.6776585],[11.009476,49.6752791],[11.004423,49.6753938],[11.0038019,49.6739615],[11.0061472,49.6735253],[11.0121745,49.6739901],[11.0165782,49.671786],[11.0247957,49.6716209],[11.0257489,49.6721284],[11.0278044,49.670885],[11.0319414,49.6730747],[11.0329704,49.6716181],[11.0414616,49.6753686],[11.0411863,49.6760268],[11.0420422,49.6762748],[11.0425387,49.6773453],[11.0478925,49.6771971],[11.0495603,49.6785085],[11.049625,49.6808154],[11.0516187,49.6810024],[11.052449,49.6819914],[11.0539859,49.6815082],[11.0534783,49.6807874],[11.0546166,49.6801114],[11.0519159,49.6759224],[11.0496038,49.6753019],[11.0480029,49.6729752],[11.0494359,49.6726206],[11.0462548,49.6679886],[11.0501989,49.6668752],[11.0463384,49.662376],[11.0482311,49.6616868],[11.050794,49.6623025],[11.0511354,49.6615469],[11.0532194,49.6610382],[11.052649,49.6602372],[11.0549532,49.6601771],[11.0512944,49.6582024],[11.052466,49.6570901],[11.0570108,49.6587592],[11.0601977,49.6615658],[11.0608175,49.661372],[11.0605568,49.6609238],[11.0633926,49.6603137],[11.0615674,49.6535192],[11.0577042,49.6534618],[11.0574828,49.6541456],[11.0568203,49.6541578],[11.0525499,49.6532594],[11.0510921,49.6523199],[11.0479463,49.6524328],[11.0462164,49.64956],[11.047089,49.6478778],[11.0462179,49.6463332],[11.0484194,49.6449983],[11.04894,49.6416182],[11.0468894,49.6416251],[11.0460902,49.6406254],[11.0432953,49.6407911],[11.0431522,49.6395768],[11.0382833,49.64114],[11.0381045,49.6403545],[11.0375475,49.6404249],[11.0381018,49.6365067],[11.0373784,49.6363158],[11.0372456,49.6367605],[11.0357644,49.6366877],[11.0347483,49.6379675],[11.0309718,49.6386034],[11.0267262,49.6365536],[11.0213775,49.632801],[11.0261971,49.6307547],[11.0244698,49.6291309],[11.0255531,49.6287907],[11.0248677,49.6273968],[11.0269719,49.6269712],[11.0273424,49.6260421],[11.0351597,49.6254133],[11.0381944,49.6237801],[11.0396267,49.6248598],[11.038606,49.6262943],[11.0402461,49.6277192],[11.0398091,49.6289997],[11.0441346,49.6305368],[11.0449487,49.631608],[11.0446315,49.6334243],[11.0508899,49.6340418],[11.0548163,49.6328915],[11.0553258,49.6345728],[11.0539986,49.635972],[11.0540318,49.6369899],[11.0605526,49.6378788],[11.0622557,49.6355663],[11.0656936,49.6341803],[11.0654779,49.6330457],[11.068581,49.6332647],[11.0682614,49.6328574],[11.0690144,49.6322786],[11.0681053,49.6311941],[11.0690234,49.6304224],[11.0699977,49.6279568],[11.0802419,49.6264626],[11.0799809,49.6243663],[11.0787242,49.623612],[11.0813854,49.622948],[11.0811397,49.6219528],[11.0805508,49.6219496],[11.0803967,49.6207945],[11.0762617,49.6209423],[11.0766297,49.6199452],[11.0757687,49.6199019],[11.0765693,49.6177873],[11.0761575,49.6159819],[11.0784226,49.6130777],[11.0799072,49.6124264],[11.0799759,49.610755],[11.0808715,49.6107029],[11.0817863,49.6095976],[11.0823994,49.6083256],[11.0808128,49.6080565],[11.0810694,49.6075435],[11.0821514,49.6076847],[11.0822233,49.6070636],[11.0815904,49.6070122],[11.0820445,49.6059408],[11.0836526,49.6060731],[11.0861702,49.6019951],[11.0879634,49.60179],[11.0875036,49.6000803],[11.0919906,49.6007505],[11.0996782,49.5987532],[11.1008119,49.598782],[11.1014351,49.6005787],[11.1071819,49.5997547],[11.1000502,49.5973079],[11.1054133,49.5975108],[11.1066478,49.5940697],[11.1074706,49.5941489],[11.1067431,49.5915564],[11.1082075,49.5915572],[11.1083963,49.5909231],[11.1093284,49.5919906],[11.1088421,49.5885057],[11.1105734,49.5894268],[11.1103067,49.5902592],[11.1174103,49.5890698],[11.1205293,49.5905646],[11.120975,49.589146],[11.1266495,49.5882964],[11.1276171,49.5890719],[11.1274102,49.5895462],[11.1295578,49.5896727],[11.1313086,49.5890272],[11.131641,49.5899335],[11.13307,49.5901453],[11.1337129,49.5891726],[11.135574,49.5900056],[11.1370827,49.5891437],[11.1422813,49.5900513],[11.1446808,49.5898611],[11.1443198,49.5892787],[11.1456806,49.5885277],[11.1461094,49.588941],[11.1474694,49.5883017],[11.1493482,49.58841],[11.1500819,49.5871618],[11.150002,49.5882934],[11.15066,49.5888984],[11.1524363,49.588549],[11.1550485,49.5904816],[11.1554058,49.5890612],[11.1558836,49.590166],[11.1569321,49.5902362],[11.1568793,49.5893654],[11.1599049,49.589596],[11.1598634,49.5891148],[11.1611764,49.5890403],[11.161355,49.5883168],[11.162513,49.5886439],[11.1627883,49.588123],[11.1660947,49.5887662],[11.1656206,49.5896226],[11.1666899,49.5901701],[11.1679944,49.5893301],[11.168103,49.5903424],[11.1695778,49.5905521],[11.1707292,49.5903146],[11.1706981,49.5892848],[11.1733199,49.5899753],[11.1738647,49.5891071],[11.17588,49.5883015],[11.1764048,49.5891896],[11.1779192,49.5889226],[11.1772674,49.5881109],[11.1802824,49.5873968],[11.1807912,49.5885508],[11.1853223,49.5893682],[11.1861682,49.5885816],[11.1860808,49.5911013],[11.1898574,49.5916748],[11.1900831,49.5903272],[11.1920009,49.5905631],[11.1941961,49.5908765],[11.1981184,49.5927472],[11.1992169,49.591069],[11.2003889,49.592159],[11.2076276,49.5943625],[11.2092442,49.595389],[11.2088597,49.5961089],[11.2097571,49.5964833],[11.2078955,49.601454],[11.2158505,49.6043479],[11.2146205,49.6062069],[11.2155741,49.6071211],[11.214905,49.6081087],[11.218112,49.6094602],[11.2259552,49.6081924],[11.2254785,49.6064451],[11.2277472,49.6061923],[11.2267421,49.6032351],[11.2292528,49.6029748],[11.228523,49.6012279],[11.2291737,49.601219],[11.2302308,49.5985077],[11.2308712,49.5984528],[11.2306918,49.5991952],[11.2331296,49.5994405],[11.2329822,49.5977608],[11.2336051,49.5977389],[11.2344616,49.5985446],[11.2394507,49.5990091],[11.241813,49.5984776],[11.2412436,49.5973703],[11.2426519,49.5965307],[11.2459224,49.5969224],[11.246638,49.5964518],[11.2493726,49.5973727],[11.2526911,49.5970484],[11.2520741,49.5954609],[11.2529647,49.5947504],[11.256138,49.5966855],[11.2562063,49.5982894],[11.257311,49.5988392],[11.2581848,49.6009531],[11.2602131,49.6021877],[11.2604054,49.6027134],[11.2583499,49.6041227],[11.2595748,49.6050247],[11.2636879,49.6058903],[11.2640955,49.6069551],[11.2699691,49.605534],[11.2705833,49.6055571],[11.2708992,49.6066358],[11.2719324,49.6067728],[11.2775456,49.6063847],[11.2804911,49.6038422],[11.2851715,49.6054241],[11.2851706,49.6067472],[11.2865294,49.6070891],[11.2868385,49.6103566],[11.2874831,49.611082],[11.2859212,49.6130645],[11.2871575,49.618627],[11.2881539,49.6186436],[11.2882302,49.6171161],[11.2905349,49.6168669],[11.2913102,49.617379],[11.292378,49.6160515],[11.2939848,49.6169557],[11.2938161,49.6175198],[11.2966706,49.6176407],[11.2973807,49.6197603],[11.2969702,49.6208043],[11.2991631,49.6199719],[11.299661,49.6209759],[11.3003128,49.6209256],[11.2998437,49.623075],[11.2952881,49.6227159],[11.2965475,49.6237961],[11.2960844,49.6265714],[11.2969839,49.6266809],[11.2980666,49.6280406],[11.2989305,49.6279119],[11.3001581,49.629452],[11.2981353,49.6302421],[11.2998975,49.630424],[11.3020536,49.6293153],[11.3031863,49.6298997],[11.3018385,49.6302466],[11.3040555,49.6318076],[11.3061942,49.6316826],[11.3082628,49.6334207],[11.314293,49.6340626],[11.3160449,49.6322437],[11.3198605,49.6322622],[11.3197405,49.6355013],[11.3209267,49.6350879],[11.3217456,49.6357428],[11.3258875,49.6354569],[11.3242117,49.6368362],[11.321584,49.6360202],[11.3206144,49.6367686],[11.3228089,49.6376584],[11.3244911,49.6376009],[11.3247386,49.6370193],[11.332231,49.6370952],[11.3329426,49.6384523],[11.3321291,49.639467],[11.3332521,49.6416137],[11.3327328,49.6426587],[11.3341575,49.6437362],[11.3359274,49.6438562],[11.3366724,49.6432704],[11.3365369,49.6442227],[11.3326196,49.6450305],[11.3332189,49.6471052],[11.335019,49.6475009],[11.3358264,49.6492173],[11.3373733,49.6495678],[11.3411141,49.6522743],[11.3419408,49.6522134],[11.3407147,49.6531126],[11.3427418,49.6556324],[11.3412758,49.6571941],[11.3443235,49.6605757],[11.3475817,49.6609641],[11.3516462,49.6626934],[11.3527853,49.6647426],[11.3557726,49.6648285],[11.3612582,49.666604],[11.3648847,49.6652147],[11.3683888,49.6663391],[11.3694376,49.6675071],[11.3692848,49.6684979],[11.3677593,49.6685915],[11.3676055,49.6694923],[11.366568,49.6698544],[11.3656328,49.6719703],[11.3636115,49.6726946],[11.3609382,49.6722488],[11.3559686,49.6734876],[11.3570822,49.6751272],[11.3560226,49.6763116],[11.3536465,49.6742953],[11.3518736,49.6751426],[11.347243,49.6755799],[11.3468478,49.6781978],[11.349361,49.6788877],[11.3513061,49.6781424],[11.3532529,49.6783062],[11.3549441,49.6797209],[11.3557751,49.6788269],[11.3600374,49.6797835],[11.3614824,49.6795374],[11.3628047,49.6816633],[11.3662585,49.6848385],[11.3684211,49.6857533],[11.3686332,49.685082],[11.3700431,49.6848417],[11.3706607,49.6861883],[11.3725365,49.6867674],[11.3723108,49.6872114],[11.3705235,49.6867196],[11.3750978,49.6879703],[11.3762192,49.6890495],[11.3753196,49.6896414],[11.3760507,49.6906583],[11.3748981,49.6916197],[11.3771279,49.6928511],[11.3770004,49.6936641],[11.3733212,49.6940087],[11.3726373,49.6934395],[11.3716892,49.6944179],[11.3714214,49.6926876],[11.3705164,49.6926637],[11.3701036,49.6957515],[11.3674955,49.6955878],[11.3644131,49.6964657],[11.3666372,49.6991468],[11.3671146,49.6992996],[11.3670632,49.6981585],[11.3692936,49.6988061],[11.3696712,49.6971957],[11.3710126,49.6973064],[11.3712745,49.6958942],[11.3714123,49.6983868],[11.3724404,49.6989274],[11.3717338,49.7006346],[11.3725122,49.7015952],[11.3737536,49.7011175],[11.3742847,49.7000404],[11.3767757,49.7009637],[11.3802071,49.6999452],[11.3831285,49.6999197],[11.3832467,49.7004361],[11.3808197,49.70067],[11.3791488,49.7015692],[11.3786094,49.7011201],[11.3773719,49.7017818],[11.3777667,49.7024215],[11.372511,49.7035841],[11.3704424,49.7034394],[11.3705273,49.7011882],[11.3678738,49.7007529],[11.3643866,49.7016868],[11.3623779,49.700711],[11.3609353,49.701463],[11.359562,49.7013063],[11.3591382,49.7022029],[11.3602482,49.7028616],[11.3561448,49.7040064],[11.3558684,49.7046445],[11.3572236,49.7050146],[11.3581138,49.7078293],[11.3595196,49.707265],[11.3605491,49.708517],[11.36692,49.7126386],[11.3648038,49.7130552],[11.3642057,49.7141348],[11.3616887,49.715295],[11.3621488,49.7157477],[11.3617564,49.7168162],[11.3604701,49.7171403],[11.3594251,49.7182616],[11.3607573,49.7189613],[11.3605581,49.719677],[11.3625745,49.7197992],[11.3621404,49.7207365],[11.3587069,49.721306],[11.3582017,49.723384],[11.3555647,49.7234705],[11.3606103,49.7246834],[11.3616289,49.7278796],[11.3599816,49.7283929],[11.3642128,49.7314485],[11.3642679,49.7332947],[11.3662833,49.7334101],[11.3655629,49.7352455],[11.3637711,49.7364067],[11.362919,49.7386212],[11.3678709,49.743926],[11.3716472,49.7496224],[11.3741512,49.7503476],[11.3746136,49.7514314],[11.3763323,49.7514261],[11.3762788,49.7508466],[11.3779564,49.7512773],[11.3782103,49.7507008],[11.3801159,49.7513455],[11.3849364,49.7514733],[11.3883854,49.7529859],[11.3840352,49.7547679],[11.3841437,49.7562806],[11.3833937,49.7569662],[11.3848305,49.7570125],[11.3844881,49.7593086],[11.3851527,49.760285],[11.382104,49.7630367],[11.3838237,49.7641911],[11.3843059,49.7659474],[11.3816934,49.7667643],[11.3806963,49.7678287],[11.3813196,49.7686555],[11.3773394,49.7714617],[11.3802228,49.7732116],[11.3803223,49.773795],[11.3797277,49.7738568],[11.3802492,49.7748028],[11.3820317,49.7757504],[11.3800041,49.7781547],[11.3758952,49.7774471],[11.3713846,49.7784919],[11.3669688,49.7777678],[11.3669351,49.7771047],[11.3648792,49.778331],[11.3649702,49.7790567],[11.3656645,49.7792554],[11.3660362,49.7827374],[11.359997,49.7819978],[11.3569061,49.7796505],[11.356623,49.7812781],[11.3553442,49.781857],[11.3546801,49.7834917],[11.3494072,49.782313],[11.347356,49.7836647],[11.3530665,49.7857547],[11.3520121,49.7871262],[11.3530263,49.7877705],[11.352858,49.7888902],[11.3537611,49.7906099],[11.3549714,49.7907436],[11.3550278,49.7916716],[11.3562386,49.7922696],[11.3562945,49.7928878],[11.3594434,49.7934719],[11.3597954,49.7942896],[11.3615202,49.7946659],[11.3604496,49.795635],[11.3612148,49.7973907],[11.3659613,49.7969895],[11.3674269,49.7989141],[11.3670339,49.7994603],[11.36801,49.8012079],[11.3668209,49.8036297],[11.365332,49.8032458],[11.3659242,49.8038181],[11.361434,49.8056627],[11.360991,49.8053833],[11.3589499,49.8068955],[11.3588676,49.8079704],[11.3574229,49.8078668],[11.3559392,49.8067552],[11.354548,49.8087648],[11.3540462,49.808001],[11.3476381,49.8092491],[11.3478129,49.8102478],[11.3491548,49.8112985],[11.347294,49.8115158],[11.3449367,49.8102214],[11.3433293,49.8105186],[11.3432871,49.8112371],[11.34409,49.8112799],[11.3432039,49.811413],[11.3427903,49.8128242],[11.338798,49.8115903],[11.3374148,49.8102451],[11.3367477,49.8117084],[11.3380096,49.8146961],[11.333347,49.8147999],[11.3348423,49.8163649],[11.3324294,49.8163234],[11.3291963,49.8176522],[11.3273478,49.8167838],[11.3271646,49.8157812],[11.3287433,49.8145306],[11.330501,49.8146233],[11.331636,49.8121946],[11.3308223,49.8116213],[11.3326275,49.8114051],[11.328658,49.8092182],[11.3282066,49.8077429],[11.3285575,49.8072232],[11.3303377,49.8079747],[11.3335226,49.8063432],[11.3319559,49.8051729],[11.3285396,49.8044692],[11.3265739,49.8052592],[11.3283004,49.8066706],[11.3260647,49.8065189],[11.3238433,49.8048111],[11.3239106,49.803888],[11.3212412,49.8034257],[11.3203679,49.8019116],[11.3153977,49.8008157],[11.3144945,49.8004987],[11.3145931,49.8000348],[11.310458,49.79969],[11.3063631,49.8000139],[11.2962213,49.8043137],[11.2954607,49.8053841],[11.2970133,49.8064383],[11.2967836,49.8084595],[11.2960115,49.8092789],[11.2967373,49.8108118],[11.2928117,49.8132951],[11.2925674,49.8152141],[11.2874773,49.8159943],[11.2864142,49.8181706],[11.2848749,49.8185701],[11.2841515,49.8197881],[11.2831488,49.8201514],[11.2828009,49.8210901],[11.283926,49.8219466],[11.2840448,49.8230536],[11.2812389,49.8260203],[11.276871,49.8281064],[11.2780498,49.8305039],[11.2775508,49.83129],[11.2726758,49.8325973],[11.2703072,49.834013],[11.2700718,49.8348195],[11.2714547,49.8356312],[11.270893,49.8365945],[11.2676627,49.8381109],[11.2679622,49.8393594],[11.2671342,49.8413055],[11.2635086,49.8442942],[11.2631972,49.847318],[11.2621235,49.8488407],[11.2635355,49.8505436],[11.2656822,49.8502526],[11.2659781,49.8510514],[11.2633839,49.8523755],[11.2624452,49.8541571],[11.2586408,49.8534492],[11.2591304,49.854957],[11.2576528,49.8549382],[11.2567048,49.8566909],[11.2703356,49.8606601],[11.2700484,49.8615181],[11.2711594,49.8642192],[11.2706003,49.8649785],[11.2682031,49.86481],[11.2673803,49.8664608],[11.2655492,49.8679742],[11.2660252,49.8689255],[11.2615073,49.8703765],[11.2612649,49.8740235],[11.259448,49.8747275],[11.2580906,49.8738039],[11.256346,49.8740662],[11.2534513,49.8733898],[11.2504366,49.874459],[11.246163,49.873034],[11.2443578,49.873163],[11.2439037,49.8740439],[11.2422954,49.8736237],[11.2420231,49.8731178],[11.2428486,49.8722959],[11.2384625,49.8709468],[11.2407572,49.8670636],[11.2394351,49.866601],[11.2437763,49.8653159],[11.2438514,49.864789],[11.2424674,49.8641758],[11.2378304,49.8645579],[11.2338613,49.8639968],[11.2323791,49.8635666],[11.232987,49.8624802],[11.2321059,49.8617199],[11.2315334,49.8618264],[11.232223,49.8623566],[11.2311125,49.8634545],[11.2276787,49.8620314],[11.2286065,49.8580163],[11.2261379,49.8574553],[11.2324226,49.8537847],[11.233541,49.8524931],[11.2343631,49.8500239],[11.227566,49.849694],[11.2275008,49.8469902],[11.2306498,49.8469427],[11.23027,49.8446575],[11.2292886,49.8440039],[11.2301047,49.8428608],[11.2292126,49.8423044],[11.2308508,49.8409533],[11.2304331,49.84073],[11.2308855,49.8401789],[11.2334958,49.8403796],[11.2321053,49.8389428],[11.2316728,49.8374729],[11.2266161,49.8353918],[11.2225692,49.8348019],[11.2228563,49.8342874],[11.2219303,49.8340922],[11.2197272,49.8363697],[11.2096506,49.8367686],[11.2091708,49.8383084],[11.2057808,49.8383278],[11.2054744,49.8375003],[11.2020719,49.8383641],[11.1986261,49.8369915],[11.1981582,49.8351981],[11.2005229,49.8342152],[11.2001736,49.833268],[11.1987926,49.8327628],[11.197663,49.8332051],[11.196932,49.8349146],[11.1934397,49.8356528],[11.1939988,49.8381945],[11.1890635,49.838903],[11.1893196,49.8367596],[11.1881628,49.8358848],[11.1823853,49.8351356],[11.1801595,49.8335863],[11.1779823,49.8336156],[11.1751036,49.8322767],[11.1739035,49.8326995],[11.174438,49.8332185],[11.172999,49.8335327],[11.1733851,49.8343493],[11.1727912,49.8354113],[11.1669234,49.8366764],[11.1685646,49.8367274],[11.1695164,49.8378458],[11.1744265,49.838308],[11.176043,49.8395875],[11.1691414,49.8393616],[11.1696498,49.8404286],[11.1687677,49.8404678],[11.1687782,49.8409701],[11.1695803,49.8416029],[11.1688875,49.8425396],[11.1711633,49.8432331],[11.1701171,49.8439312],[11.1702276,49.8447277],[11.1676111,49.8449764],[11.165185,49.8444203],[11.1648141,49.8451796],[11.1590656,49.8436683],[11.1546344,49.8446298],[11.1483449,49.8450089],[11.1442107,49.8435994],[11.1414664,49.8447571],[11.1405941,49.8425494],[11.1387405,49.8409622],[11.1359247,49.8406308],[11.1313414,49.8415931],[11.1285333,49.8396197],[11.128313,49.8386193],[11.1264365,49.8377078],[11.1202182,49.8378848],[11.1162712,49.8400572],[11.1077522,49.8389521],[11.1077715,49.8374069],[11.1045359,49.8369526],[11.1043516,49.8357094],[11.1048851,49.8351758],[11.1031796,49.8341257],[11.1034587,49.8316809],[11.1044664,49.8299927],[11.1036712,49.826187],[11.1041514,49.8227605],[11.1032922,49.8198219],[11.0989219,49.8188208],[11.1002018,49.8184953],[11.0995887,49.8180812],[11.1006483,49.8164264],[11.1001982,49.8133234],[11.0994969,49.8125827],[11.0997872,49.8112435],[11.1006936,49.8104619],[11.1000975,49.8056235],[11.0957559,49.8040147],[11.093227,49.8039638],[11.092105,49.8033129],[11.0922436,49.8028499],[11.0867602,49.8021957],[11.0865536,49.8030737],[11.0838004,49.8030226],[11.0838523,49.8016164],[11.0844079,49.8008742],[11.0853077,49.8008622],[11.085047,49.7998008],[11.0864597,49.8005696],[11.0874807,49.8001284],[11.0836614,49.7963139],[11.081922,49.7959608],[11.0812924,49.7939968],[11.0745219,49.7934934],[11.0747535,49.7945635],[11.0758518,49.7952417],[11.0751706,49.79595],[11.0759924,49.796134],[11.0758467,49.7980308],[11.0721357,49.7979397],[11.0715547,49.7985959],[11.0689279,49.7971112],[11.0679833,49.7956306],[11.0659203,49.7949545],[11.0553196,49.7941787],[11.0485658,49.7948964],[11.0453758,49.7925676],[11.0420827,49.7912571],[11.039015,49.7911678],[11.0335447,49.7890597],[11.0325806,49.7898754],[11.0302682,49.7891842],[11.029421,49.7895699],[11.0251234,49.7875557],[11.0260607,49.7864339],[11.0246585,49.7856362],[11.0229923,49.7857328],[11.0209068,49.7843507],[11.016054,49.7831085],[11.0129092,49.7832055],[11.0124432,49.7817088],[11.0113752,49.7813334],[11.0093079,49.781776],[11.0089081,49.7846765],[11.0081213,49.7843357],[11.0074227,49.7825521],[11.0024444,49.782447],[11.0023069,49.7844038],[10.9963673,49.7844257],[10.9889503,49.7857213],[10.9880593,49.785354],[10.988333,49.784565],[10.9872304,49.7835088],[10.985317,49.7841264],[10.9829248,49.7860203],[10.9823923,49.7856311],[10.9842577,49.7845993],[10.9836109,49.783303],[10.9859466,49.7821247],[10.9848663,49.7817294],[10.9849453,49.7812107],[10.9798304,49.7813426],[10.9795326,49.7806226],[10.9767103,49.77921],[10.9781787,49.7776256],[10.9778378,49.7759535],[10.9792252,49.7752534],[10.9786017,49.7747129],[10.9774535,49.7751928],[10.9765693,49.7742175],[10.9748229,49.7750608],[10.9753284,49.7737801],[10.973923,49.7731093],[10.9718995,49.7741238],[10.9706531,49.7721812],[10.9691253,49.773025],[10.9680021,49.7721981],[10.9658419,49.7729925],[10.9659604,49.7707579],[10.9637728,49.7704662],[10.9621944,49.7704598],[10.9613153,49.7735154],[10.9603643,49.7735291],[10.9582789,49.7717724],[10.9563224,49.7736368],[10.9542739,49.7727821],[10.953893,49.7742392],[10.9548584,49.7744844],[10.9542422,49.7760089],[10.9517179,49.7753178],[10.9512783,49.7761443],[10.9481156,49.7761207],[10.9472788,49.7768648],[10.9458691,49.7765369],[10.9454178,49.7773271],[10.9444209,49.7771464],[10.9448505,49.7779516],[10.9411201,49.778107],[10.9394034,49.7790062],[10.9349645,49.779002],[10.9296801,49.7759424],[10.9323083,49.7724499],[10.9279507,49.7724323],[10.9279951,49.7697113],[10.9266882,49.7691004],[10.9279079,49.7683555],[10.9274301,49.7681183],[10.9277002,49.7675535],[10.9266117,49.7674851],[10.9308709,49.7676959],[10.9320956,49.76617],[10.9258436,49.763834],[10.9231146,49.7656949],[10.9211072,49.7630978],[10.9153663,49.7635445],[10.9154949,49.7655258],[10.9135835,49.7657458],[10.9131407,49.7639631]]]}}