{"type":"FeatureCollection","features":[{"type":"Feature","properties":{"name":"Oberfranken","osm_id":17592,"osm_display_name":"Oberfranken, Bayern, Deutschland","simplified":"RDP eps=0.012 deg, coords redondeadas a 3 decimales"},"geometry":{"type":"MultiPolygon","coordinates":[[[[10.44,49.845],[10.462,49.836],[10.449,49.819],[10.486,49.804],[10.47,49.786],[10.516,49.803],[10.551,49.756],[10.639,49.742],[10.654,49.721],[10.702,49.732],[10.708,49.747],[10.672,49.758],[10.715,49.788],[10.776,49.767],[10.804,49.738],[10.932,49.786],[10.917,49.777],[10.932,49.766],[10.913,49.765],[10.934,49.755],[10.921,49.738],[10.962,49.717],[10.922,49.707],[10.974,49.681],[11.013,49.685],[11.006,49.674],[11.054,49.682],[11.046,49.662],[11.062,49.654],[11.021,49.633],[11.061,49.638],[11.109,49.589],[11.18,49.587],[11.218,49.609],[11.253,49.595],[11.374,49.669],[11.397,49.626],[11.426,49.614],[11.473,49.645],[11.557,49.642],[11.564,49.686],[11.541,49.693],[11.561,49.698],[11.552,49.734],[11.587,49.729],[11.594,49.753],[11.634,49.761],[11.645,49.807],[11.698,49.802],[11.734,49.839],[11.859,49.849],[11.839,49.879],[11.855,49.892],[11.823,49.903],[11.839,49.908],[11.828,49.934],[11.812,49.933],[11.814,49.964],[12.016,49.992],[12.05,49.98],[12.071,49.995],[12.094,49.976],[12.195,49.998],[12.198,50.033],[12.241,50.035],[12.275,50.076],[12.201,50.109],[12.195,50.143],[12.216,50.168],[12.197,50.199],[12.16,50.211],[12.151,50.236],[12.091,50.252],[12.139,50.276],[12.126,50.307],[12.091,50.333],[12.049,50.324],[11.973,50.352],[11.984,50.39],[11.949,50.395],[11.935,50.424],[11.825,50.39],[11.825,50.404],[11.78,50.419],[11.625,50.387],[11.573,50.4],[11.519,50.374],[11.518,50.396],[11.478,50.401],[11.482,50.432],[11.444,50.421],[11.451,50.431],[11.42,50.445],[11.419,50.493],[11.441,50.5],[11.428,50.514],[11.347,50.521],[11.292,50.475],[11.247,50.478],[11.246,50.449],[11.268,50.435],[11.258,50.4],[11.284,50.361],[11.262,50.352],[11.277,50.336],[11.261,50.338],[11.27,50.307],[11.251,50.299],[11.252,50.267],[11.198,50.292],[11.188,50.269],[11.145,50.285],[11.131,50.309],[11.16,50.33],[11.139,50.354],[11.116,50.35],[11.114,50.367],[11.043,50.345],[10.993,50.365],[10.986,50.347],[10.937,50.392],[10.893,50.38],[10.873,50.397],[10.786,50.385],[10.755,50.358],[10.715,50.364],[10.729,50.345],[10.716,50.321],[10.847,50.276],[10.836,50.239],[10.726,50.241],[10.78,50.194],[10.777,50.149],[10.842,50.144],[10.852,50.158],[10.88,50.144],[10.862,50.125],[10.859,50.073],[10.837,50.073],[10.836,50.045],[10.783,50.046],[10.75,50.02],[10.765,50.0],[10.741,49.992],[10.761,49.968],[10.721,49.956],[10.742,49.948],[10.694,49.916],[10.706,49.905],[10.685,49.883],[10.657,49.89],[10.605,49.855],[10.607,49.876],[10.588,49.859],[10.557,49.882],[10.459,49.879],[10.44,49.845]]]]}},{"type":"Feature","properties":{"name":"Mittelfranken","osm_id":17614,"osm_display_name":"Mittelfranken, Bayern, Deutschland","simplified":"RDP eps=0.012 deg, coords redondeadas a 3 decimales"},"geometry":{"type":"Polygon","coordinates":[[[10.07,49.592],[10.092,49.534],[10.08,49.513],[10.121,49.511],[10.1,49.491],[10.122,49.464],[10.095,49.448],[10.133,49.438],[10.152,49.412],[10.139,49.403],[10.162,49.395],[10.107,49.379],[10.125,49.356],[10.107,49.353],[10.107,49.332],[10.14,49.327],[10.132,49.3],[10.157,49.281],[10.109,49.258],[10.133,49.253],[10.12,49.247],[10.141,49.209],[10.125,49.199],[10.181,49.183],[10.197,49.156],[10.248,49.149],[10.257,49.129],[10.204,49.097],[10.25,49.092],[10.234,49.076],[10.266,49.062],[10.25,49.04],[10.35,49.028],[10.354,49.005],[10.411,48.977],[10.433,48.984],[10.424,49.004],[10.541,49.006],[10.553,49.033],[10.595,49.035],[10.61,49.015],[10.642,49.016],[10.63,48.992],[10.692,48.96],[10.701,48.939],[10.671,48.924],[10.675,48.911],[10.723,48.901],[10.735,48.924],[10.776,48.916],[10.818,48.949],[10.833,48.913],[10.815,48.901],[10.963,48.858],[10.974,48.879],[11.032,48.887],[11.045,48.901],[11.033,48.909],[11.072,48.911],[11.051,48.932],[11.07,48.954],[11.142,48.965],[11.143,48.991],[11.186,49.014],[11.202,49.047],[11.255,49.053],[11.267,49.011],[11.327,48.998],[11.346,49.02],[11.414,49.035],[11.401,49.054],[11.426,49.055],[11.353,49.09],[11.368,49.099],[11.355,49.117],[11.323,49.119],[11.314,49.178],[11.262,49.197],[11.263,49.211],[11.322,49.203],[11.292,49.257],[11.264,49.261],[11.292,49.267],[11.205,49.274],[11.216,49.292],[11.186,49.3],[11.25,49.308],[11.247,49.325],[11.335,49.303],[11.382,49.326],[11.39,49.342],[11.371,49.357],[11.421,49.376],[11.461,49.411],[11.445,49.415],[11.459,49.433],[11.559,49.416],[11.596,49.474],[11.567,49.504],[11.534,49.507],[11.549,49.544],[11.511,49.553],[11.576,49.579],[11.55,49.604],[11.602,49.623],[11.571,49.64],[11.565,49.686],[11.544,49.692],[11.563,49.696],[11.559,49.716],[11.561,49.698],[11.541,49.693],[11.564,49.686],[11.557,49.642],[11.473,49.645],[11.426,49.614],[11.397,49.626],[11.374,49.669],[11.253,49.595],[11.218,49.609],[11.18,49.587],[11.109,49.589],[11.061,49.638],[11.021,49.633],[11.062,49.654],[11.046,49.662],[11.054,49.682],[11.006,49.674],[11.013,49.685],[10.974,49.681],[10.922,49.707],[10.962,49.717],[10.921,49.738],[10.934,49.755],[10.913,49.765],[10.932,49.766],[10.917,49.777],[10.932,49.786],[10.804,49.738],[10.721,49.788],[10.672,49.759],[10.708,49.747],[10.671,49.722],[10.547,49.757],[10.436,49.75],[10.418,49.731],[10.412,49.743],[10.333,49.698],[10.387,49.691],[10.358,49.678],[10.388,49.634],[10.283,49.619],[10.212,49.631],[10.172,49.588],[10.11,49.621],[10.07,49.592]]]}},{"type":"Feature","properties":{"name":"Unterfranken","osm_id":17585,"osm_display_name":"Unterfranken, Deutschland","simplified":"RDP eps=0.012 deg, coords redondeadas a 3 decimales"},"geometry":{"type":"MultiPolygon","coordinates":[[[[8.976,50.051],[9.03,50.041],[9.051,49.995],[9.014,49.991],[9.023,49.91],[9.051,49.867],[9.033,49.867],[9.038,49.843],[9.065,49.832],[9.085,49.848],[9.091,49.791],[9.132,49.794],[9.107,49.759],[9.151,49.743],[9.121,49.715],[9.128,49.7],[9.09,49.693],[9.102,49.642],[9.065,49.617],[9.103,49.577],[9.24,49.581],[9.304,49.655],[9.416,49.654],[9.397,49.672],[9.419,49.712],[9.386,49.732],[9.381,49.705],[9.358,49.704],[9.344,49.719],[9.374,49.728],[9.296,49.739],[9.323,49.744],[9.316,49.768],[9.391,49.77],[9.424,49.79],[9.459,49.77],[9.501,49.789],[9.516,49.763],[9.545,49.767],[9.564,49.744],[9.561,49.78],[9.649,49.791],[9.647,49.739],[9.626,49.732],[9.642,49.723],[9.632,49.693],[9.676,49.693],[9.677,49.716],[9.71,49.727],[9.739,49.688],[9.8,49.731],[9.841,49.684],[9.823,49.672],[9.83,49.651],[9.873,49.61],[9.81,49.557],[9.859,49.546],[9.875,49.579],[9.912,49.586],[9.898,49.563],[9.927,49.551],[9.914,49.493],[9.975,49.481],[10.02,49.485],[10.057,49.517],[10.04,49.529],[10.084,49.544],[10.07,49.592],[10.102,49.62],[10.172,49.588],[10.212,49.631],[10.283,49.619],[10.388,49.634],[10.358,49.678],[10.387,49.691],[10.339,49.704],[10.436,49.75],[10.491,49.743],[10.555,49.764],[10.516,49.803],[10.467,49.788],[10.486,49.803],[10.448,49.819],[10.453,49.872],[10.557,49.882],[10.588,49.859],[10.608,49.875],[10.605,49.855],[10.657,49.89],[10.685,49.883],[10.706,49.905],[10.694,49.916],[10.742,49.948],[10.721,49.956],[10.761,49.968],[10.741,49.992],[10.765,50.0],[10.75,50.019],[10.783,50.046],[10.836,50.045],[10.832,50.065],[10.859,50.073],[10.862,50.125],[10.881,50.143],[10.852,50.158],[10.842,50.144],[10.777,50.149],[10.78,50.194],[10.746,50.228],[10.729,50.23],[10.719,50.204],[10.66,50.231],[10.612,50.224],[10.597,50.246],[10.612,50.25],[10.607,50.272],[10.591,50.272],[10.601,50.334],[10.558,50.339],[10.545,50.364],[10.492,50.354],[10.491,50.375],[10.464,50.376],[10.45,50.403],[10.395,50.393],[10.384,50.409],[10.404,50.425],[10.371,50.432],[10.381,50.439],[10.336,50.466],[10.331,50.494],[10.23,50.511],[10.204,50.555],[10.137,50.543],[10.116,50.565],[10.04,50.516],[10.034,50.481],[9.958,50.423],[9.86,50.398],[9.76,50.425],[9.733,50.356],[9.747,50.313],[9.649,50.266],[9.638,50.251],[9.664,50.234],[9.583,50.221],[9.501,50.243],[9.516,50.195],[9.498,50.176],[9.531,50.161],[9.507,50.145],[9.513,50.094],[9.413,50.083],[9.376,50.131],[9.221,50.149],[9.183,50.138],[9.19,50.126],[9.149,50.09],[9.154,50.118],[9.119,50.127],[9.018,50.112],[8.976,50.051]]]]}}]}