{"type": "Feature", "properties": {"name": "Fürth", "source": "OpenStreetMap / Nominatim", "osm_display_name": "Fürth, Bayern, Deutschland", "osm_id": 62374, "osm_type": "relation"}, "geometry": {"type": "Polygon", "coordinates": [[[10.8931571, 49.4953683], [10.8932081, 49.4953477], [10.8933235, 49.4953012], [10.8933554, 49.494943], [10.89343, 49.4948809], [10.8934786, 49.4946086], [10.8935687, 49.4941024], [10.894041, 49.4941251], [10.8940439, 49.4938527], [10.8939686, 49.493283], [10.8939575, 49.4931625], [10.8940918, 49.4932152], [10.8943393, 49.493327], [10.8946137, 49.4934559], [10.8946733, 49.4934788], [10.8951151, 49.4936484], [10.8958439, 49.4938328], [10.8959969, 49.4938325], [10.8960128, 49.4935292], [10.8960941, 49.4931968], [10.8961506, 49.4930228], [10.896172, 49.492904], [10.8961838, 49.4927882], [10.8961683, 49.4926617], [10.8959704, 49.492347], [10.8959426, 49.4922019], [10.895954, 49.4921026], [10.895978, 49.4920196], [10.8960582, 49.4919563], [10.8961114, 49.4918984], [10.8962191, 49.491809], [10.8963054, 49.4917483], [10.896387, 49.4916315], [10.8964579, 49.4915426], [10.8965969, 49.4914121], [10.896888, 49.4913765], [10.8971573, 49.4912058], [10.8970481, 49.4909515], [10.8970548, 49.490914], [10.897079, 49.4908827], [10.8971795, 49.4908313], [10.897574, 49.4908333], [10.8980834, 49.4907703], [10.8982613, 49.490687], [10.8992888, 49.4901362], [10.8992873, 49.4895551], [10.8992189, 49.4889523], [10.8998424, 49.4886921], [10.9004753, 49.48845], [10.9008255, 49.4882898], [10.9009414, 49.4882963], [10.9012111, 49.4883166], [10.9016387, 49.488318], [10.9019824, 49.48831], [10.9019797, 49.4881764], [10.9019753, 49.4879704], [10.9020353, 49.4871225], [10.9019712, 49.4861639], [10.90207, 49.4852979], [10.9020378, 49.4852748], [10.9016119, 49.4852522], [10.9011533, 49.4850741], [10.9011085, 49.4850549], [10.9010774, 49.4849761], [10.9025242, 49.4849315], [10.9025909, 49.4848932], [10.9025781, 49.484804], [10.9025599, 49.4847103], [10.902017, 49.4846637], [10.9015194, 49.4846989], [10.9009263, 49.4846304], [10.9008056, 49.4843596], [10.9004492, 49.4842724], [10.9008353, 49.4833066], [10.9009655, 49.4830993], [10.9013469, 49.4826888], [10.9015046, 49.482424], [10.9015887, 49.482163], [10.9018094, 49.4806872], [10.9019341, 49.4804779], [10.9021628, 49.4802791], [10.9023537, 49.4801134], [10.9024686, 49.4798188], [10.902684, 49.4792675], [10.9027154, 49.4791872], [10.9028042, 49.4790036], [10.9028239, 49.4789628], [10.9028431, 49.4789205], [10.9029694, 49.4786386], [10.9033967, 49.4776867], [10.9032464, 49.4775189], [10.9031913, 49.4774383], [10.9035845, 49.4767323], [10.9037056, 49.4765759], [10.9042084, 49.4766365], [10.9049641, 49.4767209], [10.9056186, 49.4767701], [10.9067825, 49.4768449], [10.9070653, 49.4768631], [10.9069117, 49.4766621], [10.9068481, 49.4765687], [10.9074124, 49.4756691], [10.9074703, 49.4755767], [10.907663, 49.4757069], [10.9092146, 49.4749708], [10.9094505, 49.4748561], [10.9099639, 49.4746019], [10.9108368, 49.4741966], [10.9109649, 49.4741391], [10.9114476, 49.4739223], [10.9116019, 49.4738607], [10.9117901, 49.4737411], [10.912178, 49.473487], [10.911587, 49.4733542], [10.9116004, 49.4732529], [10.9116268, 49.4729774], [10.9116446, 49.4727915], [10.9116476, 49.4727592], [10.9116695, 49.4727173], [10.9124196, 49.4712888], [10.9125019, 49.4711265], [10.9119932, 49.4707373], [10.9118508, 49.4706279], [10.9117706, 49.470565], [10.9117191, 49.4705062], [10.9116803, 49.4704368], [10.9116532, 49.4703696], [10.9116438, 49.4702672], [10.9114202, 49.4702562], [10.911315, 49.4702511], [10.911286, 49.4701471], [10.9110578, 49.4695064], [10.9110507, 49.4694033], [10.9109321, 49.4692075], [10.9106049, 49.4688997], [10.9103683, 49.4687199], [10.9103251, 49.4686869], [10.909995, 49.4685145], [10.9097001, 49.4684211], [10.9096615, 49.4684117], [10.9095076, 49.4682666], [10.9094657, 49.4681661], [10.9089701, 49.4680897], [10.9085566, 49.4679903], [10.9076993, 49.4674255], [10.9075263, 49.4673205], [10.9072357, 49.4670196], [10.9080414, 49.466591], [10.908059, 49.4664685], [10.9081211, 49.466036], [10.9080569, 49.4654791], [10.9080828, 49.4654108], [10.9081633, 49.465348], [10.9083116, 49.4652481], [10.9093774, 49.4647158], [10.9094925, 49.4646537], [10.9097026, 49.4645457], [10.9098482, 49.4644638], [10.9101842, 49.4640077], [10.9102037, 49.4639932], [10.9108235, 49.4636641], [10.9109301, 49.4635679], [10.9111345, 49.4632142], [10.9111685, 49.4631554], [10.9111808, 49.4630972], [10.9112155, 49.4628916], [10.9112317, 49.4628008], [10.911221, 49.4627016], [10.9115101, 49.4626808], [10.9126529, 49.462607], [10.912714, 49.4626032], [10.913233, 49.4625784], [10.913465, 49.4625754], [10.913598, 49.4625916], [10.9138846, 49.4626264], [10.9139917, 49.4626462], [10.9147875, 49.4627938], [10.9151156, 49.4628458], [10.9153216, 49.4628783], [10.9165589, 49.4631431], [10.9168732, 49.4632341], [10.9169086, 49.4632398], [10.9171983, 49.4633316], [10.9172467, 49.4633518], [10.9173739, 49.463405], [10.9175976, 49.4634843], [10.9180416, 49.4636833], [10.9181483, 49.4637363], [10.9183672, 49.4635812], [10.9187713, 49.4633536], [10.9191212, 49.4632773], [10.9192634, 49.4632462], [10.919699, 49.4631907], [10.9197157, 49.4631903], [10.9209508, 49.4629975], [10.9219038, 49.4628487], [10.9222069, 49.4627838], [10.9236329, 49.4624022], [10.9238079, 49.4623291], [10.9239181, 49.4622718], [10.9240306, 49.4622313], [10.924225, 49.4621349], [10.9244864, 49.4620223], [10.9245026, 49.4620171], [10.9245359, 49.4620008], [10.9245478, 49.4619921], [10.9249396, 49.4617752], [10.9252424, 49.4615968], [10.9254162, 49.4614379], [10.9257963, 49.461257], [10.9264655, 49.4609808], [10.9268067, 49.4608694], [10.9271878, 49.4607099], [10.9273207, 49.4606745], [10.9277494, 49.4605602], [10.9282703, 49.4604064], [10.9285553, 49.4603304], [10.9291846, 49.4601245], [10.9293441, 49.4598875], [10.9293557, 49.4598702], [10.9294415, 49.4597427], [10.9304665, 49.459401], [10.9330031, 49.4585542], [10.9333904, 49.4585787], [10.9358242, 49.4587328], [10.9363401, 49.4587583], [10.9366458, 49.4587736], [10.9372249, 49.4588024], [10.9372684, 49.4587987], [10.9376227, 49.4588145], [10.9385138, 49.4588543], [10.9394125, 49.4588748], [10.9402475, 49.4589042], [10.9414163, 49.4589926], [10.9418653, 49.4590194], [10.9419305, 49.4590284], [10.9426837, 49.4591327], [10.9435245, 49.4592084], [10.9436366, 49.4592185], [10.9449037, 49.4594017], [10.9456399, 49.4595153], [10.9462558, 49.4596099], [10.9466923, 49.4596446], [10.9468115, 49.4582668], [10.9468649, 49.4581665], [10.9480063, 49.4581939], [10.9495118, 49.4581147], [10.9500417, 49.4580976], [10.9501459, 49.4580943], [10.9503809, 49.458087], [10.9506613, 49.4580424], [10.9509594, 49.4580029], [10.9514823, 49.4579336], [10.952051, 49.4579231], [10.9522043, 49.4579263], [10.9528453, 49.4579397], [10.9531683, 49.4579238], [10.9533741, 49.4579904], [10.9535893, 49.4580447], [10.9536788, 49.4579772], [10.9539861, 49.4577457], [10.9540638, 49.4576873], [10.9541855, 49.4575847], [10.9544291, 49.4576115], [10.9559224, 49.4577873], [10.9563987, 49.4578421], [10.9566537, 49.4578948], [10.9569972, 49.4579314], [10.9571536, 49.4579298], [10.9571798, 49.4579291], [10.9573068, 49.4579477], [10.9572383, 49.4584556], [10.9576585, 49.4585076], [10.9584422, 49.4585718], [10.9585909, 49.4585874], [10.958844, 49.4581563], [10.9589976, 49.4579745], [10.9591622, 49.4577391], [10.9596317, 49.4577739], [10.9596496, 49.4577768], [10.9598938, 49.457835], [10.9605699, 49.4580515], [10.9609433, 49.4581631], [10.9612511, 49.4582187], [10.9614998, 49.4582521], [10.962233, 49.4582587], [10.9624119, 49.4582496], [10.9630909, 49.4582605], [10.9631679, 49.4582583], [10.9632256, 49.4581662], [10.9633944, 49.4579536], [10.9634415, 49.4579055], [10.9635161, 49.4578607], [10.9635904, 49.4578235], [10.9638132, 49.4577487], [10.9638634, 49.4577313], [10.9640384, 49.4576883], [10.9643541, 49.457626], [10.9645722, 49.4575896], [10.9651669, 49.4574886], [10.9651952, 49.4574838], [10.9652885, 49.4574512], [10.9653923, 49.4574017], [10.9654951, 49.4573359], [10.9656828, 49.4571992], [10.9659163, 49.4570227], [10.9660523, 49.4569353], [10.9660741, 49.4569911], [10.9684495, 49.4567237], [10.9713294, 49.4565587], [10.9714694, 49.4560864], [10.9716028, 49.4560935], [10.9722098, 49.4545466], [10.9721072, 49.4545332], [10.9721871, 49.4540341], [10.9716976, 49.4536066], [10.9708099, 49.4529509], [10.9709667, 49.4528565], [10.9706645, 49.4526177], [10.9709482, 49.4524722], [10.9706208, 49.4522279], [10.9705111, 49.4520349], [10.9709096, 49.4518467], [10.9709001, 49.4518322], [10.9710355, 49.4517755], [10.9710483, 49.4517888], [10.9713739, 49.4517044], [10.9716482, 49.4516532], [10.9718723, 49.4516249], [10.9730941, 49.4515358], [10.97331, 49.4515157], [10.9737875, 49.4514381], [10.9747832, 49.4513147], [10.9749207, 49.4513047], [10.9750888, 49.4512958], [10.9757376, 49.4513934], [10.9759399, 49.4514346], [10.9761524, 49.4531169], [10.9761577, 49.4531652], [10.9767443, 49.4531089], [10.9776323, 49.4530654], [10.9778722, 49.4530631], [10.9778171, 49.4531513], [10.9777515, 49.4532434], [10.9786547, 49.4532277], [10.9789283, 49.4532195], [10.9793125, 49.4532432], [10.9794762, 49.4532617], [10.9796431, 49.4532639], [10.9798663, 49.4532617], [10.9800992, 49.4532416], [10.9803808, 49.4532192], [10.9805225, 49.4531989], [10.9804718, 49.4527453], [10.9804266, 49.4526075], [10.9805974, 49.4526447], [10.9807581, 49.4526798], [10.9807684, 49.4526821], [10.9808397, 49.4527161], [10.9809782, 49.4528113], [10.981271, 49.4530713], [10.9813287, 49.4530606], [10.9814813, 49.4530327], [10.9813187, 49.4528192], [10.9809554, 49.4522271], [10.9807123, 49.4517903], [10.9806233, 49.4515693], [10.980601, 49.4514286], [10.9806633, 49.4513458], [10.980941, 49.4512574], [10.9816439, 49.4509973], [10.9818353, 49.4508893], [10.9819663, 49.4507981], [10.9820544, 49.4507008], [10.9821004, 49.4505688], [10.982103, 49.4504221], [10.9820038, 49.4502685], [10.9818724, 49.4500855], [10.9817466, 49.4499378], [10.9817051, 49.4498199], [10.9816723, 49.4496987], [10.9817272, 49.4495458], [10.9819668, 49.4491831], [10.9821293, 49.44886], [10.9823351, 49.4483171], [10.9824984, 49.4481242], [10.9826385, 49.4480506], [10.9827581, 49.4480335], [10.9829763, 49.4480616], [10.9831194, 49.4481351], [10.9835571, 49.4483784], [10.9840762, 49.4486386], [10.9842853, 49.4487537], [10.984673, 49.4489639], [10.9848388, 49.4490504], [10.9849173, 49.449084], [10.9850136, 49.4491064], [10.9852304, 49.4491323], [10.9853434, 49.4491108], [10.9854838, 49.4490035], [10.9855091, 49.4489572], [10.9855597, 49.4487347], [10.9854807, 49.4485777], [10.9854213, 49.4484342], [10.9854134, 49.4483377], [10.9854407, 49.4481899], [10.9855918, 49.4479108], [10.9857864, 49.4476429], [10.9858924, 49.4475063], [10.9859545, 49.4473979], [10.9859471, 49.4472389], [10.9859304, 49.4471424], [10.9858703, 49.4470064], [10.9856882, 49.4467855], [10.9851925, 49.4462713], [10.9849331, 49.4460617], [10.9848439, 49.445982], [10.9846551, 49.445813], [10.9845775, 49.4456885], [10.9845087, 49.4455525], [10.9845211, 49.4454081], [10.9846051, 49.4451827], [10.9849331, 49.4451967], [10.9850016, 49.4451997], [10.9851144, 49.4452045], [10.9852614, 49.4450621], [10.9854574, 49.4449753], [10.9854643, 49.4449722], [10.9855987, 49.4449507], [10.9859554, 49.4448392], [10.9859762, 49.4448281], [10.9863994, 49.4445169], [10.98652, 49.4444151], [10.9868535, 49.4441281], [10.9869876, 49.4439708], [10.9869975, 49.44395], [10.9870729, 49.4433454], [10.9870711, 49.4431037], [10.9869316, 49.4426078], [10.9869068, 49.442213], [10.986744, 49.4419165], [10.9866624, 49.4417157], [10.9866508, 49.4415735], [10.9866835, 49.4414642], [10.9870101, 49.4411695], [10.9873004, 49.4406339], [10.9876729, 49.4402156], [10.9880011, 49.4399736], [10.9886415, 49.4396051], [10.9888945, 49.4394249], [10.9892909, 49.4390866], [10.9893858, 49.438932], [10.9894392, 49.4386877], [10.9894507, 49.4384298], [10.9895989, 49.4377647], [10.9897879, 49.4373729], [10.9899364, 49.4371673], [10.9901304, 49.4369603], [10.9905045, 49.4367641], [10.9907607, 49.4366009], [10.9909616, 49.4364395], [10.9911835, 49.4362182], [10.9911407, 49.4361501], [10.991267, 49.4359893], [10.9914402, 49.4360544], [10.9919662, 49.4362521], [10.9928566, 49.4368413], [10.9927982, 49.4368497], [10.9932763, 49.4371459], [10.9935904, 49.4373594], [10.9939047, 49.4375115], [10.9939264, 49.4375386], [10.9937563, 49.4377723], [10.9941083, 49.4378733], [10.9942232, 49.4376945], [10.9955497, 49.4379802], [10.9955649, 49.4379549], [10.9957325, 49.4379764], [10.9957259, 49.4380098], [10.9968331, 49.4381343], [10.9978642, 49.4383277], [10.9974152, 49.4389901], [10.9973372, 49.4391052], [10.9972933, 49.4391699], [10.9967244, 49.4399598], [10.9965632, 49.4403033], [10.9964434, 49.4409117], [10.9964803, 49.4414894], [10.9965849, 49.4418312], [10.9965775, 49.4418721], [10.9970361, 49.4418013], [10.9975573, 49.4418746], [10.9986772, 49.4420714], [10.9993128, 49.4421235], [10.9992773, 49.4422236], [10.9986772, 49.4437476], [10.9983893, 49.4444901], [10.9981627, 49.445167], [10.9978236, 49.4458418], [10.9974101, 49.4464956], [10.9968648, 49.4470539], [10.9962772, 49.4475502], [10.9957625, 49.4479334], [10.9945944, 49.4487204], [10.9951697, 49.4491807], [10.9957758, 49.4497045], [10.9959527, 49.4498462], [10.9961191, 49.4497439], [10.9966478, 49.4494766], [10.9973899, 49.4490257], [10.9977851, 49.448739], [10.997852, 49.4487024], [10.9982811, 49.4484676], [10.9984329, 49.4484196], [10.9985843, 49.4484001], [10.9986769, 49.4484057], [10.9987143, 49.4484118], [10.9987992, 49.4484223], [10.998912, 49.4484488], [10.9989964, 49.4484743], [10.9996074, 49.4486227], [10.9999046, 49.448736], [11.0006158, 49.449049], [11.0011676, 49.4493447], [11.0013558, 49.4494628], [11.0017406, 49.4497095], [11.0024664, 49.4501906], [11.0028429, 49.4504181], [11.0030625, 49.4505833], [11.003243, 49.4507191], [11.0040918, 49.4512694], [11.0045384, 49.4515589], [11.0046613, 49.4516376], [11.0047029, 49.4516641], [11.0056515, 49.4522706], [11.0060237, 49.4525087], [11.006876, 49.4530333], [11.0076602, 49.4535349], [11.00833, 49.453975], [11.0085023, 49.4541297], [11.0088517, 49.454487], [11.0089805, 49.4545416], [11.0090007, 49.4546635], [11.0090625, 49.4549611], [11.0091681, 49.4555007], [11.0091938, 49.4556293], [11.0092408, 49.4559163], [11.0092695, 49.4561776], [11.0094628, 49.4565916], [11.0094864, 49.4567184], [11.0094624, 49.4567784], [11.0092132, 49.4570444], [11.0093216, 49.4570895], [11.0094268, 49.4571333], [11.0095068, 49.4570914], [11.0096139, 49.4570839], [11.0097286, 49.4571232], [11.0098163, 49.4571769], [11.0099318, 49.4572852], [11.0101826, 49.4577201], [11.0103074, 49.4581862], [11.010494, 49.4587662], [11.0105334, 49.4589095], [11.0106179, 49.4592617], [11.0107023, 49.4596564], [11.0107547, 49.4599859], [11.0107584, 49.4603762], [11.0107399, 49.4609842], [11.0107278, 49.4612529], [11.0107153, 49.4614609], [11.0107649, 49.4619064], [11.0107386, 49.4619263], [11.0108133, 49.4625973], [11.010862, 49.4629348], [11.0108858, 49.4630287], [11.0109766, 49.4633795], [11.0112353, 49.4640588], [11.0113226, 49.4642767], [11.011308, 49.4643123], [11.0112656, 49.4643372], [11.0111567, 49.46437], [11.0110631, 49.4643911], [11.0111648, 49.4645508], [11.0112715, 49.4645671], [11.0113645, 49.4645979], [11.0114466, 49.4646453], [11.0115039, 49.4647049], [11.0113766, 49.4647491], [11.0114776, 49.4648634], [11.0115501, 49.4649371], [11.0116429, 49.4650389], [11.0117481, 49.46501], [11.0119116, 49.4652141], [11.0125252, 49.4657742], [11.0128575, 49.4656445], [11.0127751, 49.4654614], [11.0137309, 49.4650971], [11.0137454, 49.4651143], [11.0137966, 49.4650962], [11.0138047, 49.4651067], [11.0139039, 49.4650683], [11.0139388, 49.4650649], [11.0147515, 49.4647685], [11.0147408, 49.4647389], [11.0147023, 49.464735], [11.0149446, 49.4646486], [11.0149753, 49.4647153], [11.0149898, 49.4648047], [11.0155087, 49.4670482], [11.0152191, 49.4673753], [11.0154909, 49.4675292], [11.0156225, 49.4676606], [11.0157106, 49.4678508], [11.0158812, 49.4686226], [11.0157659, 49.4688283], [11.015971, 49.4688856], [11.0159908, 49.469136], [11.0163401, 49.4691016], [11.0165279, 49.4690831], [11.0166159, 49.4691994], [11.0166429, 49.4692112], [11.0166887, 49.4692745], [11.0167616, 49.4693753], [11.0168327, 49.4694732], [11.0168984, 49.4698389], [11.0169321, 49.4700948], [11.0169612, 49.4703155], [11.0170022, 49.4708443], [11.0167802, 49.4712561], [11.0166723, 49.471463], [11.0166619, 49.4714836], [11.0165985, 49.471609], [11.0165101, 49.4717371], [11.0163724, 49.4719722], [11.0157868, 49.4726799], [11.0166622, 49.473099], [11.0170233, 49.4728014], [11.0171346, 49.4727857], [11.0174274, 49.4725766], [11.0176939, 49.47273], [11.0178904, 49.4727053], [11.0182993, 49.4729452], [11.0191729, 49.4723698], [11.0198839, 49.4720005], [11.0199883, 49.4720918], [11.0210593, 49.4715849], [11.0213646, 49.4718667], [11.0213817, 49.4718677], [11.0214885, 49.471828], [11.0216232, 49.4719793], [11.0217471, 49.4719307], [11.021781, 49.4719341], [11.022059, 49.4722917], [11.0224038, 49.472201], [11.0223912, 49.4721791], [11.0226195, 49.4719114], [11.0229143, 49.4717793], [11.023274, 49.4717615], [11.024375, 49.471459], [11.0246133, 49.4714249], [11.0246428, 49.4714916], [11.0247293, 49.4714981], [11.0248296, 49.4714813], [11.0248323, 49.4715094], [11.0249221, 49.4715265], [11.0258, 49.472847], [11.0257699, 49.4729137], [11.0256302, 49.4729456], [11.0258869, 49.4736992], [11.0264191, 49.4751012], [11.0266812, 49.4757737], [11.0262541, 49.4759677], [11.0262979, 49.4760094], [11.0263547, 49.4760697], [11.0264424, 49.4760347], [11.0263999, 49.4760852], [11.0263997, 49.4765347], [11.026426, 49.4768654], [11.0264357, 49.4771292], [11.0263982, 49.4775142], [11.0263041, 49.4777434], [11.0262217, 49.4780317], [11.0261757, 49.4784336], [11.0261093, 49.4793304], [11.0260588, 49.4799318], [11.0259767, 49.4812369], [11.0256431, 49.4811735], [11.0256004, 49.4812897], [11.0255664, 49.4813823], [11.0255545, 49.4814085], [11.0241862, 49.4812114], [11.0231898, 49.4810195], [11.023137, 49.4810572], [11.0231995, 49.4819823], [11.0232373, 49.4824318], [11.0232566, 49.4829949], [11.0232606, 49.4830282], [11.0231994, 49.4838545], [11.0231608, 49.4844972], [11.0231589, 49.4846261], [11.0231565, 49.4846433], [11.0206062, 49.4844912], [11.0205625, 49.4844456], [11.0203443, 49.487389], [11.0204262, 49.4874385], [11.0196967, 49.4873314], [11.019671, 49.4873908], [11.0196429, 49.4874453], [11.0182378, 49.487158], [11.0161604, 49.4902285], [11.0160227, 49.4904783], [11.016562, 49.4912921], [11.0170504, 49.492079], [11.0141956, 49.4925182], [11.0141814, 49.4925668], [11.0144726, 49.4928748], [11.0147255, 49.4932342], [11.0149247, 49.493478], [11.0151738, 49.4938004], [11.0153316, 49.4939764], [11.0155082, 49.4941673], [11.0156538, 49.4943033], [11.0158734, 49.4944752], [11.0160233, 49.4945753], [11.0158787, 49.4946432], [11.0162756, 49.4948667], [11.0168885, 49.4952192], [11.0173264, 49.4954527], [11.0175339, 49.4955754], [11.0177725, 49.4957286], [11.0180408, 49.4959395], [11.0183835, 49.4962578], [11.0186945, 49.4965255], [11.0188173, 49.4966125], [11.0192258, 49.4968567], [11.0196588, 49.497069], [11.0199809, 49.4972567], [11.020203, 49.4974174], [11.0204334, 49.4976139], [11.0206048, 49.4977958], [11.0207996, 49.4980064], [11.0208565, 49.4980593], [11.0209328, 49.4981591], [11.0210376, 49.4981089], [11.0211843, 49.4982368], [11.0214293, 49.498393], [11.0216321, 49.4984756], [11.0221379, 49.4985703], [11.0227258, 49.4986156], [11.0235443, 49.4986951], [11.0235294, 49.5000621], [11.0235728, 49.5001074], [11.0235457, 49.5015475], [11.0238337, 49.5015469], [11.0238078, 49.5029704], [11.0233408, 49.5029728], [11.0233139, 49.5047023], [11.0232959, 49.5049383], [11.0242725, 49.5049891], [11.0250901, 49.5050436], [11.0250892, 49.5050671], [11.0250887, 49.5050819], [11.0249801, 49.5050802], [11.025014, 49.5051129], [11.0250139, 49.5060274], [11.0249858, 49.5073884], [11.0255675, 49.5073525], [11.0269682, 49.5072748], [11.0282189, 49.507132], [11.0286601, 49.5087419], [11.0286142, 49.5087691], [11.0261775, 49.5094231], [11.0260692, 49.5094608], [11.02623, 49.5099883], [11.0261749, 49.5100448], [11.0252635, 49.5100599], [11.025203, 49.5100131], [11.024877, 49.5088444], [11.0248202, 49.5086274], [11.0229776, 49.5086806], [11.0215713, 49.5087036], [11.0215316, 49.5087545], [11.0214413, 49.5087557], [11.0214496, 49.5090825], [11.0214531, 49.5092213], [11.0213785, 49.509155], [11.0171564, 49.5092735], [11.0171506, 49.5092278], [11.0170772, 49.509231], [11.0168436, 49.5074446], [11.0167712, 49.507415], [11.0140058, 49.5075508], [11.0139696, 49.5075717], [11.0140635, 49.5082597], [11.0139965, 49.5082667], [11.0139924, 49.5082362], [11.013971, 49.5082179], [11.0096108, 49.5083587], [11.0095123, 49.5084263], [11.0094989, 49.5085376], [11.0093137, 49.5092866], [11.0091705, 49.5092719], [11.0083469, 49.5091654], [11.0082447, 49.5094345], [11.0074107, 49.5093118], [11.0074366, 49.5098204], [11.0074676, 49.5100566], [11.0069278, 49.5100885], [11.0059156, 49.5101899], [11.0061171, 49.5106323], [11.0062146, 49.510932], [11.0062435, 49.5111087], [11.0061215, 49.5111167], [11.006131, 49.5111886], [11.0061348, 49.5116865], [11.0061215, 49.5121913], [11.0060987, 49.5122471], [11.0060085, 49.512321], [11.004797, 49.5126047], [11.0042533, 49.5127188], [11.0039686, 49.5127638], [11.003673, 49.5127946], [11.0027409, 49.5128533], [11.0020917, 49.512944], [11.0016891, 49.5130393], [11.0009749, 49.5132533], [10.9998742, 49.5134473], [10.9999047, 49.5134729], [10.9999505, 49.5135114], [10.9995213, 49.5135746], [10.9994113, 49.5145774], [10.9987543, 49.514779], [10.9986758, 49.5150248], [10.9985087, 49.5154545], [10.9983792, 49.5157878], [10.9983657, 49.5158227], [10.9982186, 49.5162021], [10.9981856, 49.5162873], [10.9989654, 49.5164077], [10.9993441, 49.5165413], [10.9992085, 49.5175936], [10.9990954, 49.5175871], [10.9989117, 49.5189328], [10.998956, 49.5189819], [10.998854, 49.5201346], [10.9987925, 49.5206494], [10.9990719, 49.5206781], [10.9992268, 49.5207069], [10.9995403, 49.5207755], [11.000195, 49.5209426], [11.0006426, 49.5210894], [11.0007892, 49.5211349], [11.0010093, 49.5211632], [11.0019296, 49.521186], [11.0021041, 49.5211985], [11.0022293, 49.521228], [11.0024179, 49.5212858], [11.0024525, 49.5213346], [11.0024891, 49.5214239], [11.0025561, 49.5215935], [11.0027765, 49.5220913], [11.0029458, 49.5223271], [11.0030661, 49.5224262], [11.0032948, 49.522517], [11.0035242, 49.5225673], [11.0040075, 49.5226316], [11.0035388, 49.5227121], [11.0031698, 49.5229221], [11.0031214, 49.5228909], [11.0027392, 49.5230616], [11.002275, 49.5234804], [11.002252, 49.5238873], [11.0020182, 49.5239052], [11.001286, 49.5241751], [11.0005445, 49.52432], [11.0004176, 49.5243204], [10.9995198, 49.5243616], [10.9995203, 49.5242445], [10.9993408, 49.5242819], [10.9986757, 49.5243977], [10.9982476, 49.5245011], [10.9974934, 49.5246831], [10.9961239, 49.524986], [10.9960226, 49.5254678], [10.995737, 49.5257117], [10.995256, 49.525869], [10.9951007, 49.525907], [10.995387, 49.5261366], [10.9954231, 49.5261799], [10.994129, 49.5264943], [10.9944949, 49.5269739], [10.9934618, 49.5271809], [10.9931961, 49.5272313], [10.992742, 49.5268765], [10.9927542, 49.5271911], [10.9927853, 49.5279932], [10.9928421, 49.5294693], [10.9929464, 49.5294706], [10.9931, 49.5294726], [10.9931251, 49.5315845], [10.9933159, 49.5319573], [10.9933469, 49.5320176], [10.9935187, 49.532191], [10.9938887, 49.5325732], [10.9940421, 49.5327861], [10.9941126, 49.5328836], [10.9941536, 49.5332805], [10.9939544, 49.5332939], [10.9937941, 49.5333048], [10.993795, 49.533482], [10.9937993, 49.5336998], [10.9939037, 49.5340272], [10.9939216, 49.5342369], [10.9938304, 49.5346613], [10.9937201, 49.5349846], [10.9935973, 49.535255], [10.9933079, 49.5356488], [10.9929492, 49.5360091], [10.9927815, 49.5359976], [10.9926881, 49.5359912], [10.9925895, 49.5359855], [10.9918467, 49.5359426], [10.9912079, 49.535846], [10.9911264, 49.5358506], [10.9907844, 49.53587], [10.9903898, 49.5359763], [10.9903661, 49.5359847], [10.9899129, 49.5361449], [10.9894813, 49.5362149], [10.9890611, 49.5363955], [10.9887326, 49.5365366], [10.9878802, 49.5369046], [10.9877634, 49.5369393], [10.9874785, 49.5369585], [10.9873576, 49.536991], [10.9869699, 49.5372472], [10.9864828, 49.5373152], [10.9862207, 49.5374268], [10.9858824, 49.5374869], [10.9856445, 49.5377212], [10.9844222, 49.5377474], [10.9842549, 49.5377569], [10.9839078, 49.5377762], [10.9840377, 49.5383392], [10.9837468, 49.5383677], [10.9837394, 49.538368], [10.9836609, 49.5383838], [10.983479, 49.5384205], [10.9829647, 49.5385237], [10.9821334, 49.5387165], [10.981693, 49.5388462], [10.9813882, 49.5389481], [10.9812275, 49.5390019], [10.9809158, 49.5391177], [10.9808986, 49.5391274], [10.9807546, 49.5392081], [10.980733, 49.5392243], [10.9806801, 49.5392784], [10.9806228, 49.5393478], [10.9805443, 49.5394129], [10.9803013, 49.5397308], [10.980256, 49.5397769], [10.9801761, 49.539829], [10.9799521, 49.5399422], [10.979797, 49.5400107], [10.979714, 49.5400278], [10.9796203, 49.5400471], [10.9793753, 49.5400976], [10.9791932, 49.5401029], [10.979149, 49.5401043], [10.9791189, 49.5401094], [10.979091, 49.5401186], [10.9788771, 49.5402315], [10.9788368, 49.5402453], [10.9785732, 49.54026], [10.9783288, 49.5402081], [10.9781211, 49.5401903], [10.977854, 49.5401834], [10.9777656, 49.5401674], [10.9777028, 49.540134], [10.9776125, 49.540097], [10.977591, 49.5400909], [10.9774944, 49.5400752], [10.9774048, 49.5400649], [10.9772746, 49.5400569], [10.9770454, 49.5400563], [10.9769244, 49.5400536], [10.9768398, 49.5400596], [10.9768114, 49.5400656], [10.9767856, 49.540075], [10.976718, 49.5401133], [10.9766568, 49.540136], [10.9766343, 49.5401473], [10.9765922, 49.5401379], [10.9765646, 49.5401296], [10.9765313, 49.5401251], [10.976497, 49.5401257], [10.9764641, 49.5401313], [10.9764479, 49.540137], [10.9764123, 49.5401434], [10.9763837, 49.5401539], [10.9763284, 49.5401867], [10.9763123, 49.5402003], [10.9762363, 49.540297], [10.9761991, 49.5403789], [10.9761032, 49.540547], [10.9760556, 49.5405933], [10.9759528, 49.5406693], [10.9758778, 49.540712], [10.9757767, 49.5407455], [10.9757386, 49.5407804], [10.9755718, 49.5409512], [10.9754994, 49.5412028], [10.9753612, 49.5412538], [10.9749155, 49.5409094], [10.9746052, 49.5406202], [10.9742998, 49.540306], [10.9740893, 49.5399482], [10.9740836, 49.5399021], [10.9740175, 49.5393764], [10.9739518, 49.539229], [10.9734014, 49.5384702], [10.9732008, 49.5382371], [10.9728365, 49.5377363], [10.9727661, 49.5375915], [10.9727118, 49.5373201], [10.9726691, 49.5371367], [10.9723976, 49.5366712], [10.9723428, 49.5363784], [10.9719342, 49.5353642], [10.9715948, 49.5353946], [10.9714414, 49.5354096], [10.9714223, 49.5353572], [10.9710897, 49.5348594], [10.9705004, 49.5349722], [10.9697416, 49.5334731], [10.9690673, 49.5336258], [10.9673069, 49.5336379], [10.9669617, 49.5332328], [10.9660808, 49.533248], [10.9655185, 49.5332577], [10.9652365, 49.5332538], [10.9650138, 49.5332547], [10.9649872, 49.5332701], [10.9652243, 49.533491], [10.9651291, 49.5334708], [10.9633224, 49.5334914], [10.9597814, 49.5335714], [10.9595868, 49.5336966], [10.9595688, 49.5327088], [10.9594722, 49.5327345], [10.9579356, 49.533144], [10.9567848, 49.533175], [10.9562865, 49.5330793], [10.955303, 49.5331179], [10.9530182, 49.5332106], [10.9522347, 49.5333123], [10.9521131, 49.5328888], [10.9520212, 49.5328376], [10.9498219, 49.5334098], [10.9491306, 49.5335842], [10.9488617, 49.5336457], [10.94671, 49.5342043], [10.9457155, 49.5344565], [10.9453661, 49.5345643], [10.9446929, 49.5347908], [10.9446042, 49.5346777], [10.9445259, 49.5345896], [10.9440431, 49.5347414], [10.9428484, 49.5351913], [10.9410598, 49.5359386], [10.9386484, 49.5356865], [10.938676, 49.5356597], [10.9387448, 49.5351673], [10.9387004, 49.5351248], [10.935685, 49.5347861], [10.9339899, 49.5345834], [10.9340482, 49.5345386], [10.9341972, 49.5333752], [10.9341768, 49.5333435], [10.9331097, 49.533193], [10.9330715, 49.5332147], [10.9334487, 49.5304089], [10.9335141, 49.5303895], [10.9327203, 49.5303567], [10.9326006, 49.5301994], [10.9324204, 49.5299541], [10.932352, 49.5298759], [10.9321083, 49.5297325], [10.9315349, 49.5295538], [10.9314524, 49.5292058], [10.9315257, 49.529204], [10.9309595, 49.5285228], [10.9308801, 49.5276854], [10.9309208, 49.5276603], [10.9292138, 49.5276606], [10.9291867, 49.5276974], [10.9291005, 49.5266499], [10.9292024, 49.5266116], [10.9347953, 49.5266891], [10.9349224, 49.5267731], [10.9346414, 49.5234104], [10.9346242, 49.5234382], [10.92897, 49.5233359], [10.9288792, 49.5233163], [10.9287116, 49.5208152], [10.9287465, 49.5207737], [10.9329548, 49.5208512], [10.9329422, 49.520805], [10.9329924, 49.5207731], [10.9322927, 49.5177919], [10.9322315, 49.5175155], [10.9321854, 49.5171424], [10.9319508, 49.5168505], [10.9317863, 49.5165716], [10.9315985, 49.5163322], [10.9315977, 49.5162459], [10.9316379, 49.5161602], [10.9316712, 49.516054], [10.9317473, 49.5159603], [10.9318102, 49.5159372], [10.9318398, 49.5158997], [10.9315474, 49.5155896], [10.9328326, 49.5149412], [10.9327108, 49.5145798], [10.9325486, 49.5139096], [10.9325152, 49.5136609], [10.9325298, 49.5134432], [10.9325751, 49.5127681], [10.9326462, 49.512341], [10.932731, 49.5119987], [10.933012, 49.511138], [10.9331387, 49.5108359], [10.9333318, 49.5105475], [10.9334832, 49.5102417], [10.9335535, 49.5099196], [10.9335771, 49.5098076], [10.9336576, 49.5096046], [10.9333946, 49.5095408], [10.9334529, 49.5091491], [10.9335034, 49.5088983], [10.9335609, 49.5086228], [10.9336331, 49.5080496], [10.9336463, 49.507958], [10.933751, 49.5076426], [10.9340217, 49.507283], [10.9339488, 49.5071973], [10.9339457, 49.5069725], [10.9338734, 49.5068527], [10.9337043, 49.5067695], [10.9335672, 49.5067433], [10.9334122, 49.5068091], [10.9332001, 49.5069414], [10.9330931, 49.5069727], [10.932826, 49.5069184], [10.9326167, 49.5068844], [10.9325286, 49.5068583], [10.9324478, 49.5067373], [10.9324711, 49.5065927], [10.9324056, 49.5064801], [10.9324308, 49.5063839], [10.9324942, 49.5062993], [10.9326195, 49.5062851], [10.9327207, 49.5063054], [10.9327732, 49.5063303], [10.9328514, 49.5063771], [10.9329499, 49.5063826], [10.9330206, 49.506367], [10.9330711, 49.506328], [10.9330804, 49.5062707], [10.9330356, 49.5062166], [10.9329673, 49.5061863], [10.9327688, 49.5061103], [10.9326052, 49.5061117], [10.9320312, 49.5061676], [10.9314806, 49.5063186], [10.9310875, 49.5063419], [10.9310164, 49.5064289], [10.9310028, 49.5066041], [10.9309436, 49.5066146], [10.9307753, 49.5066106], [10.9306724, 49.506657], [10.9305923, 49.5067448], [10.9305264, 49.5069254], [10.9303717, 49.506945], [10.9301939, 49.5069283], [10.9298914, 49.5068788], [10.9297411, 49.5069371], [10.9296103, 49.5069413], [10.9294647, 49.5067977], [10.9294113, 49.5066073], [10.9292946, 49.5064834], [10.9289979, 49.5063407], [10.9288172, 49.5062064], [10.928674, 49.5061354], [10.9284179, 49.5060553], [10.9277788, 49.5060605], [10.9272664, 49.5060159], [10.9269861, 49.5059828], [10.9266283, 49.5059112], [10.9264371, 49.5059035], [10.9264699, 49.5059474], [10.9260968, 49.5062695], [10.9260034, 49.5064], [10.9259699, 49.5064435], [10.9258666, 49.5064655], [10.9258022, 49.506376], [10.9255746, 49.5062893], [10.9255145, 49.5062925], [10.925386, 49.5063669], [10.9250222, 49.5065722], [10.9248957, 49.5065925], [10.9246741, 49.506524], [10.9245755, 49.5065416], [10.9244866, 49.5066594], [10.9244969, 49.5067372], [10.9245363, 49.5068149], [10.924654, 49.5069862], [10.9245987, 49.5070691], [10.9244518, 49.507122], [10.9243202, 49.5071078], [10.9242014, 49.5070435], [10.924006, 49.5068964], [10.9238742, 49.506672], [10.9234728, 49.5065931], [10.9233164, 49.5066626], [10.9232457, 49.5067713], [10.9232175, 49.506997], [10.9230542, 49.5071477], [10.9225874, 49.5073073], [10.9224705, 49.5073642], [10.9221629, 49.507527], [10.9219877, 49.5075862], [10.9217116, 49.5075929], [10.9215654, 49.5076115], [10.9215412, 49.5076857], [10.9216816, 49.5079111], [10.9216603, 49.5079837], [10.9215446, 49.5080575], [10.9214762, 49.508074], [10.9213344, 49.50807], [10.9212762, 49.5080401], [10.921194, 49.5079032], [10.9211048, 49.507903], [10.9209789, 49.5079463], [10.9209033, 49.50807], [10.9208446, 49.508153], [10.9207226, 49.5081498], [10.9205633, 49.5081421], [10.9204483, 49.5081946], [10.9203691, 49.5082788], [10.9204032, 49.5084034], [10.9204901, 49.5085084], [10.9205515, 49.5086525], [10.9205223, 49.5087502], [10.9204896, 49.5087981], [10.9203775, 49.5088172], [10.9202195, 49.508753], [10.9201409, 49.5087281], [10.9199761, 49.5086913], [10.9197108, 49.5086894], [10.9194947, 49.5087267], [10.9190211, 49.5088122], [10.9187902, 49.5088079], [10.9186526, 49.5087626], [10.9186752, 49.508649], [10.9186523, 49.5085789], [10.9185432, 49.5085182], [10.9183448, 49.5084759], [10.9180663, 49.5084916], [10.9179211, 49.5084606], [10.9177932, 49.5083876], [10.9177944, 49.5083412], [10.9179486, 49.508177], [10.9178773, 49.5079726], [10.9175958, 49.5078067], [10.9173646, 49.5077547], [10.9170164, 49.5077535], [10.916653, 49.5078129], [10.9161495, 49.5077775], [10.9158559, 49.507612], [10.9155138, 49.5075475], [10.9154706, 49.5074821], [10.9156734, 49.5073273], [10.9158365, 49.5071901], [10.9158081, 49.5071305], [10.915687, 49.5070766], [10.9154896, 49.5071268], [10.9152847, 49.5072321], [10.9151332, 49.5072439], [10.9150337, 49.5072078], [10.9147971, 49.5070018], [10.9145625, 49.5069652], [10.913963, 49.5067746], [10.9135546, 49.5067475], [10.9131809, 49.5066107], [10.9120216, 49.5064014], [10.9112589, 49.5061916], [10.9102869, 49.5061991], [10.9097414, 49.506147], [10.9095894, 49.5061501], [10.9093369, 49.5061438], [10.9090107, 49.5061848], [10.9086318, 49.506344], [10.9084887, 49.5063446], [10.9081659, 49.5063163], [10.9081263, 49.5062055], [10.9079418, 49.506227], [10.9078032, 49.5057616], [10.906659, 49.5058417], [10.9066235, 49.5047142], [10.9065858, 49.5041879], [10.9065498, 49.5039529], [10.9065084, 49.5036828], [10.906469, 49.5035427], [10.9063457, 49.5031278], [10.9062111, 49.5027143], [10.9060032, 49.5022476], [10.90572, 49.5015779], [10.9053341, 49.5008748], [10.9049395, 49.5002701], [10.9043384, 49.4995124], [10.9040943, 49.4992949], [10.9039567, 49.4991981], [10.9038703, 49.4991601], [10.9037284, 49.4991234], [10.9035846, 49.4990861], [10.903236, 49.4989668], [10.9031375, 49.4990845], [10.9028843, 49.4993702], [10.902829, 49.4994325], [10.9026206, 49.49962], [10.9018955, 49.5001174], [10.9018858, 49.5001167], [10.9016761, 49.5000359], [10.9015269, 49.4999804], [10.9014457, 49.4999483], [10.9011615, 49.499864], [10.901448, 49.4994959], [10.901862, 49.4991144], [10.9021004, 49.498952], [10.9023276, 49.4987748], [10.901859, 49.4985148], [10.9017334, 49.4984311], [10.9012087, 49.4979489], [10.9009159, 49.4976205], [10.900608, 49.4973354], [10.9004245, 49.4972051], [10.9002178, 49.4970384], [10.9002861, 49.4969475], [10.9003251, 49.4965783], [10.9001107, 49.4965582], [10.9002527, 49.4956073], [10.9001639, 49.495639], [10.9000623, 49.4956516], [10.8999274, 49.4956682], [10.8998638, 49.4956761], [10.8997724, 49.4956824], [10.8995664, 49.4956916], [10.8991152, 49.495709], [10.8985601, 49.4957357], [10.8975562, 49.495784], [10.8975167, 49.4956917], [10.8962405, 49.4957496], [10.8956965, 49.4958072], [10.89522, 49.4959124], [10.8938462, 49.4962157], [10.8932806, 49.4963406], [10.8932418, 49.4958025], [10.8932329, 49.4956769], [10.8931571, 49.4953683]]]}}