{"type": "Feature", "properties": {"name": "kronach", "osm_display_name": "Kronach, Landkreis Kronach, Bayern, 96317, Deutschland", "osm_type": "relation", "osm_id": 1021756}, "geometry": {"type": "Polygon", "coordinates": [[[11.2647, 50.24196], [11.26551, 50.23821], [11.26732, 50.23627], [11.26938, 50.23556], [11.27072, 50.23415], [11.27261, 50.23429], [11.2732, 50.23452], [11.27579, 50.23424], [11.27766, 50.23422], [11.27854, 50.23403], [11.27943, 50.2334], [11.28222, 50.23213], [11.28488, 50.22988], [11.2872, 50.22854], [11.2887, 50.2281], [11.29027, 50.22801], [11.28938, 50.22597], [11.28848, 50.22548], [11.29022, 50.22522], [11.29067, 50.22493], [11.29053, 50.22446], [11.29083, 50.22442], [11.29129, 50.225], [11.29176, 50.22519], [11.2936, 50.22454], [11.29493, 50.22479], [11.29454, 50.22246], [11.29382, 50.22162], [11.29454, 50.2213], [11.29539, 50.22131], [11.29548, 50.22036], [11.29611, 50.22035], [11.29549, 50.21967], [11.29492, 50.21947], [11.29388, 50.21862], [11.29352, 50.21798], [11.29419, 50.21841], [11.29528, 50.21872], [11.29589, 50.2182], [11.29673, 50.21871], [11.29713, 50.21856], [11.29559, 50.21766], [11.29502, 50.21762], [11.29449, 50.21808], [11.29412, 50.21775], [11.29424, 50.21674], [11.29541, 50.21564], [11.29559, 50.21512], [11.29526, 50.21495], [11.29525, 50.21462], [11.29534, 50.21409], [11.2958, 50.21346], [11.2937, 50.21274], [11.29239, 50.21206], [11.29079, 50.21017], [11.2912, 50.21006], [11.29133, 50.20974], [11.291, 50.20916], [11.29103, 50.20875], [11.29045, 50.20822], [11.29084, 50.20795], [11.29168, 50.20844], [11.292, 50.20846], [11.29284, 50.20736], [11.29225, 50.20679], [11.29042, 50.20599], [11.28935, 50.2052], [11.29142, 50.20451], [11.29189, 50.20325], [11.29196, 50.20233], [11.29317, 50.20244], [11.29356, 50.20266], [11.2947, 50.20442], [11.29617, 50.20541], [11.29614, 50.20579], [11.29529, 50.20603], [11.29472, 50.20661], [11.29539, 50.20757], [11.29577, 50.20776], [11.2963, 50.20778], [11.29759, 50.2069], [11.29862, 50.20651], [11.30036, 50.20714], [11.30173, 50.20802], [11.30394, 50.20872], [11.30486, 50.20839], [11.30666, 50.20676], [11.30754, 50.20673], [11.30925, 50.20733], [11.30961, 50.20758], [11.30989, 50.20864], [11.31063, 50.2094], [11.31393, 50.21067], [11.31568, 50.21117], [11.31594, 50.21168], [11.31589, 50.21261], [11.31748, 50.21295], [11.31833, 50.21342], [11.31817, 50.21437], [11.31743, 50.21615], [11.3169, 50.21615], [11.31698, 50.21671], [11.31879, 50.21701], [11.31894, 50.21749], [11.31873, 50.21797], [11.31897, 50.21808], [11.32238, 50.21878], [11.32351, 50.21923], [11.32578, 50.21974], [11.3313, 50.21881], [11.3316, 50.21832], [11.33164, 50.21689], [11.33186, 50.21632], [11.33414, 50.21425], [11.3362, 50.21409], [11.3393, 50.21333], [11.34068, 50.21319], [11.34333, 50.21309], [11.34551, 50.21348], [11.34768, 50.21245], [11.35057, 50.21155], [11.3512, 50.21094], [11.35136, 50.21035], [11.35071, 50.2082], [11.35154, 50.20731], [11.35109, 50.206], [11.35161, 50.20524], [11.35397, 50.20479], [11.35654, 50.20399], [11.35943, 50.2037], [11.36096, 50.20386], [11.36334, 50.20255], [11.36595, 50.20201], [11.36998, 50.20198], [11.3715, 50.20246], [11.3721, 50.20288], [11.37189, 50.20239], [11.37284, 50.20104], [11.37359, 50.20051], [11.37347, 50.20015], [11.3748, 50.1995], [11.37839, 50.19887], [11.37878, 50.19807], [11.37691, 50.19764], [11.37622, 50.19734], [11.37643, 50.19601], [11.37674, 50.19602], [11.37767, 50.19482], [11.37934, 50.19373], [11.38012, 50.19343], [11.3807, 50.19344], [11.38203, 50.19395], [11.38417, 50.19439], [11.38465, 50.19437], [11.38461, 50.19459], [11.38882, 50.19536], [11.3884, 50.19666], [11.39506, 50.1974], [11.39759, 50.19622], [11.39787, 50.19648], [11.39992, 50.19584], [11.40154, 50.19588], [11.4034, 50.19649], [11.40812, 50.19756], [11.40909, 50.19796], [11.40954, 50.19851], [11.41176, 50.1982], [11.41328, 50.19853], [11.41373, 50.1985], [11.41306, 50.19925], [11.41313, 50.19957], [11.41335, 50.19973], [11.41389, 50.19953], [11.41484, 50.20017], [11.41503, 50.20005], [11.41606, 50.20085], [11.41515, 50.20212], [11.41551, 50.20291], [11.41606, 50.20306], [11.41626, 50.20469], [11.41713, 50.20466], [11.41768, 50.20617], [11.41752, 50.20686], [11.41651, 50.20702], [11.41603, 50.20878], [11.41653, 50.20886], [11.41631, 50.21008], [11.41579, 50.20993], [11.41535, 50.21026], [11.41396, 50.21165], [11.4143, 50.21197], [11.41327, 50.21212], [11.41357, 50.21236], [11.41165, 50.21383], [11.41151, 50.2142], [11.40988, 50.21529], [11.41031, 50.21552], [11.40799, 50.21646], [11.40873, 50.21754], [11.40925, 50.21786], [11.40897, 50.21802], [11.40935, 50.21855], [11.40905, 50.21853], [11.40968, 50.21908], [11.40936, 50.21944], [11.40961, 50.21967], [11.40902, 50.22038], [11.40926, 50.22072], [11.40714, 50.22108], [11.40614, 50.22096], [11.40564, 50.22107], [11.40708, 50.22155], [11.40763, 50.22212], [11.40764, 50.22302], [11.40808, 50.22322], [11.408, 50.22335], [11.40679, 50.22307], [11.40662, 50.22333], [11.40719, 50.22356], [11.406, 50.22444], [11.40458, 50.22514], [11.40369, 50.22593], [11.40386, 50.22614], [11.40267, 50.22714], [11.4014, 50.22635], [11.39979, 50.22594], [11.39878, 50.22589], [11.39784, 50.22551], [11.39764, 50.22567], [11.39638, 50.22526], [11.39511, 50.22556], [11.39533, 50.22696], [11.39634, 50.22719], [11.39644, 50.22741], [11.39622, 50.2277], [11.39422, 50.22705], [11.3938, 50.22795], [11.3933, 50.22791], [11.39254, 50.22914], [11.39109, 50.22871], [11.39046, 50.22957], [11.38924, 50.23042], [11.38619, 50.23124], [11.38575, 50.23104], [11.38376, 50.23145], [11.38371, 50.23189], [11.38492, 50.2318], [11.3846, 50.23286], [11.38537, 50.23312], [11.38527, 50.23336], [11.38578, 50.23437], [11.38568, 50.23508], [11.38498, 50.23531], [11.38488, 50.23624], [11.38417, 50.23672], [11.38485, 50.23781], [11.38241, 50.23856], [11.38201, 50.23821], [11.38204, 50.23766], [11.38168, 50.23765], [11.38157, 50.23739], [11.38197, 50.23602], [11.38068, 50.23549], [11.38027, 50.23493], [11.37889, 50.2344], [11.37762, 50.2341], [11.37641, 50.23407], [11.37631, 50.2343], [11.37647, 50.23438], [11.37817, 50.23477], [11.37799, 50.23513], [11.37866, 50.23566], [11.37693, 50.23711], [11.37629, 50.2367], [11.37576, 50.23775], [11.37461, 50.23749], [11.37463, 50.23802], [11.37488, 50.23804], [11.37484, 50.23891], [11.37418, 50.23912], [11.37245, 50.24079], [11.37084, 50.24068], [11.36962, 50.23959], [11.36663, 50.23884], [11.36676, 50.23867], [11.36104, 50.23781], [11.3581, 50.23778], [11.35756, 50.23683], [11.35605, 50.2367], [11.35581, 50.23731], [11.35644, 50.23769], [11.35612, 50.23879], [11.35686, 50.23964], [11.35655, 50.2404], [11.3557, 50.24148], [11.35415, 50.24226], [11.35242, 50.24258], [11.35187, 50.24251], [11.35091, 50.24288], [11.34833, 50.24509], [11.348, 50.24569], [11.34859, 50.24749], [11.3489, 50.25097], [11.35013, 50.25293], [11.35104, 50.25276], [11.35164, 50.25434], [11.35482, 50.25369], [11.35456, 50.25314], [11.35509, 50.25305], [11.35555, 50.25418], [11.35623, 50.25342], [11.35687, 50.25409], [11.35833, 50.25329], [11.35919, 50.25408], [11.36033, 50.25334], [11.36137, 50.25365], [11.36428, 50.25218], [11.36585, 50.25314], [11.36677, 50.2526], [11.36768, 50.25323], [11.37058, 50.25224], [11.37326, 50.2518], [11.37695, 50.25154], [11.37811, 50.2528], [11.37597, 50.2535], [11.37632, 50.25407], [11.37479, 50.25483], [11.3736, 50.25577], [11.37406, 50.25702], [11.37591, 50.25727], [11.37607, 50.2581], [11.37714, 50.25847], [11.37688, 50.25938], [11.37643, 50.25986], [11.37433, 50.26109], [11.37547, 50.26151], [11.37497, 50.26198], [11.37541, 50.26228], [11.3763, 50.26208], [11.37675, 50.26173], [11.37698, 50.26203], [11.37811, 50.26263], [11.37712, 50.26335], [11.37718, 50.2643], [11.37687, 50.26442], [11.37685, 50.26499], [11.37804, 50.26481], [11.37928, 50.26559], [11.37758, 50.26574], [11.37798, 50.2663], [11.37918, 50.26622], [11.37919, 50.26581], [11.38009, 50.26572], [11.38091, 50.2657], [11.38095, 50.26625], [11.383, 50.26637], [11.38336, 50.26582], [11.3861, 50.26601], [11.38875, 50.26593], [11.38959, 50.26688], [11.38981, 50.26782], [11.39033, 50.26869], [11.38988, 50.26908], [11.38926, 50.26893], [11.38799, 50.26907], [11.38788, 50.27025], [11.38814, 50.27106], [11.38639, 50.27301], [11.38589, 50.27392], [11.38544, 50.27371], [11.38436, 50.27367], [11.38449, 50.27316], [11.38342, 50.27146], [11.38239, 50.27147], [11.38099, 50.27174], [11.38023, 50.27201], [11.37918, 50.27288], [11.3788, 50.27257], [11.37768, 50.273], [11.37656, 50.27376], [11.37548, 50.27484], [11.37295, 50.27457], [11.36862, 50.27456], [11.36833, 50.27461], [11.36881, 50.27544], [11.36824, 50.27567], [11.36671, 50.27421], [11.36543, 50.27462], [11.36455, 50.27416], [11.36405, 50.27352], [11.36356, 50.27339], [11.36341, 50.27389], [11.3642, 50.27459], [11.36204, 50.27412], [11.36077, 50.27462], [11.36099, 50.27485], [11.35762, 50.27611], [11.35765, 50.27641], [11.35637, 50.27648], [11.35434, 50.27969], [11.35387, 50.27974], [11.35374, 50.27992], [11.35355, 50.28089], [11.35298, 50.28195], [11.35253, 50.28199], [11.35069, 50.28385], [11.35153, 50.28491], [11.35002, 50.28575], [11.34921, 50.28649], [11.34871, 50.28658], [11.34605, 50.28586], [11.34475, 50.28568], [11.3433, 50.28602], [11.34242, 50.2868], [11.34089, 50.28727], [11.33982, 50.28786], [11.33643, 50.28807], [11.33437, 50.2878], [11.33534, 50.28843], [11.33419, 50.28903], [11.33521, 50.29004], [11.33486, 50.29044], [11.33934, 50.29218], [11.34164, 50.29357], [11.3415, 50.29401], [11.34123, 50.29419], [11.34133, 50.2943], [11.34034, 50.29498], [11.33928, 50.29661], [11.33926, 50.2972], [11.33874, 50.29794], [11.33883, 50.29884], [11.3392, 50.29957], [11.33932, 50.30101], [11.33906, 50.30174], [11.3392, 50.30201], [11.33881, 50.30203], [11.33853, 50.30159], [11.33758, 50.30083], [11.33683, 50.30126], [11.33577, 50.30145], [11.33445, 50.30216], [11.33414, 50.30261], [11.33484, 50.30324], [11.33401, 50.30303], [11.33339, 50.30214], [11.33373, 50.30176], [11.33402, 50.30181], [11.33532, 50.30125], [11.33482, 50.30081], [11.33414, 50.30037], [11.3338, 50.30057], [11.33217, 50.30003], [11.3299, 50.29975], [11.3291, 50.29945], [11.32887, 50.2996], [11.32758, 50.29919], [11.32776, 50.29843], [11.3272, 50.29772], [11.32627, 50.2978], [11.32565, 50.29755], [11.32477, 50.29749], [11.32427, 50.29796], [11.32308, 50.29856], [11.32187, 50.29883], [11.32133, 50.29832], [11.32131, 50.29804], [11.3191, 50.29857], [11.31811, 50.29848], [11.31788, 50.29761], [11.31706, 50.2969], [11.3162, 50.29667], [11.31512, 50.29586], [11.31244, 50.29499], [11.31077, 50.2935], [11.31031, 50.2933], [11.30992, 50.29275], [11.30785, 50.29176], [11.30864, 50.29126], [11.30767, 50.29076], [11.30773, 50.2903], [11.30734, 50.29008], [11.30656, 50.28981], [11.30334, 50.28957], [11.30125, 50.28921], [11.29863, 50.28894], [11.29842, 50.28917], [11.29709, 50.28878], [11.29745, 50.28726], [11.29746, 50.28486], [11.29698, 50.28487], [11.29693, 50.28425], [11.29653, 50.28405], [11.29625, 50.28351], [11.2938, 50.28272], [11.29436, 50.28169], [11.2936, 50.2816], [11.29389, 50.28057], [11.2939, 50.27973], [11.29371, 50.27952], [11.29276, 50.27953], [11.2919, 50.27934], [11.2907, 50.27974], [11.28792, 50.28012], [11.28786, 50.27914], [11.28675, 50.27805], [11.28558, 50.27746], [11.28496, 50.27684], [11.28448, 50.27582], [11.28418, 50.2756], [11.28279, 50.27525], [11.28167, 50.27429], [11.28162, 50.2737], [11.28273, 50.27272], [11.28317, 50.27244], [11.28407, 50.27225], [11.28392, 50.27124], [11.28356, 50.27054], [11.28245, 50.27152], [11.28048, 50.27194], [11.27661, 50.27135], [11.27546, 50.271], [11.27251, 50.27142], [11.27061, 50.27145], [11.26976, 50.27076], [11.26946, 50.27007], [11.26866, 50.26922], [11.26675, 50.26836], [11.26691, 50.2669], [11.26584, 50.26413], [11.26642, 50.2632], [11.26659, 50.26219], [11.26606, 50.26086], [11.26606, 50.26008], [11.2657, 50.25944], [11.26597, 50.25814], [11.26935, 50.25707], [11.27072, 50.2568], [11.27144, 50.25602], [11.27169, 50.2554], [11.27105, 50.25481], [11.27068, 50.25404], [11.27085, 50.25389], [11.27187, 50.25373], [11.27257, 50.25337], [11.27332, 50.25344], [11.27396, 50.25223], [11.27532, 50.25285], [11.27587, 50.25248], [11.27749, 50.25195], [11.27906, 50.25037], [11.27911, 50.24941], [11.27579, 50.24703], [11.27421, 50.24663], [11.26965, 50.24598], [11.26683, 50.24492], [11.26546, 50.24391], [11.26499, 50.24331], [11.2647, 50.24196]]]}}