{"type": "Feature", "properties": {"name": "kulmbach", "osm_display_name": "Kulmbach, Landkreis Kulmbach, Bayern, 95326, Deutschland", "osm_type": "relation", "osm_id": 1022764}, "geometry": {"type": "Polygon", "coordinates": [[[11.3605, 50.16652], [11.36063, 50.16622], [11.36172, 50.16565], [11.3615, 50.16563], [11.36169, 50.16537], [11.3623, 50.16541], [11.36416, 50.16476], [11.36566, 50.16392], [11.3682, 50.16518], [11.3701, 50.16355], [11.37139, 50.16416], [11.373, 50.16293], [11.37388, 50.16275], [11.37435, 50.16243], [11.37748, 50.16195], [11.38012, 50.16184], [11.3811, 50.16203], [11.38096, 50.16138], [11.38356, 50.1612], [11.38359, 50.16133], [11.38527, 50.15999], [11.38589, 50.15791], [11.38462, 50.15771], [11.38376, 50.15774], [11.38376, 50.1575], [11.38192, 50.15774], [11.38154, 50.15567], [11.38244, 50.15522], [11.38261, 50.15481], [11.38355, 50.15412], [11.38339, 50.15347], [11.37922, 50.15526], [11.37884, 50.15468], [11.37799, 50.15445], [11.37782, 50.15416], [11.37785, 50.15245], [11.37817, 50.15183], [11.37805, 50.15146], [11.37857, 50.15122], [11.37884, 50.14969], [11.37998, 50.14894], [11.37923, 50.14887], [11.37904, 50.1482], [11.37978, 50.1477], [11.37877, 50.1467], [11.37895, 50.14647], [11.38017, 50.14604], [11.38042, 50.14518], [11.3821, 50.14406], [11.38262, 50.14341], [11.38464, 50.14183], [11.38508, 50.14087], [11.38479, 50.13964], [11.38507, 50.13893], [11.38557, 50.13852], [11.38657, 50.13837], [11.38636, 50.13762], [11.38713, 50.1375], [11.38736, 50.13733], [11.38601, 50.13686], [11.38596, 50.13649], [11.38484, 50.13569], [11.38618, 50.1354], [11.3866, 50.13491], [11.38808, 50.13411], [11.38768, 50.13385], [11.39031, 50.13257], [11.39037, 50.13235], [11.39215, 50.13218], [11.39337, 50.13163], [11.39301, 50.13111], [11.39298, 50.13042], [11.39238, 50.13013], [11.39285, 50.12908], [11.39378, 50.12842], [11.39398, 50.12808], [11.39564, 50.12795], [11.3967, 50.12747], [11.39629, 50.12709], [11.39449, 50.12639], [11.3946, 50.1261], [11.39405, 50.12567], [11.39453, 50.12509], [11.39611, 50.1242], [11.39692, 50.12417], [11.39668, 50.12386], [11.39698, 50.123], [11.39663, 50.12257], [11.39688, 50.1223], [11.39958, 50.12318], [11.4017, 50.12345], [11.4027, 50.12274], [11.40479, 50.12306], [11.40701, 50.12288], [11.40843, 50.12309], [11.40773, 50.12114], [11.4082, 50.121], [11.40628, 50.11942], [11.40285, 50.11822], [11.40292, 50.11783], [11.40262, 50.11758], [11.40297, 50.11708], [11.40338, 50.117], [11.40368, 50.11622], [11.40306, 50.11584], [11.4027, 50.1148], [11.40383, 50.11418], [11.40397, 50.11363], [11.40335, 50.11364], [11.40334, 50.11342], [11.40222, 50.11383], [11.40048, 50.11409], [11.3994, 50.11403], [11.39801, 50.11418], [11.39608, 50.115], [11.39475, 50.11339], [11.39438, 50.1134], [11.39453, 50.109], [11.39522, 50.10818], [11.39568, 50.10823], [11.39597, 50.10731], [11.39581, 50.10635], [11.39526, 50.10635], [11.39573, 50.10607], [11.39563, 50.10576], [11.39521, 50.10548], [11.3953, 50.10522], [11.39427, 50.10522], [11.39359, 50.104], [11.39183, 50.10314], [11.39244, 50.10185], [11.39221, 50.10069], [11.3923, 50.09952], [11.39254, 50.09865], [11.39301, 50.09868], [11.39298, 50.09842], [11.39639, 50.09857], [11.40006, 50.09916], [11.40016, 50.09889], [11.39717, 50.09846], [11.39692, 50.09735], [11.39789, 50.0973], [11.39943, 50.09657], [11.40125, 50.09604], [11.40124, 50.09544], [11.4008, 50.09456], [11.40117, 50.09376], [11.401, 50.0936], [11.40001, 50.09346], [11.39897, 50.09376], [11.39817, 50.09375], [11.39692, 50.09403], [11.39635, 50.0936], [11.39674, 50.09323], [11.39575, 50.09303], [11.39563, 50.09232], [11.39464, 50.09234], [11.3939, 50.09208], [11.39358, 50.09173], [11.39361, 50.09112], [11.39284, 50.09049], [11.39214, 50.09035], [11.39181, 50.08985], [11.39062, 50.08982], [11.39058, 50.08955], [11.38987, 50.08976], [11.38931, 50.08975], [11.38815, 50.0882], [11.38889, 50.0872], [11.38937, 50.0873], [11.38995, 50.08711], [11.38972, 50.08671], [11.38844, 50.08695], [11.38778, 50.0873], [11.38653, 50.08721], [11.38673, 50.08797], [11.3857, 50.08823], [11.38536, 50.08816], [11.38514, 50.08698], [11.38481, 50.08671], [11.38443, 50.08668], [11.38261, 50.08714], [11.37999, 50.08585], [11.37956, 50.08526], [11.38008, 50.08424], [11.38005, 50.08327], [11.37949, 50.0827], [11.37855, 50.08216], [11.37694, 50.08165], [11.37671, 50.08143], [11.37545, 50.08094], [11.37556, 50.08083], [11.37504, 50.08047], [11.374, 50.07812], [11.37566, 50.07811], [11.377, 50.07789], [11.37833, 50.07805], [11.37993, 50.0778], [11.38227, 50.07772], [11.38306, 50.07741], [11.38409, 50.07725], [11.38519, 50.0774], [11.38655, 50.0759], [11.38724, 50.07558], [11.38876, 50.07533], [11.3897, 50.07343], [11.39013, 50.07283], [11.39053, 50.07262], [11.3913, 50.0727], [11.39283, 50.07315], [11.39345, 50.07301], [11.39443, 50.07339], [11.39477, 50.07335], [11.39492, 50.07289], [11.39376, 50.07142], [11.39315, 50.06926], [11.39268, 50.06872], [11.39062, 50.06735], [11.39075, 50.06715], [11.39151, 50.06654], [11.392, 50.06657], [11.39579, 50.06516], [11.39649, 50.06504], [11.39676, 50.06529], [11.39755, 50.06523], [11.39744, 50.06492], [11.39785, 50.06461], [11.39763, 50.06433], [11.39792, 50.06401], [11.39761, 50.06307], [11.3992, 50.06345], [11.39949, 50.06334], [11.40058, 50.06367], [11.40283, 50.06473], [11.40366, 50.06353], [11.40356, 50.06269], [11.40413, 50.06176], [11.40133, 50.0604], [11.40074, 50.05993], [11.39988, 50.05857], [11.3993, 50.05849], [11.39967, 50.05796], [11.39851, 50.05771], [11.39836, 50.05743], [11.39903, 50.05685], [11.39928, 50.05629], [11.40025, 50.0558], [11.40233, 50.05529], [11.40326, 50.05489], [11.40644, 50.05456], [11.40855, 50.05481], [11.41395, 50.0566], [11.41468, 50.05677], [11.41526, 50.05669], [11.41527, 50.05696], [11.41843, 50.05744], [11.41859, 50.05799], [11.42096, 50.05827], [11.42255, 50.05891], [11.42375, 50.05908], [11.42374, 50.05807], [11.42588, 50.05793], [11.42636, 50.05852], [11.42592, 50.06135], [11.42625, 50.06217], [11.4294, 50.06441], [11.4301, 50.06474], [11.43024, 50.06503], [11.43143, 50.06591], [11.43218, 50.06583], [11.4319, 50.06518], [11.43285, 50.06515], [11.4348, 50.06437], [11.4353, 50.0646], [11.43531, 50.06497], [11.43809, 50.06461], [11.43873, 50.06556], [11.43933, 50.06552], [11.43955, 50.06543], [11.43973, 50.06489], [11.44143, 50.06419], [11.44297, 50.06416], [11.44514, 50.06338], [11.44579, 50.06297], [11.44598, 50.06239], [11.44644, 50.06214], [11.44735, 50.06229], [11.44815, 50.06283], [11.44867, 50.06281], [11.44888, 50.06264], [11.44852, 50.0617], [11.44743, 50.06148], [11.44709, 50.06116], [11.44732, 50.06102], [11.44845, 50.06108], [11.44878, 50.06051], [11.44874, 50.06008], [11.45104, 50.05977], [11.45141, 50.05988], [11.45162, 50.06021], [11.45319, 50.06024], [11.4535, 50.06049], [11.45408, 50.06034], [11.455, 50.06041], [11.45531, 50.06015], [11.45629, 50.06043], [11.46044, 50.05979], [11.46201, 50.05933], [11.4617, 50.05797], [11.46427, 50.05784], [11.46441, 50.05852], [11.46508, 50.05816], [11.46529, 50.05855], [11.46635, 50.05819], [11.46716, 50.0593], [11.46919, 50.05917], [11.47102, 50.05979], [11.47142, 50.06041], [11.47126, 50.06078], [11.47144, 50.06102], [11.47284, 50.06134], [11.47301, 50.06109], [11.47353, 50.06099], [11.4737, 50.06147], [11.47412, 50.06173], [11.47701, 50.06241], [11.48238, 50.06201], [11.48348, 50.06071], [11.48428, 50.06054], [11.48462, 50.06074], [11.48428, 50.06128], [11.48494, 50.06147], [11.48538, 50.06104], [11.48562, 50.06117], [11.48534, 50.06148], [11.48632, 50.062], [11.48577, 50.06223], [11.48507, 50.06303], [11.48538, 50.06318], [11.48443, 50.06405], [11.48417, 50.06464], [11.48302, 50.06586], [11.48313, 50.06594], [11.48153, 50.06702], [11.48191, 50.06753], [11.48237, 50.06741], [11.48368, 50.06658], [11.48349, 50.06635], [11.48453, 50.06543], [11.48625, 50.06458], [11.4865, 50.06483], [11.48608, 50.06527], [11.48637, 50.06538], [11.48666, 50.06593], [11.48629, 50.06643], [11.48623, 50.0671], [11.48692, 50.06727], [11.48706, 50.06743], [11.48732, 50.06832], [11.4872, 50.06926], [11.48791, 50.06985], [11.48909, 50.07017], [11.49006, 50.0707], [11.49033, 50.07137], [11.49106, 50.07185], [11.49124, 50.07214], [11.49264, 50.07238], [11.49488, 50.07228], [11.49586, 50.07252], [11.49825, 50.07258], [11.49855, 50.07257], [11.49862, 50.07228], [11.50221, 50.07174], [11.5023, 50.07215], [11.50306, 50.07204], [11.50365, 50.0724], [11.50418, 50.07218], [11.5048, 50.07299], [11.50326, 50.07449], [11.50297, 50.07431], [11.50141, 50.07492], [11.49846, 50.07532], [11.49822, 50.07564], [11.49699, 50.07622], [11.49625, 50.07691], [11.49539, 50.07646], [11.49494, 50.07693], [11.49511, 50.07733], [11.49366, 50.07819], [11.49239, 50.07815], [11.49232, 50.07952], [11.49144, 50.08128], [11.49157, 50.08152], [11.49021, 50.08226], [11.48928, 50.08228], [11.48857, 50.08262], [11.48807, 50.08263], [11.48796, 50.08239], [11.48646, 50.0824], [11.4865, 50.08451], [11.48607, 50.08447], [11.4858, 50.08499], [11.48636, 50.08533], [11.48566, 50.08628], [11.48581, 50.08692], [11.48544, 50.0876], [11.48341, 50.08842], [11.47977, 50.08941], [11.47891, 50.08988], [11.47825, 50.0906], [11.47824, 50.09133], [11.47923, 50.09239], [11.47994, 50.09367], [11.48018, 50.09493], [11.48111, 50.09695], [11.48242, 50.09813], [11.48271, 50.09794], [11.48328, 50.09828], [11.4841, 50.09834], [11.4853, 50.09804], [11.48566, 50.09809], [11.48605, 50.09904], [11.48667, 50.09897], [11.48753, 50.10918], [11.48838, 50.10911], [11.48841, 50.10925], [11.49149, 50.10959], [11.492, 50.10968], [11.49344, 50.11034], [11.49624, 50.11055], [11.49688, 50.11087], [11.49811, 50.11095], [11.49857, 50.11179], [11.49823, 50.11262], [11.49901, 50.11275], [11.49926, 50.11301], [11.49972, 50.11313], [11.49887, 50.11361], [11.49805, 50.11318], [11.49757, 50.11353], [11.49679, 50.11311], [11.4967, 50.11332], [11.49647, 50.11322], [11.49608, 50.11395], [11.49522, 50.11471], [11.49528, 50.11549], [11.49408, 50.11692], [11.49442, 50.11716], [11.49262, 50.11904], [11.49417, 50.11988], [11.49514, 50.12021], [11.49493, 50.1206], [11.49533, 50.1208], [11.49384, 50.12222], [11.495, 50.12286], [11.49455, 50.12322], [11.49147, 50.1235], [11.49153, 50.12368], [11.49119, 50.12378], [11.49194, 50.12481], [11.49141, 50.12512], [11.49152, 50.12608], [11.49103, 50.12746], [11.49198, 50.12763], [11.49186, 50.12836], [11.49041, 50.12849], [11.4881, 50.12839], [11.48769, 50.12963], [11.48723, 50.12987], [11.48731, 50.13007], [11.48571, 50.13044], [11.48414, 50.13109], [11.48263, 50.1294], [11.48147, 50.13008], [11.4807, 50.13008], [11.47949, 50.13103], [11.47829, 50.1316], [11.47885, 50.1323], [11.47864, 50.13245], [11.47934, 50.13282], [11.47956, 50.13277], [11.47961, 50.13323], [11.48037, 50.13346], [11.48084, 50.13407], [11.47955, 50.1345], [11.47988, 50.13562], [11.48053, 50.13581], [11.48039, 50.13607], [11.48017, 50.13607], [11.47999, 50.13718], [11.47907, 50.13806], [11.47877, 50.13786], [11.4773, 50.13847], [11.4774, 50.13858], [11.47506, 50.13921], [11.47315, 50.13919], [11.47313, 50.13999], [11.4741, 50.14055], [11.47554, 50.14061], [11.47523, 50.14255], [11.47571, 50.1433], [11.47659, 50.14344], [11.47761, 50.14333], [11.47597, 50.14447], [11.47736, 50.14498], [11.47775, 50.14538], [11.47707, 50.14553], [11.47592, 50.14665], [11.4761, 50.14684], [11.47511, 50.14736], [11.47542, 50.14755], [11.47458, 50.14814], [11.47517, 50.14822], [11.47556, 50.14857], [11.47512, 50.15191], [11.47542, 50.15252], [11.47278, 50.15268], [11.47332, 50.15707], [11.47442, 50.15702], [11.47506, 50.15786], [11.47501, 50.15971], [11.47609, 50.16146], [11.47067, 50.16468], [11.47143, 50.16483], [11.46992, 50.16521], [11.47015, 50.16546], [11.46755, 50.16639], [11.46628, 50.16783], [11.46511, 50.16724], [11.46419, 50.16775], [11.45967, 50.17175], [11.45793, 50.17344], [11.4568, 50.17539], [11.45573, 50.17639], [11.45775, 50.17806], [11.4572, 50.17839], [11.45737, 50.17862], [11.45594, 50.17904], [11.45563, 50.17894], [11.45389, 50.17947], [11.45331, 50.17896], [11.45023, 50.17971], [11.44969, 50.18077], [11.44768, 50.18046], [11.44326, 50.18164], [11.44103, 50.18157], [11.43952, 50.18134], [11.43848, 50.18209], [11.43915, 50.18221], [11.43886, 50.18268], [11.43806, 50.18272], [11.43773, 50.18291], [11.43767, 50.18307], [11.43801, 50.18322], [11.43699, 50.18396], [11.43505, 50.18341], [11.43453, 50.18343], [11.43425, 50.18298], [11.43332, 50.18288], [11.43347, 50.18231], [11.43398, 50.18211], [11.43283, 50.18171], [11.4317, 50.18277], [11.43118, 50.18275], [11.42704, 50.18216], [11.42467, 50.18167], [11.42475, 50.18098], [11.42421, 50.18087], [11.42414, 50.18126], [11.42373, 50.18164], [11.42326, 50.18154], [11.42076, 50.18061], [11.41973, 50.17995], [11.41979, 50.17977], [11.41688, 50.17897], [11.41675, 50.17939], [11.41552, 50.17974], [11.41459, 50.17887], [11.41384, 50.17903], [11.41346, 50.17933], [11.41307, 50.17933], [11.41153, 50.1784], [11.41144, 50.17786], [11.41073, 50.17697], [11.4103, 50.17716], [11.40914, 50.17627], [11.40648, 50.17539], [11.4047, 50.17533], [11.40418, 50.17543], [11.4027, 50.17669], [11.40215, 50.17756], [11.40427, 50.17904], [11.40383, 50.17909], [11.40372, 50.1795], [11.40129, 50.17857], [11.4, 50.1774], [11.39637, 50.17575], [11.39557, 50.1766], [11.39446, 50.17738], [11.39288, 50.17806], [11.38867, 50.18044], [11.38609, 50.18305], [11.38383, 50.18478], [11.3839, 50.18522], [11.38262, 50.18709], [11.38274, 50.18735], [11.38338, 50.18767], [11.38466, 50.18787], [11.38665, 50.18775], [11.3881, 50.18799], [11.38838, 50.18831], [11.3899, 50.18794], [11.39021, 50.18769], [11.39037, 50.18718], [11.39237, 50.18741], [11.39335, 50.18771], [11.39311, 50.18868], [11.39367, 50.19011], [11.39267, 50.1912], [11.3931, 50.19201], [11.39107, 50.19219], [11.38973, 50.19275], [11.38735, 50.19272], [11.3872, 50.19268], [11.38752, 50.19208], [11.38826, 50.19209], [11.38851, 50.19176], [11.38779, 50.19177], [11.3857, 50.19116], [11.3845, 50.19058], [11.38427, 50.19026], [11.38362, 50.1921], [11.38143, 50.19159], [11.37823, 50.19148], [11.37811, 50.19159], [11.37734, 50.19145], [11.37708, 50.19186], [11.37779, 50.19202], [11.37723, 50.19223], [11.37701, 50.1925], [11.37584, 50.19238], [11.37239, 50.19057], [11.37128, 50.19015], [11.36783, 50.18809], [11.36856, 50.18707], [11.36873, 50.18632], [11.36832, 50.1863], [11.36815, 50.18612], [11.36599, 50.18681], [11.36537, 50.18653], [11.36514, 50.18689], [11.36422, 50.18645], [11.3632, 50.18504], [11.36379, 50.18531], [11.36502, 50.18522], [11.36597, 50.18481], [11.36575, 50.18422], [11.3648, 50.18432], [11.36303, 50.18378], [11.36237, 50.18376], [11.36407, 50.17913], [11.36391, 50.17866], [11.36223, 50.17719], [11.3612, 50.17497], [11.3612, 50.17163], [11.36145, 50.17044], [11.36214, 50.1695], [11.36218, 50.16876], [11.36187, 50.16774], [11.36081, 50.16651], [11.3605, 50.16652]]]}}