{"type": "Feature", "properties": {"name": "lichtenfels", "osm_display_name": "Lichtenfels, Landkreis Lichtenfels, Bayern, 96215, Deutschland", "osm_type": "relation", "osm_id": 1026859}, "geometry": {"type": "Polygon", "coordinates": [[[10.97516, 50.16741], [10.97641, 50.16616], [10.9764, 50.16599], [10.9794, 50.16531], [10.97975, 50.16511], [10.9799, 50.16454], [10.98129, 50.16344], [10.98209, 50.16317], [10.9827, 50.16224], [10.98346, 50.16027], [10.9848, 50.15977], [10.98525, 50.15886], [10.98556, 50.15896], [10.98603, 50.15864], [10.98667, 50.15848], [10.98676, 50.15816], [10.98935, 50.15843], [10.9894, 50.15819], [10.9897, 50.15812], [10.99052, 50.15859], [10.99145, 50.15839], [10.99426, 50.15733], [10.99373, 50.15639], [10.99466, 50.15625], [10.99488, 50.15577], [10.99588, 50.15531], [10.99562, 50.15529], [10.99577, 50.15501], [10.99657, 50.15418], [10.99657, 50.15262], [10.99758, 50.15267], [10.99963, 50.15142], [10.99952, 50.15075], [10.99919, 50.15076], [10.99903, 50.15049], [10.99789, 50.15019], [10.99832, 50.14981], [10.9983, 50.14941], [10.99767, 50.14927], [10.99802, 50.14863], [10.99736, 50.14853], [10.99785, 50.14777], [10.99723, 50.14749], [10.99802, 50.14702], [10.99828, 50.14566], [10.99866, 50.14529], [10.99935, 50.145], [11.0, 50.14542], [11.00083, 50.14562], [11.00242, 50.14644], [11.00392, 50.14658], [11.00378, 50.14619], [11.00407, 50.1454], [11.00312, 50.1446], [11.00305, 50.1443], [11.0055, 50.14402], [11.00543, 50.1438], [11.00366, 50.14314], [11.00438, 50.14163], [11.00417, 50.14141], [11.00491, 50.1404], [11.00353, 50.13989], [11.00395, 50.13917], [11.00444, 50.13938], [11.00461, 50.13894], [11.00636, 50.1389], [11.00664, 50.13856], [11.00759, 50.1382], [11.00773, 50.13907], [11.00887, 50.1403], [11.01278, 50.13839], [11.01331, 50.13808], [11.01313, 50.13776], [11.01368, 50.13757], [11.01149, 50.13479], [11.01042, 50.13269], [11.01153, 50.13254], [11.01144, 50.131], [11.01237, 50.13107], [11.01222, 50.13071], [11.01348, 50.12951], [11.01706, 50.13026], [11.01747, 50.12968], [11.01809, 50.12932], [11.01939, 50.12909], [11.02054, 50.12914], [11.02116, 50.12761], [11.02587, 50.12493], [11.03258, 50.12894], [11.03668, 50.13161], [11.03689, 50.13006], [11.03665, 50.12926], [11.03618, 50.12868], [11.03799, 50.12935], [11.03838, 50.12928], [11.04101, 50.12835], [11.04364, 50.12689], [11.04412, 50.12731], [11.04697, 50.12591], [11.0471, 50.12542], [11.04764, 50.12478], [11.04804, 50.12473], [11.04921, 50.12652], [11.0508, 50.12561], [11.05098, 50.12576], [11.05291, 50.12476], [11.05335, 50.125], [11.05533, 50.12522], [11.0562, 50.12233], [11.0589, 50.12234], [11.06178, 50.12139], [11.06397, 50.12011], [11.06454, 50.11941], [11.06509, 50.11907], [11.06582, 50.11793], [11.06876, 50.11622], [11.0699, 50.11602], [11.07113, 50.11654], [11.07176, 50.11614], [11.07254, 50.1151], [11.07235, 50.11375], [11.07287, 50.11189], [11.07117, 50.11128], [11.07172, 50.11089], [11.07277, 50.11057], [11.07218, 50.11005], [11.06967, 50.11101], [11.06826, 50.1102], [11.06999, 50.10907], [11.07079, 50.10877], [11.07544, 50.10793], [11.07663, 50.1076], [11.07767, 50.10701], [11.07816, 50.1058], [11.07778, 50.10418], [11.07801, 50.10322], [11.07949, 50.10048], [11.08013, 50.0999], [11.08043, 50.09981], [11.08124, 50.0999], [11.08141, 50.09945], [11.08112, 50.09835], [11.08064, 50.09773], [11.07955, 50.09689], [11.0803, 50.09621], [11.08241, 50.09533], [11.083, 50.09515], [11.08433, 50.09523], [11.08513, 50.09479], [11.08478, 50.09412], [11.08318, 50.09278], [11.07975, 50.09188], [11.07745, 50.09156], [11.07573, 50.09114], [11.07527, 50.09046], [11.07593, 50.08981], [11.07764, 50.08918], [11.08253, 50.08959], [11.08515, 50.09044], [11.08729, 50.09068], [11.0881, 50.09093], [11.09032, 50.09126], [11.09241, 50.09118], [11.09228, 50.09011], [11.09249, 50.09007], [11.09868, 50.09011], [11.10026, 50.09044], [11.10109, 50.09029], [11.10326, 50.09023], [11.10319, 50.08971], [11.10413, 50.08913], [11.10472, 50.08901], [11.10585, 50.08838], [11.1083, 50.08795], [11.10836, 50.08755], [11.10752, 50.08632], [11.10693, 50.08649], [11.10507, 50.08484], [11.10488, 50.08447], [11.10948, 50.08303], [11.10987, 50.08324], [11.11018, 50.08376], [11.11199, 50.08474], [11.10943, 50.0855], [11.11051, 50.08698], [11.11122, 50.08677], [11.11111, 50.08653], [11.11337, 50.08595], [11.11388, 50.08545], [11.11733, 50.08588], [11.11822, 50.08565], [11.11981, 50.08273], [11.12233, 50.07977], [11.12264, 50.07906], [11.12225, 50.07833], [11.12076, 50.07711], [11.11872, 50.07406], [11.12113, 50.07366], [11.12247, 50.07382], [11.12248, 50.07408], [11.12416, 50.07399], [11.12364, 50.07332], [11.12355, 50.07276], [11.12445, 50.07278], [11.12481, 50.07129], [11.12537, 50.07072], [11.12598, 50.06915], [11.12536, 50.06841], [11.12541, 50.06808], [11.12491, 50.068], [11.12492, 50.06747], [11.12325, 50.06689], [11.12284, 50.06651], [11.12286, 50.06603], [11.12341, 50.06586], [11.12315, 50.06513], [11.12361, 50.06502], [11.1235, 50.06393], [11.12365, 50.06371], [11.12602, 50.06252], [11.12548, 50.06211], [11.12487, 50.06218], [11.12416, 50.06194], [11.12329, 50.06212], [11.12124, 50.06209], [11.12091, 50.0625], [11.11997, 50.06237], [11.11781, 50.0617], [11.11654, 50.06103], [11.11607, 50.06124], [11.11619, 50.06147], [11.11589, 50.06187], [11.11645, 50.06221], [11.11516, 50.06256], [11.11399, 50.06256], [11.11269, 50.06233], [11.11191, 50.06291], [11.11002, 50.06198], [11.10958, 50.06222], [11.11034, 50.05984], [11.11076, 50.05907], [11.11162, 50.05837], [11.11142, 50.05822], [11.11279, 50.0579], [11.11266, 50.05758], [11.11365, 50.05743], [11.11417, 50.05664], [11.11492, 50.05602], [11.11459, 50.05548], [11.11513, 50.05473], [11.11666, 50.05385], [11.11562, 50.05311], [11.11441, 50.05353], [11.11411, 50.05329], [11.11378, 50.05289], [11.11499, 50.05201], [11.1161, 50.05165], [11.11648, 50.05195], [11.11742, 50.05147], [11.11817, 50.05124], [11.11828, 50.05134], [11.11945, 50.05078], [11.11938, 50.05066], [11.12261, 50.0501], [11.12383, 50.04798], [11.12449, 50.04852], [11.12593, 50.0482], [11.12671, 50.04822], [11.12729, 50.04843], [11.12739, 50.04778], [11.12919, 50.04762], [11.13061, 50.04786], [11.13317, 50.0473], [11.13521, 50.04653], [11.13747, 50.04597], [11.13766, 50.04587], [11.13736, 50.04566], [11.13969, 50.04568], [11.13987, 50.04529], [11.14134, 50.04508], [11.14142, 50.04564], [11.14185, 50.04523], [11.14303, 50.04465], [11.14359, 50.044], [11.14798, 50.04493], [11.14898, 50.04347], [11.15207, 50.04435], [11.15167, 50.04435], [11.15174, 50.04506], [11.15255, 50.04503], [11.15283, 50.04686], [11.15368, 50.04669], [11.15496, 50.04675], [11.15526, 50.04662], [11.15603, 50.04672], [11.15728, 50.04643], [11.15906, 50.0463], [11.16014, 50.04851], [11.15965, 50.04845], [11.15973, 50.04896], [11.15891, 50.04899], [11.15805, 50.04973], [11.15687, 50.05213], [11.15778, 50.05238], [11.15803, 50.052], [11.15868, 50.05209], [11.15865, 50.0524], [11.15958, 50.05249], [11.15963, 50.05265], [11.16077, 50.05278], [11.16185, 50.05309], [11.16174, 50.05322], [11.16144, 50.05313], [11.16165, 50.05372], [11.16303, 50.05466], [11.16448, 50.05492], [11.16606, 50.05435], [11.16654, 50.05437], [11.16841, 50.05481], [11.16909, 50.05551], [11.16978, 50.05525], [11.17077, 50.0557], [11.17441, 50.05686], [11.1758, 50.05697], [11.17732, 50.05663], [11.1796, 50.05698], [11.18061, 50.05739], [11.18073, 50.05767], [11.17871, 50.0578], [11.17788, 50.05816], [11.17708, 50.05864], [11.17641, 50.05952], [11.17679, 50.06052], [11.1779, 50.06077], [11.17892, 50.06076], [11.17939, 50.06099], [11.18018, 50.06189], [11.18144, 50.06267], [11.18134, 50.06275], [11.18294, 50.0636], [11.18294, 50.06407], [11.18358, 50.06563], [11.18533, 50.06809], [11.18542, 50.07033], [11.18503, 50.07127], [11.1845, 50.0715], [11.18313, 50.07153], [11.18295, 50.07187], [11.18132, 50.07166], [11.18134, 50.07276], [11.18155, 50.07275], [11.18152, 50.07293], [11.1819, 50.07289], [11.18179, 50.07341], [11.18202, 50.07401], [11.18298, 50.07428], [11.18152, 50.07626], [11.18377, 50.07704], [11.18445, 50.0775], [11.18435, 50.07778], [11.18356, 50.07775], [11.18328, 50.07849], [11.18207, 50.07844], [11.18221, 50.07795], [11.18066, 50.07765], [11.1804, 50.07822], [11.17836, 50.07819], [11.17609, 50.07892], [11.17588, 50.0787], [11.17473, 50.07885], [11.17454, 50.07801], [11.17546, 50.07795], [11.17529, 50.07727], [11.1726, 50.07717], [11.17258, 50.07769], [11.17163, 50.07779], [11.17158, 50.07745], [11.17109, 50.0777], [11.17089, 50.0785], [11.16998, 50.0785], [11.16999, 50.07794], [11.16865, 50.07774], [11.16874, 50.07791], [11.16819, 50.07787], [11.16704, 50.07813], [11.16686, 50.07783], [11.16245, 50.0782], [11.16169, 50.07814], [11.15964, 50.07897], [11.15932, 50.07891], [11.15851, 50.07936], [11.15643, 50.07922], [11.15571, 50.07891], [11.15467, 50.0789], [11.15465, 50.0785], [11.15432, 50.07845], [11.15445, 50.07807], [11.1558, 50.07815], [11.15553, 50.07783], [11.15375, 50.07755], [11.15382, 50.07717], [11.15317, 50.0761], [11.15107, 50.07641], [11.14979, 50.07641], [11.14945, 50.07734], [11.14781, 50.07739], [11.14735, 50.07822], [11.14626, 50.07812], [11.14576, 50.07866], [11.14519, 50.07864], [11.14536, 50.07954], [11.1459, 50.08056], [11.14506, 50.08128], [11.14433, 50.08248], [11.14443, 50.08266], [11.14527, 50.08281], [11.14526, 50.08313], [11.14605, 50.08294], [11.14638, 50.0831], [11.14681, 50.0839], [11.14915, 50.08228], [11.14828, 50.08197], [11.15044, 50.08177], [11.15334, 50.08119], [11.15352, 50.08147], [11.15167, 50.0825], [11.15148, 50.08327], [11.15161, 50.08361], [11.15209, 50.08384], [11.15266, 50.08479], [11.15413, 50.08543], [11.15412, 50.0861], [11.15459, 50.08684], [11.15441, 50.08761], [11.15463, 50.08755], [11.15434, 50.08831], [11.15322, 50.08837], [11.15315, 50.08915], [11.15382, 50.08948], [11.15546, 50.0898], [11.1551, 50.09042], [11.15591, 50.09078], [11.15688, 50.09085], [11.15932, 50.0906], [11.16144, 50.09063], [11.16258, 50.09033], [11.16498, 50.09007], [11.16427, 50.09289], [11.16531, 50.09307], [11.17568, 50.09371], [11.17718, 50.09112], [11.17845, 50.09154], [11.17882, 50.09212], [11.17997, 50.09309], [11.1827, 50.09076], [11.18299, 50.09087], [11.18273, 50.0911], [11.18265, 50.09359], [11.18362, 50.09346], [11.1842, 50.09391], [11.18288, 50.09451], [11.18196, 50.09567], [11.17994, 50.09555], [11.17927, 50.09538], [11.17907, 50.09707], [11.17921, 50.09958], [11.17969, 50.10164], [11.18019, 50.10231], [11.17971, 50.10269], [11.18024, 50.10343], [11.18159, 50.1046], [11.18292, 50.1055], [11.18526, 50.10661], [11.18379, 50.10781], [11.18473, 50.10855], [11.18631, 50.10896], [11.18919, 50.10933], [11.18947, 50.10959], [11.18991, 50.11017], [11.18895, 50.11215], [11.18654, 50.11116], [11.18631, 50.1115], [11.1834, 50.11082], [11.18282, 50.11169], [11.1829, 50.11213], [11.18269, 50.11207], [11.18141, 50.11355], [11.17779, 50.11422], [11.17577, 50.11363], [11.1742, 50.1136], [11.17267, 50.11444], [11.17129, 50.11446], [11.17164, 50.11488], [11.17136, 50.11556], [11.17079, 50.11583], [11.17031, 50.11634], [11.16933, 50.11679], [11.17018, 50.11878], [11.16866, 50.11832], [11.1679, 50.11827], [11.16684, 50.11855], [11.16631, 50.11897], [11.16535, 50.11885], [11.16398, 50.11908], [11.16374, 50.1189], [11.16023, 50.12048], [11.15957, 50.1199], [11.15906, 50.12], [11.15916, 50.12022], [11.15892, 50.12078], [11.15844, 50.12063], [11.15692, 50.12151], [11.15617, 50.12132], [11.15541, 50.12187], [11.15505, 50.1205], [11.15532, 50.11879], [11.15417, 50.11855], [11.15344, 50.11857], [11.15349, 50.11878], [11.15104, 50.1189], [11.15201, 50.11997], [11.1521, 50.1203], [11.15172, 50.12078], [11.15262, 50.12172], [11.15178, 50.12181], [11.14934, 50.12158], [11.14794, 50.1216], [11.14705, 50.12228], [11.14747, 50.12353], [11.14735, 50.12522], [11.14474, 50.12524], [11.14304, 50.12486], [11.14224, 50.125], [11.1389, 50.12357], [11.13651, 50.12481], [11.13591, 50.12531], [11.13504, 50.12656], [11.13489, 50.12756], [11.13364, 50.12815], [11.13322, 50.12977], [11.13101, 50.13163], [11.13167, 50.13225], [11.13204, 50.13304], [11.1322, 50.13413], [11.13287, 50.13422], [11.13351, 50.1346], [11.13393, 50.13465], [11.1343, 50.135], [11.13425, 50.13524], [11.1356, 50.13616], [11.13549, 50.13666], [11.13591, 50.13672], [11.13707, 50.13643], [11.13828, 50.13659], [11.13943, 50.13801], [11.14037, 50.13785], [11.14208, 50.13867], [11.14567, 50.13935], [11.14655, 50.13999], [11.14641, 50.14032], [11.14703, 50.14071], [11.14737, 50.14017], [11.14764, 50.14024], [11.14785, 50.13993], [11.14823, 50.14006], [11.14794, 50.14049], [11.14859, 50.14079], [11.14941, 50.14013], [11.15142, 50.13922], [11.15451, 50.14204], [11.15759, 50.14212], [11.15642, 50.1463], [11.15699, 50.14642], [11.15738, 50.14885], [11.15719, 50.15041], [11.15894, 50.1508], [11.15792, 50.15362], [11.15483, 50.15392], [11.15488, 50.1541], [11.15115, 50.1543], [11.15138, 50.15532], [11.15103, 50.15536], [11.15048, 50.15583], [11.14993, 50.15603], [11.15161, 50.15614], [11.15021, 50.15648], [11.14969, 50.15677], [11.14917, 50.15739], [11.14896, 50.15814], [11.14684, 50.15798], [11.14534, 50.15878], [11.14801, 50.16018], [11.14568, 50.16144], [11.14593, 50.16167], [11.14547, 50.16222], [11.14137, 50.16023], [11.14076, 50.16008], [11.13791, 50.15997], [11.13495, 50.15905], [11.13375, 50.15832], [11.13355, 50.15749], [11.13143, 50.15713], [11.12866, 50.15742], [11.12686, 50.15655], [11.12595, 50.15716], [11.12419, 50.15669], [11.12401, 50.15663], [11.12439, 50.15599], [11.12436, 50.15537], [11.12417, 50.15515], [11.12344, 50.15519], [11.12277, 50.15419], [11.12196, 50.15457], [11.12006, 50.15475], [11.11685, 50.1548], [11.11308, 50.15456], [11.11339, 50.15479], [11.10002, 50.15311], [11.0987, 50.15399], [11.09763, 50.15419], [11.09767, 50.1546], [11.09706, 50.1545], [11.09669, 50.15423], [11.09552, 50.15443], [11.09417, 50.15496], [11.09313, 50.15498], [11.0919, 50.15527], [11.09237, 50.15597], [11.09127, 50.15633], [11.09045, 50.15729], [11.08924, 50.15754], [11.08724, 50.15868], [11.08751, 50.15914], [11.08672, 50.16015], [11.08771, 50.16118], [11.08851, 50.16155], [11.08875, 50.16186], [11.08791, 50.16321], [11.08852, 50.16367], [11.09103, 50.16484], [11.09142, 50.16517], [11.09091, 50.16592], [11.09326, 50.16703], [11.09241, 50.16823], [11.09259, 50.16846], [11.09396, 50.16916], [11.09511, 50.17074], [11.09463, 50.17152], [11.09444, 50.17218], [11.0947, 50.17262], [11.09386, 50.17441], [11.09387, 50.17498], [11.09349, 50.17506], [11.09308, 50.17552], [11.09193, 50.17627], [11.09109, 50.17654], [11.08968, 50.17777], [11.08922, 50.17793], [11.08866, 50.17887], [11.08813, 50.18063], [11.08545, 50.18189], [11.08458, 50.18127], [11.08465, 50.18242], [11.08425, 50.18465], [11.08385, 50.18525], [11.08309, 50.1858], [11.08265, 50.18798], [11.08295, 50.18859], [11.08258, 50.18919], [11.08271, 50.18979], [11.08239, 50.19009], [11.08239, 50.19078], [11.08212, 50.19126], [11.08243, 50.19269], [11.08308, 50.19315], [11.08503, 50.19581], [11.08486, 50.1966], [11.08524, 50.19658], [11.0877, 50.19726], [11.08808, 50.19797], [11.08803, 50.19831], [11.08999, 50.20018], [11.0903, 50.2009], [11.09017, 50.20112], [11.09054, 50.20145], [11.09076, 50.20212], [11.09068, 50.20304], [11.09001, 50.20395], [11.08933, 50.20451], [11.08838, 50.20432], [11.08822, 50.20485], [11.0871, 50.20617], [11.08444, 50.20679], [11.08189, 50.20764], [11.0814, 50.20831], [11.08024, 50.20902], [11.08032, 50.20943], [11.07684, 50.20928], [11.07613, 50.20913], [11.07531, 50.20976], [11.0735, 50.21007], [11.07099, 50.20921], [11.07076, 50.20886], [11.06731, 50.21014], [11.06753, 50.21057], [11.06689, 50.21077], [11.0657, 50.20875], [11.06578, 50.2083], [11.06548, 50.20818], [11.06546, 50.20651], [11.06494, 50.20623], [11.06448, 50.2055], [11.0628, 50.2061], [11.06216, 50.20676], [11.06163, 50.20793], [11.06074, 50.20861], [11.06038, 50.20852], [11.05615, 50.20943], [11.05479, 50.21], [11.05444, 50.21055], [11.05208, 50.21087], [11.05147, 50.21063], [11.05056, 50.2115], [11.04911, 50.21244], [11.04729, 50.21255], [11.04614, 50.21316], [11.04622, 50.21394], [11.0448, 50.21409], [11.04454, 50.21471], [11.04357, 50.21475], [11.04296, 50.21595], [11.04095, 50.21562], [11.0394, 50.21322], [11.03589, 50.21409], [11.03613, 50.21471], [11.03381, 50.21517], [11.03417, 50.21653], [11.03433, 50.21888], [11.03314, 50.21897], [11.032, 50.21893], [11.03078, 50.21852], [11.02995, 50.21846], [11.02862, 50.21848], [11.02722, 50.21902], [11.02414, 50.21838], [11.02392, 50.21854], [11.02233, 50.21854], [11.02009, 50.21959], [11.01995, 50.21938], [11.01818, 50.21862], [11.01819, 50.21828], [11.01704, 50.21813], [11.01681, 50.21639], [11.01629, 50.21613], [11.01181, 50.21575], [11.01028, 50.21525], [11.00935, 50.2152], [11.00615, 50.21534], [11.00432, 50.21508], [11.0031, 50.21532], [11.00039, 50.2152], [10.99855, 50.21537], [10.99855, 50.21504], [10.99723, 50.21451], [10.99147, 50.2139], [10.98944, 50.21313], [10.98973, 50.21272], [10.98613, 50.21207], [10.98631, 50.21174], [10.98501, 50.21182], [10.98538, 50.21137], [10.98392, 50.21137], [10.98453, 50.21048], [10.98415, 50.20968], [10.98532, 50.20779], [10.98575, 50.20741], [10.98824, 50.20584], [10.99057, 50.20495], [10.99097, 50.20457], [10.99253, 50.20434], [10.99402, 50.20434], [10.995, 50.20416], [10.99592, 50.20374], [10.99781, 50.20396], [10.9982, 50.20358], [10.99687, 50.20297], [10.99625, 50.20248], [10.99706, 50.20183], [10.99782, 50.20148], [10.99937, 50.20104], [10.99942, 50.19976], [11.00018, 50.19969], [11.0014, 50.19912], [11.00284, 50.19906], [11.00597, 50.19985], [11.00695, 50.20023], [11.00715, 50.19983], [11.00539, 50.19912], [11.00449, 50.19896], [11.00347, 50.19852], [11.00196, 50.19832], [11.00144, 50.19847], [11.00113, 50.19832], [11.00111, 50.19809], [11.00283, 50.19743], [11.00317, 50.1963], [11.00399, 50.19564], [11.00565, 50.19498], [11.00695, 50.19477], [11.00837, 50.19392], [11.01003, 50.19376], [11.01104, 50.19383], [11.01064, 50.19305], [11.01056, 50.19174], [11.0083, 50.19187], [11.0084, 50.19152], [11.00691, 50.19063], [11.00708, 50.1903], [11.00394, 50.18831], [11.00417, 50.18783], [11.0015, 50.18545], [11.00202, 50.18526], [11.00136, 50.18444], [11.00176, 50.1843], [11.00124, 50.18375], [11.00314, 50.1828], [11.00468, 50.18179], [11.00711, 50.18081], [11.00922, 50.17953], [11.00774, 50.17755], [11.00692, 50.1778], [11.00653, 50.17738], [11.00633, 50.17769], [11.00542, 50.17811], [11.00427, 50.17815], [11.00366, 50.17763], [11.00228, 50.17751], [11.00049, 50.17775], [10.99999, 50.17764], [10.99969, 50.17709], [10.99789, 50.17714], [10.99644, 50.17696], [10.9963, 50.17638], [10.99554, 50.17633], [10.99487, 50.17685], [10.99319, 50.17703], [10.99078, 50.1746], [10.98953, 50.1747], [10.98763, 50.17565], [10.98601, 50.17601], [10.98397, 50.17443], [10.98379, 50.17356], [10.98341, 50.17327], [10.9806, 50.17323], [10.98035, 50.1722], [10.9805, 50.17121], [10.97952, 50.17041], [10.97926, 50.1699], [10.9778, 50.16886], [10.97722, 50.16822], [10.97554, 50.16737], [10.97516, 50.16741]]]}}