{"type":"Feature","properties":{"name":"Mittelfranken","osm_display_name":"Mittelfranken, Bayern, Deutschland"},"geometry":{"type":"Polygon","coordinates":[[[10.0695475,49.5924831],[10.0726559,49.5909953],[10.0706849,49.5882382],[10.071492,49.5881839],[10.071368,49.5865409],[10.0721159,49.5866025],[10.073071,49.5805253],[10.0752481,49.5805974],[10.0753626,49.5774924],[10.0743571,49.5773332],[10.0730905,49.5724095],[10.0725634,49.5722923],[10.0744128,49.5682896],[10.071695,49.567326],[10.074747,49.5648546],[10.0759707,49.5657711],[10.0786085,49.5650329],[10.0764893,49.5634493],[10.0809945,49.5601979],[10.0805744,49.5599051],[10.0816668,49.558832],[10.0808576,49.5584812],[10.0806789,49.5571833],[10.0831796,49.5559382],[10.082669,49.5556808],[10.0836639,49.5547325],[10.0829296,49.5546566],[10.0833141,49.55184],[10.0825904,49.5517788],[10.0825626,49.5506077],[10.083121,49.5473777],[10.0844707,49.547373],[10.0838694,49.5422005],[10.087446,49.5422595],[10.0891189,49.5380763],[10.091905,49.534415],[10.0885871,49.533654],[10.0897201,49.5303698],[10.0876658,49.5305942],[10.0880008,49.5284208],[10.0788393,49.5272981],[10.0805091,49.5243877],[10.0790086,49.5239219],[10.0820802,49.52004],[10.077938,49.518757],[10.0791669,49.517424],[10.0801851,49.5180925],[10.0834815,49.5144841],[10.0797071,49.5130175],[10.0825041,49.5111732],[10.0877239,49.5128225],[10.099394,49.5148261],[10.1002856,49.5136844],[10.105682,49.5150807],[10.1084048,49.5113487],[10.1155066,49.512264],[10.1163634,49.5104258],[10.1212506,49.511018],[10.1214137,49.5093658],[10.1203033,49.5093264],[10.1207326,49.5072949],[10.1172728,49.5071792],[10.1185862,49.5043084],[10.1144418,49.5025584],[10.1100024,49.5020245],[10.1092277,49.5015973],[10.1092514,49.5007171],[10.1067898,49.4992039],[10.1034078,49.4986129],[10.1031831,49.4979887],[10.1050489,49.4975207],[10.1049979,49.4957085],[10.1010725,49.4941746],[10.1002771,49.4913714],[10.1022562,49.48967],[10.101076,49.4874378],[10.1014422,49.4865762],[10.1009782,49.4857384],[10.1053213,49.4835778],[10.1047811,49.4825758],[10.1080282,49.482843],[10.109624,49.4797681],[10.1113666,49.4779061],[10.1162948,49.4787582],[10.1159325,49.4762647],[10.1166607,49.4761479],[10.1149062,49.473941],[10.1167218,49.4725258],[10.1182577,49.4723515],[10.1178612,49.4715295],[10.119491,49.4709712],[10.1192788,49.4702525],[10.1176238,49.4702271],[10.1179113,49.4676019],[10.1210861,49.4655931],[10.12217,49.4637897],[10.1159117,49.4612019],[10.1143599,49.4625475],[10.1089599,49.4619903],[10.1067711,49.4632851],[10.1050445,49.4630764],[10.1065063,49.4608518],[10.1080978,49.4603194],[10.1076406,49.4594995],[10.1067946,49.4585637],[10.1009056,49.4568819],[10.0978851,49.4570093],[10.097142,49.4560642],[10.0980036,49.4548856],[10.0973587,49.4545033],[10.0971709,49.4514485],[10.0948792,49.4480655],[10.1058384,49.4444015],[10.1058334,49.4432869],[10.1118217,49.4385647],[10.1127978,49.438871],[10.1101875,49.4423677],[10.1148449,49.4436889],[10.1178844,49.4429901],[10.1188922,49.4439266],[10.1218377,49.4409455],[10.1227014,49.4407014],[10.1237055,49.4413512],[10.1243865,49.4402393],[10.127146,49.4388677],[10.1331224,49.437935],[10.1345244,49.4355235],[10.1343377,49.4348055],[10.1380691,49.4332012],[10.1348736,49.4333353],[10.1336775,49.4321201],[10.1363959,49.4307996],[10.1357708,49.4304262],[10.1383178,49.4281842],[10.1384314,49.4261646],[10.1373537,49.4246629],[10.1397407,49.4237227],[10.145749,49.4188493],[10.1454174,49.4185088],[10.1464034,49.4175253],[10.1461134,49.415988],[10.1466985,49.4160957],[10.1473036,49.4137336],[10.1499563,49.414051],[10.1503151,49.4135229],[10.1492993,49.412987],[10.1517071,49.4124212],[10.1524869,49.411628],[10.1483905,49.4119598],[10.1478327,49.4111582],[10.1493694,49.4102719],[10.1498941,49.4092271],[10.1498787,49.4062856],[10.1524133,49.404222],[10.1511977,49.403511],[10.1521996,49.4012448],[10.1497392,49.4019772],[10.1493535,49.4013555],[10.1485708,49.4022295],[10.1441684,49.4035575],[10.1403546,49.4038381],[10.138962,49.4036727],[10.1388983,49.4030881],[10.1447577,49.4024403],[10.1503156,49.3993325],[10.1541924,49.3987643],[10.1541604,49.3970942],[10.1550554,49.3965888],[10.1617526,49.3952708],[10.1606928,49.3942228],[10.1610052,49.3903803],[10.1596125,49.3901928],[10.1576065,49.39099],[10.1567642,49.390774],[10.1568976,49.3902015],[10.1560375,49.3895768],[10.1562522,49.3886652],[10.1463246,49.3883055],[10.1460633,49.3856856],[10.1453157,49.3857656],[10.1445654,49.3835544],[10.1424978,49.3841903],[10.1399356,49.3835418],[10.139957,49.3858416],[10.1365888,49.3860759],[10.1364434,49.3867164],[10.1329186,49.3868204],[10.1329513,49.3860212],[10.1320346,49.386056],[10.1321878,49.3869121],[10.1293997,49.387427],[10.1217022,49.3878982],[10.1218063,49.3863241],[10.1187294,49.386383],[10.1118546,49.38505],[10.1071726,49.3788747],[10.1172392,49.3690834],[10.1173377,49.3669883],[10.1135271,49.3666235],[10.1127156,49.3620251],[10.1133215,49.3596775],[10.1179327,49.3596519],[10.1183025,49.3578656],[10.1245916,49.3569031],[10.1246346,49.3558628],[10.1243785,49.354903],[10.1230457,49.3546561],[10.1237873,49.350546],[10.1221899,49.3502702],[10.1189728,49.3501132],[10.1188589,49.3510055],[10.1141922,49.3519409],[10.1086567,49.3516374],[10.107954,49.3533246],[10.106759,49.3529282],[10.1092959,49.3483333],[10.107787,49.3474453],[10.1038968,49.3469711],[10.1039415,49.3446441],[10.1028342,49.3444621],[10.1032198,49.3414498],[10.1046358,49.3408702],[10.1044562,49.3384917],[10.108875,49.3379328],[10.1083188,49.3359998],[10.1130964,49.3356794],[10.1128506,49.33241],[10.1071186,49.3324194],[10.1089609,49.3323312],[10.1104961,49.3288182],[10.114076,49.3296388],[10.1149958,49.3283919],[10.1186579,49.3290373],[10.1203435,49.3252707],[10.1230663,49.3246094],[10.1234778,49.3256859],[10.1252476,49.3250899],[10.1266857,49.3260247],[10.1276253,49.3247046],[10.130765,49.3254544],[10.1303083,49.3276829],[10.1329281,49.3277244],[10.1329491,49.3267886],[10.1371235,49.3273599],[10.1371005,49.3267499],[10.139836,49.327066],[10.1388138,49.3256753],[10.1397285,49.3258318],[10.1405285,49.3245686],[10.1402567,49.3225973],[10.1427442,49.3226059],[10.1434584,49.3189466],[10.1453764,49.3164032],[10.1437646,49.3157573],[10.141581,49.3130206],[10.1354885,49.3097236],[10.1364783,49.3080438],[10.1314575,49.3050648],[10.1323316,49.3040019],[10.1322813,49.3003899],[10.1333841,49.3002964],[10.1332949,49.2987565],[10.1339221,49.2988845],[10.1345592,49.2970541],[10.1339914,49.2970094],[10.1341367,49.2959114],[10.1373075,49.2937848],[10.1383469,49.2915272],[10.1429192,49.2912523],[10.1440444,49.2903502],[10.1429332,49.2898359],[10.1432325,49.2894485],[10.1411899,49.2887868],[10.1420737,49.287803],[10.1439305,49.2880479],[10.1457312,49.2874429],[10.1498507,49.2880386],[10.1492986,49.2846731],[10.1533761,49.2848486],[10.1566491,49.2811208],[10.1559276,49.2806885],[10.1531766,49.2819377],[10.1513339,49.2807608],[10.1500359,49.2783722],[10.1463557,49.2771009],[10.1480235,49.2755408],[10.1470338,49.2749804],[10.1448784,49.2751896],[10.1461044,49.272801],[10.1456864,49.2725833],[10.1463981,49.2720382],[10.1448579,49.271737],[10.1476421,49.2695422],[10.1493666,49.2690347],[10.1414979,49.2675257],[10.1388477,49.2649958],[10.1365302,49.2643305],[10.1337793,49.2622329],[10.1313701,49.2639254],[10.1284968,49.2630386],[10.1289457,49.2622875],[10.1276376,49.2615116],[10.1263001,49.2624131],[10.1261758,49.2648681],[10.1273043,49.2656639],[10.123308,49.2702145],[10.123834,49.2706056],[10.1232488,49.2724338],[10.122443,49.2727328],[10.1227319,49.2733666],[10.1251996,49.2730739],[10.1255192,49.2736904],[10.1311847,49.2747359],[10.1280706,49.275943],[10.126666,49.2755276],[10.1264104,49.2747555],[10.1231826,49.2747915],[10.1214559,49.2727505],[10.1217123,49.2711425],[10.1195622,49.2685605],[10.1198961,49.26684],[10.1177599,49.2684845],[10.1174898,49.2675505],[10.1154751,49.2676645],[10.1143167,49.2665928],[10.1144646,49.2657965],[10.1160724,49.2655656],[10.1168365,49.2642095],[10.1166674,49.2601814],[10.115952,49.2589113],[10.117155,49.2591496],[10.1190751,49.2577337],[10.1153212,49.2573311],[10.1157005,49.258431],[10.1149303,49.2587419],[10.1134917,49.2579295],[10.111934,49.2585705],[10.1093011,49.2578387],[10.1142891,49.2559339],[10.1190021,49.2561043],[10.123713,49.255249],[10.1259022,49.2558743],[10.1271644,49.2534462],[10.1303985,49.2542038],[10.1289456,49.256229],[10.1294498,49.2562866],[10.1309153,49.2539011],[10.1324565,49.2540745],[10.1331117,49.2532452],[10.1316838,49.2525325],[10.1321765,49.2513015],[10.1266711,49.2490539],[10.1253741,49.2493751],[10.1221977,49.247749],[10.1200824,49.247552],[10.1198432,49.2469684],[10.1226699,49.2467295],[10.1243065,49.2456808],[10.1244411,49.2451435],[10.1232029,49.244098],[10.1247838,49.2426989],[10.1228285,49.2408018],[10.1240261,49.2397192],[10.1230439,49.239263],[10.1265302,49.2361202],[10.1263141,49.2301767],[10.1273753,49.2298009],[10.1278701,49.2277628],[10.1259453,49.2272276],[10.1266345,49.2246273],[10.1287002,49.2209059],[10.1324154,49.2172763],[10.1364239,49.217318],[10.1391738,49.215966],[10.1391017,49.2142978],[10.138509,49.2142015],[10.1400073,49.2105774],[10.1396499,49.2095641],[10.1405208,49.208792],[10.1399556,49.2084572],[10.136198,49.2099832],[10.1302927,49.2096566],[10.1297375,49.2104969],[10.1280252,49.2101829],[10.1257383,49.2108184],[10.1247689,49.2094734],[10.1271701,49.2097501],[10.1276243,49.2079086],[10.1268853,49.2050122],[10.1274283,49.2041736],[10.1307563,49.203687],[10.1310947,49.2030873],[10.1287675,49.2026639],[10.1288615,49.2014916],[10.1265132,49.2016629],[10.1245261,49.2006753],[10.1248645,49.1988658],[10.1301022,49.198999],[10.1269716,49.1973216],[10.1290626,49.1955897],[10.1302599,49.1962566],[10.1289605,49.1972089],[10.1328299,49.1977824],[10.1329891,49.1985771],[10.131182,49.1991687],[10.1350913,49.2002392],[10.1354762,49.199251],[10.1381401,49.1983093],[10.137608,49.1976926],[10.1383436,49.1971281],[10.1412467,49.1975996],[10.1419935,49.1967224],[10.1419942,49.1953797],[10.156987,49.1925956],[10.1557318,49.1915646],[10.1546402,49.1916174],[10.1546394,49.1909671],[10.1532789,49.1910112],[10.1528336,49.1900118],[10.1571739,49.1901139],[10.1569743,49.1876916],[10.1584507,49.1859615],[10.1604923,49.1850782],[10.159077,49.1838182],[10.1608623,49.183467],[10.159715,49.1829953],[10.1621536,49.1824995],[10.1625798,49.1829499],[10.1672533,49.181192],[10.1659447,49.180722],[10.1667779,49.1799336],[10.1661996,49.1794325],[10.1673933,49.1794265],[10.1680876,49.1782176],[10.1710343,49.1780137],[10.1713689,49.1792406],[10.1761797,49.1799008],[10.1763791,49.1815702],[10.1813356,49.1825656],[10.1806637,49.1790059],[10.1812058,49.176688],[10.1783538,49.1760936],[10.1774582,49.1751579],[10.1772678,49.1732429],[10.183077,49.1718264],[10.1839205,49.1727247],[10.1848525,49.1722423],[10.1855652,49.1729872],[10.1857452,49.1718852],[10.1847204,49.1710653],[10.1867398,49.170428],[10.1867354,49.1725471],[10.1878486,49.1727404],[10.1882705,49.1738301],[10.1894023,49.1743158],[10.1900061,49.1738681],[10.1884569,49.1728679],[10.1895939,49.1720485],[10.1882436,49.1718808],[10.1876142,49.170175],[10.1879727,49.1697284],[10.1885609,49.1705882],[10.1902486,49.170896],[10.195246,49.169925],[10.1925959,49.1675704],[10.1942652,49.1655963],[10.1972447,49.1636098],[10.1959223,49.1626065],[10.1995639,49.1602248],[10.1987486,49.1588646],[10.1987342,49.1569536],[10.1969489,49.1568234],[10.1968289,49.1557628],[10.2000033,49.1555163],[10.2025673,49.1563809],[10.2051184,49.1556141],[10.206963,49.1580013],[10.2067005,49.1589998],[10.2116918,49.160299],[10.2129247,49.1627964],[10.2145187,49.1623821],[10.2154606,49.1636582],[10.2181176,49.1634809],[10.2190978,49.1629004],[10.2198162,49.1613664],[10.2187437,49.1610345],[10.218608,49.1600606],[10.2226458,49.1600178],[10.2241132,49.1618324],[10.2279526,49.1599035],[10.2292666,49.1581111],[10.2320388,49.1564141],[10.2324059,49.1555692],[10.2312023,49.155525],[10.2310461,49.1534751],[10.2334007,49.1523059],[10.2369043,49.1519324],[10.2383575,49.1494322],[10.243918,49.148779],[10.2481538,49.1492601],[10.2484526,49.14799],[10.2476757,49.1476817],[10.2484767,49.145838],[10.2492692,49.1448309],[10.2518703,49.1436839],[10.2515124,49.1418688],[10.2524835,49.1420571],[10.2537419,49.1409736],[10.2538008,49.1390156],[10.2555776,49.1381008],[10.2514569,49.1339907],[10.2557484,49.1318415],[10.2567607,49.1308781],[10.25711,49.1290247],[10.2527548,49.1299597],[10.2510714,49.1262196],[10.2478149,49.1267183],[10.2430567,49.1257025],[10.2400017,49.1240866],[10.2412354,49.122615],[10.2407918,49.1221107],[10.2372137,49.1203285],[10.2302017,49.1191285],[10.2250872,49.1201883],[10.224786,49.1189751],[10.2295647,49.1170468],[10.2291115,49.1153089],[10.2298093,49.1132797],[10.2265059,49.1128614],[10.2273832,49.1116156],[10.2293507,49.1111702],[10.2277888,49.1103009],[10.2222029,49.1124288],[10.2154262,49.1133531],[10.2152568,49.1112882],[10.2135082,49.1113796],[10.2143244,49.1079792],[10.2161229,49.1060013],[10.2144441,49.1041495],[10.2149115,49.1041683],[10.2147016,49.1036918],[10.2122241,49.1016693],[10.213551,49.1010183],[10.2128738,49.1005529],[10.2116273,49.1016723],[10.2074155,49.1009191],[10.2080441,49.1004062],[10.2073816,49.0993965],[10.2102407,49.1006184],[10.2099197,49.0999963],[10.2114035,49.0980982],[10.2107806,49.0968817],[10.2090675,49.0976515],[10.2078432,49.0994464],[10.2039944,49.0973769],[10.2098737,49.0945505],[10.2117023,49.0942917],[10.2228037,49.0980597],[10.2242505,49.0956889],[10.2252974,49.0952513],[10.2251661,49.0943344],[10.2260575,49.0931801],[10.2255079,49.0915921],[10.2260629,49.0901285],[10.2280313,49.0891618],[10.2331485,49.0902704],[10.2323577,49.0917946],[10.2334981,49.0920489],[10.234298,49.0920458],[10.235103,49.0904571],[10.2376478,49.0912718],[10.2379042,49.0920005],[10.242619,49.0920284],[10.2427716,49.0930979],[10.2444473,49.0927197],[10.2431861,49.0908447],[10.244034,49.0905891],[10.2456374,49.0906375],[10.2452103,49.0919976],[10.2473149,49.0920643],[10.2476375,49.0929938],[10.2504695,49.092333],[10.2479846,49.0925169],[10.2478009,49.091927],[10.2487946,49.0915109],[10.248927,49.0921901],[10.2502772,49.0915741],[10.2506129,49.0902605],[10.2500938,49.0896999],[10.2504907,49.0884047],[10.2492518,49.0862842],[10.2481007,49.0863147],[10.2482502,49.0836256],[10.2471838,49.0835382],[10.247198,49.0815095],[10.2459212,49.0804274],[10.2468633,49.0806996],[10.2470955,49.0798275],[10.2444408,49.0799627],[10.2439964,49.0784977],[10.2424603,49.0787788],[10.241146,49.0795036],[10.2412178,49.080107],[10.2433044,49.0811221],[10.2427439,49.0820614],[10.2408654,49.0821456],[10.2393137,49.0787536],[10.2374708,49.0772541],[10.2340183,49.0763071],[10.2345403,49.0752704],[10.2342185,49.0743161],[10.2353656,49.07389],[10.239477,49.0746685],[10.2418155,49.0736352],[10.2424848,49.0723341],[10.243939,49.0727445],[10.2435936,49.0741952],[10.2455883,49.0743799],[10.2520472,49.072557],[10.2557636,49.0705357],[10.258274,49.0701983],[10.2579638,49.0687332],[10.2592246,49.067435],[10.2580659,49.0669519],[10.2592409,49.0650972],[10.2610049,49.0648061],[10.2620995,49.062743],[10.2636282,49.0631665],[10.2655266,49.0617425],[10.2619384,49.0611042],[10.2621816,49.0606966],[10.2586165,49.0597072],[10.2574026,49.0596927],[10.2565243,49.0615419],[10.2575257,49.0554456],[10.2568853,49.052964],[10.2556539,49.0528279],[10.2553695,49.0543784],[10.2549749,49.0542139],[10.2553042,49.0521187],[10.2518922,49.0496434],[10.2556967,49.0445644],[10.2543663,49.0436909],[10.2526806,49.0443039],[10.2505878,49.0433082],[10.2497832,49.0423834],[10.250337,49.0404228],[10.2526311,49.0399875],[10.252185,49.0389963],[10.2549399,49.0386913],[10.257274,49.0407574],[10.2587077,49.0411334],[10.2589999,49.0427327],[10.2631093,49.0421817],[10.2617047,49.0436612],[10.2633436,49.0448323],[10.2657925,49.0453093],[10.2659643,49.0447145],[10.2668456,49.0450055],[10.2672267,49.0433221],[10.2680163,49.0429482],[10.2734206,49.0423028],[10.2735874,49.0430187],[10.2771839,49.0426047],[10.2744223,49.0407943],[10.2763531,49.0396322],[10.2770983,49.0383339],[10.2847172,49.0365497],[10.2852352,49.0379905],[10.2885149,49.0401758],[10.2872077,49.0405659],[10.2855122,49.0422579],[10.2870186,49.0420729],[10.2875258,49.0430592],[10.2876721,49.0412887],[10.289831,49.040877],[10.2913114,49.0421999],[10.2914467,49.0411741],[10.2927668,49.0407924],[10.2937439,49.0422621],[10.2951931,49.0425048],[10.3006816,49.0404234],[10.3019416,49.0385938],[10.3042932,49.0382542],[10.3020189,49.038301],[10.303096,49.0348009],[10.3031607,49.0323157],[10.3024283,49.0322138],[10.3024939,49.0314438],[10.3076097,49.0311894],[10.309547,49.0319034],[10.3126008,49.0298465],[10.3170176,49.0285348],[10.3187258,49.0286912],[10.3211339,49.0254386],[10.3222199,49.0258914],[10.3254108,49.0253403],[10.3254149,49.0248464],[10.3272803,49.0241467],[10.3278415,49.0243145],[10.3271165,49.0250868],[10.3290658,49.0242421],[10.3285027,49.0254149],[10.3290097,49.0265587],[10.3274413,49.0268497],[10.3274397,49.0301619],[10.3285713,49.0302571],[10.3295911,49.029182],[10.3309877,49.0288579],[10.3316172,49.0276973],[10.3313699,49.026611],[10.3332251,49.0267662],[10.3333104,49.0279389],[10.33188,49.0301578],[10.3329125,49.0320398],[10.3365903,49.0296762],[10.3369112,49.0274144],[10.3402408,49.0274263],[10.3396323,49.0284134],[10.3417447,49.0287346],[10.3432986,49.0279094],[10.3501379,49.0283424],[10.3500575,49.0232939],[10.3511214,49.0230696],[10.3511047,49.0221178],[10.349284,49.0218647],[10.3488176,49.0207269],[10.345803,49.0204749],[10.3460528,49.0186922],[10.3454824,49.0186742],[10.345457,49.0174036],[10.348397,49.0169579],[10.349009,49.015142],[10.3513483,49.0145127],[10.3529433,49.0152641],[10.3543827,49.0139073],[10.3554515,49.0144949],[10.3576174,49.0115269],[10.3548184,49.0079296],[10.3536946,49.0054667],[10.3540692,49.0047239],[10.3587219,49.0046913],[10.3587631,49.0039627],[10.3729561,49.0033497],[10.3759644,48.9996058],[10.3794937,49.0000816],[10.3820157,48.9992305],[10.3808395,48.9967337],[10.3828787,48.9941938],[10.3821272,48.9941218],[10.3821114,48.992236],[10.3814365,48.9918777],[10.3818556,48.9915833],[10.3786858,48.990498],[10.3815622,48.9883785],[10.3837997,48.9882053],[10.3946939,48.9902432],[10.3947533,48.988409],[10.3971142,48.9866517],[10.3992171,48.9871912],[10.4012347,48.9860765],[10.4027488,48.9820569],[10.4050238,48.9823836],[10.4058225,48.9802948],[10.4085915,48.9803784],[10.4102539,48.9785913],[10.4119956,48.9785819],[10.4119439,48.9776966],[10.4103521,48.9774586],[10.4114709,48.9771342],[10.4141747,48.9783647],[10.4164361,48.9784277],[10.4225784,48.9783733],[10.4256815,48.977069],[10.4273716,48.9774505],[10.4273235,48.978345],[10.4241482,48.9790338],[10.4154704,48.9789682],[10.4151838,48.9804059],[10.4139362,48.9803391],[10.4138557,48.9810441],[10.416565,48.9813933],[10.4165251,48.9819716],[10.4248033,48.9820336],[10.4305098,48.9808696],[10.4329182,48.9839707],[10.4308496,48.9838415],[10.4311318,48.985471],[10.4278053,48.9858888],[10.4278923,48.9872534],[10.4226106,48.988386],[10.4234242,48.9889091],[10.4220985,48.9897769],[10.4226805,48.9900166],[10.4208395,48.9918609],[10.4211915,48.9930025],[10.4228317,48.9930483],[10.4249525,48.9942243],[10.4239745,48.997211],[10.4302085,48.9996757],[10.4300861,49.0007458],[10.4269999,49.0013],[10.4241548,49.0040344],[10.4283366,49.0037787],[10.4334836,49.0046337],[10.4342423,49.0037386],[10.4332481,49.0023045],[10.4345106,49.0016385],[10.4416401,49.004258],[10.4420304,49.0055055],[10.4458047,49.0068398],[10.4484252,49.007447],[10.4523429,49.0073518],[10.4512238,49.0098815],[10.4522335,49.0114686],[10.4532798,49.0111361],[10.4562516,49.00812],[10.4581299,49.0076476],[10.4587302,49.008872],[10.469916,49.0107587],[10.4691628,49.0116107],[10.4695705,49.0117904],[10.4774825,49.0111383],[10.4796568,49.0103315],[10.4807668,49.0090957],[10.4834001,49.0086014],[10.4878013,49.009285],[10.4885883,49.0114633],[10.4893886,49.0117848],[10.4950999,49.0095468],[10.4977026,49.0093628],[10.4993819,49.0060058],[10.5021454,49.0059637],[10.5005184,49.0076493],[10.5015425,49.0068141],[10.5054105,49.0059755],[10.5156467,49.006245],[10.516974,49.0072129],[10.5171795,49.0084279],[10.5199914,49.0072055],[10.5286621,49.0074422],[10.5308067,49.0062491],[10.5334952,49.0057122],[10.5405583,49.0059209],[10.5444342,49.007127],[10.5452708,49.0081048],[10.5396642,49.0125077],[10.5425261,49.0138718],[10.5431887,49.014972],[10.5394045,49.0185733],[10.5390888,49.0218774],[10.5434851,49.0240883],[10.5506941,49.0216192],[10.5521385,49.0217805],[10.5502863,49.0227184],[10.5543329,49.0230895],[10.5493495,49.0234136],[10.5451216,49.0253459],[10.5464742,49.0284379],[10.5492213,49.0305836],[10.5512796,49.0313151],[10.5530043,49.0331237],[10.5558335,49.0341476],[10.5639414,49.0336078],[10.5653808,49.0332752],[10.5647392,49.0320441],[10.5675853,49.0339783],[10.5725052,49.0333082],[10.5745221,49.0317144],[10.5754319,49.0320011],[10.574513,49.0324974],[10.5737416,49.0343958],[10.5746516,49.0357504],[10.5806623,49.0350136],[10.5834346,49.0360182],[10.5861659,49.0360023],[10.5948528,49.034536],[10.5957623,49.0341967],[10.596506,49.032569],[10.5986667,49.0318767],[10.6000114,49.0306171],[10.6015012,49.0261579],[10.6008695,49.0243373],[10.6044948,49.0207388],[10.6040668,49.020557],[10.6051997,49.0179824],[10.6073132,49.0173279],[10.6055456,49.0185857],[10.6056824,49.0195373],[10.6071228,49.020415],[10.6059051,49.0191873],[10.6061009,49.018364],[10.6099257,49.0179489],[10.6106901,49.0168618],[10.6100839,49.0146523],[10.6117845,49.0153806],[10.6139517,49.0142055],[10.6193375,49.0176077],[10.6276149,49.0210518],[10.631213,49.0164871],[10.636611,49.017006],[10.6371434,49.0159532],[10.6423705,49.0164756],[10.6411491,49.0147266],[10.6429749,49.0139724],[10.6433719,49.013174],[10.642432,49.0124319],[10.6432281,49.0122965],[10.643532,49.0110468],[10.641556,49.0104303],[10.640286,49.0084818],[10.638864,49.0079211],[10.6390417,49.0063359],[10.637817,49.0052359],[10.6379243,49.0032344],[10.6371872,49.0032473],[10.6375817,49.0015079],[10.6383934,49.0015448],[10.6387879,49.0007357],[10.6388974,48.998298],[10.6345305,48.9984277],[10.6348798,48.9957977],[10.6288456,48.995748],[10.6297023,48.9922899],[10.6364762,48.9909002],[10.6353853,48.9875255],[10.6386166,48.9863157],[10.6441419,48.9855385],[10.6406996,48.982768],[10.6400425,48.9817964],[10.6405143,48.9814117],[10.6471872,48.9836087],[10.6484538,48.9823734],[10.6525445,48.9832589],[10.6521137,48.9838257],[10.6547066,48.9844228],[10.6549695,48.9856136],[10.6563418,48.9857666],[10.6607698,48.9859221],[10.6609892,48.9849066],[10.668003,48.984023],[10.6713724,48.9822197],[10.6714812,48.9813877],[10.672455,48.9813349],[10.673121,48.9795368],[10.6750428,48.9777241],[10.674366,48.977143],[10.675124,48.9755828],[10.6746363,48.9754805],[10.6746512,48.9742361],[10.6780942,48.9723966],[10.6794007,48.9693623],[10.6789608,48.9684287],[10.6799805,48.9674427],[10.6793908,48.9668797],[10.6820211,48.9643594],[10.6849459,48.9650776],[10.6856625,48.9646395],[10.6859178,48.9642199],[10.6832665,48.9632348],[10.6857654,48.9624739],[10.687901,48.9591345],[10.692204,48.9595174],[10.6907208,48.9585209],[10.6912642,48.9578764],[10.692209,48.9583562],[10.6930502,48.9574727],[10.6942777,48.953791],[10.6939085,48.9520975],[10.6924231,48.9519148],[10.6923494,48.9496045],[10.689259,48.9484652],[10.689552,48.9457267],[10.6890445,48.9441555],[10.6952504,48.9449987],[10.6983359,48.94448],[10.6982816,48.9437631],[10.7016056,48.9434624],[10.7006076,48.9389977],[10.6920593,48.9399284],[10.6920292,48.9393901],[10.691235,48.9393735],[10.6918089,48.9385954],[10.6912742,48.9349324],[10.6881218,48.9356671],[10.6863813,48.9353865],[10.6874574,48.9347872],[10.6875895,48.9332158],[10.6849791,48.9296385],[10.6829938,48.9298587],[10.6828365,48.929055],[10.6784626,48.9278318],[10.6734839,48.9245073],[10.670565,48.923806],[10.6703795,48.9223878],[10.6697699,48.9221547],[10.6699821,48.9205491],[10.6713913,48.9203929],[10.678366,48.9163634],[10.6816902,48.9137244],[10.6751979,48.9113828],[10.6752716,48.9109748],[10.677377,48.9116564],[10.6785663,48.909507],[10.6825651,48.9105012],[10.6830977,48.9107914],[10.6827012,48.9117787],[10.6833333,48.9118207],[10.6837805,48.9103094],[10.6865698,48.9106884],[10.6885468,48.9092789],[10.6931766,48.9089324],[10.6978548,48.9077268],[10.6988685,48.9063862],[10.6961022,48.9057575],[10.6965862,48.9043527],[10.6997519,48.9050517],[10.7010697,48.9061721],[10.7040708,48.9066563],[10.7046801,48.9076616],[10.7070565,48.9080948],[10.7114174,48.9037697],[10.7108612,48.9023407],[10.7112755,48.90026],[10.7171187,48.8993878],[10.7230704,48.9005981],[10.7233403,48.9023937],[10.7243106,48.902116],[10.7240662,48.9038852],[10.7280324,48.9045261],[10.7286484,48.9083701],[10.7302514,48.9089955],[10.7318826,48.9127477],[10.7336331,48.9126057],[10.7346671,48.9145267],[10.7341675,48.9148131],[10.7358135,48.9169647],[10.7371261,48.9205293],[10.7367083,48.9221981],[10.7345863,48.9240525],[10.7393651,48.9251964],[10.7537688,48.9250702],[10.7564411,48.9238125],[10.7569943,48.922072],[10.7577537,48.9218711],[10.7576433,48.9209158],[10.7592495,48.9193622],[10.7634301,48.9183206],[10.7652449,48.9163102],[10.7725009,48.9157866],[10.7724008,48.9161907],[10.7763691,48.9161646],[10.7764255,48.9169728],[10.7780457,48.9169587],[10.777674,48.9186818],[10.7786342,48.9200695],[10.777233,48.9207109],[10.7745003,48.9199713],[10.7728686,48.9225933],[10.7702445,48.9249489],[10.7705918,48.9263455],[10.7741467,48.925622],[10.7744335,48.9285047],[10.7828849,48.9351272],[10.7864178,48.9368901],[10.7881991,48.9399915],[10.7927278,48.9394064],[10.7945618,48.941847],[10.7945328,48.9430459],[10.7984736,48.942897],[10.7988195,48.942418],[10.7964419,48.9414129],[10.7979181,48.9406478],[10.7988485,48.9408408],[10.7994318,48.9423498],[10.8013226,48.9434106],[10.803629,48.9436003],[10.8030942,48.9448708],[10.8040446,48.9456184],[10.8038318,48.9469174],[10.8061852,48.948845],[10.8077234,48.9493797],[10.8113678,48.9474202],[10.813747,48.9491006],[10.8161302,48.9476863],[10.8175047,48.9492691],[10.8174792,48.947736],[10.814279,48.9457902],[10.8167819,48.9441999],[10.8173428,48.9430106],[10.814278,48.9422814],[10.8154675,48.9409899],[10.8123731,48.9394957],[10.8117873,48.9383806],[10.8129696,48.9371601],[10.811974,48.9369061],[10.814021,48.9366423],[10.8146968,48.9353156],[10.821501,48.9348064],[10.8222521,48.9341233],[10.8214462,48.9337114],[10.8183164,48.9331819],[10.8255179,48.9311929],[10.8277487,48.9253649],[10.827224,48.9212496],[10.8293827,48.9211032],[10.8297234,48.9188168],[10.8284142,48.9186284],[10.8301272,48.9183994],[10.8322247,48.9148747],[10.8325982,48.9131229],[10.830608,48.913511],[10.8310062,48.9148535],[10.8298369,48.9162937],[10.8275763,48.9158915],[10.8283691,48.9146615],[10.8260067,48.9133459],[10.8251132,48.9137945],[10.8221147,48.9115661],[10.8215965,48.911852],[10.8205093,48.9099967],[10.8111137,48.9086864],[10.8079494,48.9076615],[10.8089439,48.9060779],[10.8117402,48.9048715],[10.8125039,48.9032881],[10.8140697,48.9030218],[10.8153262,48.9013009],[10.8183641,48.901321],[10.8197762,48.8985354],[10.8234137,48.8984316],[10.8243211,48.897245],[10.8247129,48.8974928],[10.8247911,48.8961151],[10.8297828,48.8950964],[10.8310593,48.8952184],[10.830541,48.8958366],[10.8317753,48.896503],[10.8329466,48.8953421],[10.833599,48.8958865],[10.8310358,48.8984412],[10.8311248,48.9000254],[10.8328628,48.8996855],[10.8326236,48.8991752],[10.8345067,48.8963096],[10.8364247,48.8959758],[10.841158,48.8965423],[10.8442982,48.8961967],[10.8443772,48.8953603],[10.8487841,48.8958448],[10.8490652,48.8954323],[10.853747,48.896999],[10.8576096,48.8955185],[10.861052,48.8950746],[10.8607185,48.8945692],[10.8636677,48.8934147],[10.8611855,48.8933149],[10.861565,48.890815],[10.860215,48.8895908],[10.8564924,48.890965],[10.8550069,48.8904335],[10.8544796,48.8899101],[10.8549967,48.8895196],[10.8573329,48.8887076],[10.8557757,48.886948],[10.8536978,48.8864128],[10.8531403,48.8850504],[10.8533102,48.884589],[10.8570607,48.8849001],[10.8587434,48.8842129],[10.8651969,48.8853079],[10.8671647,48.883122],[10.8683563,48.8835096],[10.8707361,48.8827782],[10.871097,48.8823563],[10.8701381,48.8821307],[10.8703457,48.8803541],[10.8680001,48.879589],[10.8681276,48.8755674],[10.874277,48.8756705],[10.8892854,48.8792366],[10.8941119,48.8791698],[10.9058051,48.8822829],[10.9057772,48.8809209],[10.9076794,48.8795062],[10.9122874,48.8793874],[10.9116992,48.8775548],[10.9141502,48.8773872],[10.9139663,48.8768281],[10.9173471,48.8759317],[10.9176683,48.8755677],[10.9163134,48.8749624],[10.9146763,48.8753795],[10.9142026,48.8738572],[10.9147144,48.8735468],[10.9188063,48.8743594],[10.9256458,48.8727914],[10.9258457,48.8718293],[10.9303673,48.8677392],[10.9287993,48.8670062],[10.9283887,48.8651044],[10.9314352,48.8625715],[10.9371879,48.8626802],[10.940021,48.8635337],[10.9470068,48.8635202],[10.9473179,48.8644255],[10.9504455,48.8635907],[10.9574988,48.8598258],[10.9608236,48.8596098],[10.9629013,48.858336],[10.9660736,48.8605986],[10.9626939,48.8613848],[10.9633161,48.8635061],[10.966125,48.8629322],[10.9629542,48.865109],[10.9637537,48.8691662],[10.9648224,48.8703598],[10.9694545,48.8719239],[10.9726407,48.8752526],[10.9740308,48.8787076],[10.9935893,48.8838164],[11.001731,48.884384],[11.0080692,48.886382],[11.0109695,48.8856879],[11.0122073,48.886698],[11.0143886,48.8869748],[11.0160723,48.8851726],[11.0185426,48.8845534],[11.0199845,48.8853224],[11.0242371,48.8854925],[11.0272816,48.8871696],[11.0317709,48.8869793],[11.0312599,48.8877648],[11.0287975,48.8884373],[11.0271395,48.8896855],[11.0274888,48.8918791],[11.0290119,48.8933808],[11.0295482,48.8953084],[11.033412,48.8969785],[11.0394888,48.8978277],[11.0448459,48.9008843],[11.0413846,48.9021074],[11.0383337,48.9043215],[11.0314038,48.9055791],[11.0322765,48.907422],[11.0319075,48.9085363],[11.033252,48.9092766],[11.0367242,48.9095885],[11.0382726,48.90819],[11.0381213,48.9063466],[11.0422986,48.9046023],[11.0432222,48.9029934],[11.0453282,48.9019573],[11.0463982,48.9030529],[11.0466434,48.9057314],[11.0487756,48.9065067],[11.0501031,48.9083051],[11.0525235,48.9090862],[11.0585544,48.9093982],[11.0588864,48.9103145],[11.0579014,48.9119742],[11.0583137,48.9132422],[11.0662007,48.9129101],[11.0715913,48.9113165],[11.0740566,48.9147063],[11.0740079,48.9162301],[11.0725061,48.9165653],[11.0728525,48.9177544],[11.070789,48.9187561],[11.0681988,48.9223581],[11.0627142,48.9269488],[11.0562004,48.9301581],[11.0509387,48.9319189],[11.0514725,48.9333293],[11.0525074,48.9330374],[11.0542779,48.9338483],[11.0533645,48.9352186],[11.0578265,48.9377688],[11.0626332,48.9431125],[11.0667578,48.9456978],[11.0711383,48.9500629],[11.0699222,48.9505619],[11.0714396,48.9518812],[11.0704324,48.9526043],[11.0703021,48.9536398],[11.0780602,48.9565603],[11.0815143,48.958622],[11.0830919,48.9605354],[11.087902,48.9618845],[11.0941914,48.9618572],[11.0988607,48.9653116],[11.1013294,48.9662194],[11.1094894,48.9667851],[11.12146,48.9660705],[11.1262659,48.9652184],[11.1331406,48.9654683],[11.1368488,48.9646239],[11.1422129,48.9650522],[11.1417752,48.9658332],[11.1394332,48.9664298],[11.1393401,48.9682398],[11.1428441,48.9687661],[11.1416198,48.969867],[11.1440638,48.9703554],[11.1448116,48.9730591],[11.1409188,48.9733049],[11.1430028,48.9750185],[11.1467874,48.9806921],[11.1463723,48.9808543],[11.1477813,48.9827269],[11.1480414,48.9847733],[11.1476379,48.9859668],[11.1426445,48.988915],[11.1455081,48.9896431],[11.1432277,48.9914256],[11.1481863,48.9917984],[11.1482713,48.9924146],[11.1517123,48.9930067],[11.152107,48.9924873],[11.154843,48.9929238],[11.1559355,48.9933261],[11.1559144,48.9941176],[11.1588763,48.9951083],[11.1591109,48.9960403],[11.1625828,48.9960299],[11.163444,48.9992148],[11.1593416,48.9991569],[11.1587983,49.0003081],[11.1565105,49.0002333],[11.1554086,49.0025677],[11.16262,49.0028788],[11.1613263,49.0041582],[11.1647465,49.0042764],[11.1640726,49.006434],[11.1616573,49.0063566],[11.1599008,49.007933],[11.1596488,49.0118046],[11.1636859,49.0121187],[11.1629988,49.01341],[11.1622356,49.0135708],[11.1633471,49.0148351],[11.1735237,49.0155295],[11.1757248,49.0160701],[11.1754729,49.0177296],[11.1786761,49.0172432],[11.1782817,49.0154492],[11.1800756,49.0143113],[11.1856144,49.0140403],[11.185616,49.014467],[11.1817926,49.0153329],[11.1814991,49.0164358],[11.1833982,49.0182585],[11.1854912,49.0177309],[11.1862479,49.0189281],[11.189754,49.018612],[11.1896368,49.0229159],[11.1838233,49.0233768],[11.1859734,49.0267804],[11.1816279,49.0272479],[11.1803767,49.0255267],[11.1795078,49.0259431],[11.1808548,49.0266105],[11.1807724,49.0282328],[11.1860878,49.0334956],[11.1875719,49.0361501],[11.1882121,49.0358979],[11.1911717,49.0390555],[11.1995555,49.0447355],[11.2019063,49.0474507],[11.204386,49.0467735],[11.2053557,49.047743],[11.2094749,49.0459299],[11.2103293,49.0478865],[11.2125523,49.0471387],[11.2133151,49.0484668],[11.2159466,49.0484445],[11.216553,49.0509452],[11.2227029,49.0496852],[11.2247912,49.0480782],[11.2248459,49.0516791],[11.2255243,49.0517243],[11.232147,49.0495501],[11.2473023,49.0471726],[11.2515124,49.048862],[11.2530118,49.0527634],[11.2554437,49.0528031],[11.2515754,49.0462133],[11.2488922,49.045756],[11.2512111,49.0434054],[11.2517743,49.0437272],[11.2515509,49.0451475],[11.253382,49.0453104],[11.2540665,49.0416818],[11.2522266,49.0407835],[11.2516984,49.0397992],[11.2533515,49.0390286],[11.2531339,49.0382808],[11.2557664,49.037656],[11.2560125,49.0363724],[11.2552358,49.0343573],[11.2594046,49.0339299],[11.2610997,49.0322267],[11.2626158,49.0316477],[11.2644786,49.0282963],[11.2696345,49.0278719],[11.2656114,49.0272517],[11.2663675,49.0247231],[11.2653064,49.0245931],[11.2665248,49.0227936],[11.266931,49.0173062],[11.263731,49.0177717],[11.2640055,49.0159051],[11.263365,49.0143344],[11.2672512,49.0135516],[11.2659347,49.0123576],[11.2667714,49.0109935],[11.2703284,49.0115077],[11.2698647,49.009931],[11.2715474,49.0093905],[11.2750456,49.0100533],[11.2767248,49.0066694],[11.2830174,49.0074083],[11.2838024,49.0057002],[11.2861782,49.0043077],[11.2875445,49.0040851],[11.2882029,49.0050842],[11.2933152,49.0051231],[11.2938713,49.006315],[11.2947964,49.0053587],[11.29697,49.0061112],[11.2942971,49.0074546],[11.295565,49.0087257],[11.296204,49.0086264],[11.2955117,49.0094653],[11.2982452,49.010585],[11.297931,49.0114201],[11.2957042,49.0109628],[11.2947464,49.0113705],[11.2949001,49.013165],[11.2933854,49.0153801],[11.293554,49.0165018],[11.2973311,49.0164283],[11.2976386,49.0133904],[11.2987587,49.01303],[11.2997699,49.0095638],[11.3016795,49.0097571],[11.3020439,49.0077988],[11.3049638,49.0075299],[11.3048573,49.0056116],[11.3069993,49.0053829],[11.3058454,49.0047513],[11.3058451,49.0038081],[11.3118543,49.0018841],[11.3190145,49.0020597],[11.3268873,48.9980103],[11.32959,48.999123],[11.3327727,48.99953],[11.3321843,49.0004772],[11.3338993,49.000981],[11.3327735,49.0017443],[11.3327575,49.0032566],[11.3350706,49.0055869],[11.3353332,49.0076586],[11.3394831,49.0079223],[11.3415169,49.007485],[11.3420084,49.0067408],[11.3425657,49.0072645],[11.3434133,49.0084527],[11.3421258,49.0110313],[11.3426014,49.0138837],[11.3460615,49.0141284],[11.3475911,49.0165898],[11.3513341,49.0165479],[11.3510862,49.0174877],[11.3493087,49.0182733],[11.3466645,49.0183026],[11.3460308,49.0197148],[11.3506864,49.0210556],[11.3555258,49.0166534],[11.3571779,49.0172643],[11.3589453,49.0164108],[11.3625966,49.0165348],[11.3638842,49.0153635],[11.3647766,49.0153477],[11.3657887,49.0140286],[11.368247,49.0145996],[11.3721451,49.0170338],[11.381424,49.0170798],[11.3790719,49.0217317],[11.3823584,49.0246711],[11.3848965,49.0232828],[11.3851287,49.0264711],[11.3859559,49.0276816],[11.3865195,49.0310161],[11.40055,49.0301235],[11.4044872,49.0322636],[11.4069323,49.0323392],[11.4057268,49.0329264],[11.4055978,49.0336633],[11.4094734,49.0340764],[11.4131268,49.0359506],[11.4126491,49.0345641],[11.414447,49.0350338],[11.413992,49.0370627],[11.4071951,49.0378901],[11.4050364,49.0500903],[11.4013188,49.0499166],[11.4007479,49.0536207],[11.4076764,49.0537762],[11.4091011,49.050802],[11.4178669,49.0513066],[11.4181376,49.0521466],[11.420187,49.0514306],[11.4240293,49.0513701],[11.4266094,49.0517416],[11.4260002,49.0523819],[11.426359,49.0539148],[11.4256046,49.0554915],[11.4209972,49.0576832],[11.417796,49.0617289],[11.4117717,49.0631347],[11.4141915,49.0617173],[11.4126694,49.059181],[11.4081199,49.0600781],[11.4081269,49.0587045],[11.4039307,49.0586113],[11.4037261,49.0616212],[11.3997058,49.0615556],[11.3994718,49.0631951],[11.3988059,49.063181],[11.3987011,49.0652235],[11.3973727,49.0648887],[11.4003402,49.0664726],[11.3964491,49.06689],[11.396792,49.071865],[11.3933696,49.0722566],[11.3915011,49.0733308],[11.3915903,49.0741108],[11.3867355,49.0747673],[11.3889053,49.0785133],[11.3854907,49.0785147],[11.3838712,49.0773721],[11.3812581,49.0784229],[11.3836087,49.0820572],[11.3829959,49.0826778],[11.383501,49.0831373],[11.3815931,49.0843284],[11.380448,49.0833605],[11.3787476,49.0837735],[11.3781291,49.0846857],[11.378851,49.086827],[11.3771653,49.0888618],[11.373293,49.0893619],[11.3669175,49.0917473],[11.3659698,49.0904382],[11.3604955,49.0891156],[11.3596026,49.0896455],[11.3528921,49.0900006],[11.3524298,49.091728],[11.3553459,49.0929198],[11.3596475,49.0973584],[11.363546,49.0989909],[11.3681414,49.0994039],[11.3671993,49.0999702],[11.3615542,49.0992169],[11.3586234,49.1111401],[11.3592762,49.1111835],[11.3590294,49.1128591],[11.3568722,49.1127843],[11.3561974,49.1149121],[11.3537474,49.1155001],[11.3551719,49.1169692],[11.3525,49.117812],[11.3517583,49.1159683],[11.3502761,49.1153129],[11.3484926,49.1172267],[11.3456228,49.1168573],[11.3451625,49.1174938],[11.3395959,49.1163851],[11.3347774,49.116242],[11.3319079,49.1169713],[11.3252616,49.1173204],[11.3253085,49.1184178],[11.3238676,49.1181301],[11.3228827,49.1189672],[11.3249413,49.1195242],[11.3225768,49.1229012],[11.3257255,49.1239785],[11.3254411,49.1248941],[11.3242482,49.1261684],[11.3232737,49.1257778],[11.3211373,49.1279091],[11.3189816,49.1288667],[11.3207689,49.1306287],[11.321749,49.1331178],[11.3242487,49.1333033],[11.3235497,49.13494],[11.3241599,49.1382496],[11.324741,49.1383638],[11.3230651,49.1386585],[11.3237217,49.1399908],[11.3249971,49.1398462],[11.3252761,49.1405453],[11.3270486,49.1412911],[11.3277274,49.1431295],[11.3261012,49.1435626],[11.326643,49.1448159],[11.3257383,49.145137],[11.3255348,49.1463695],[11.3242391,49.1477345],[11.3243221,49.151278],[11.3259092,49.1540624],[11.3255171,49.1556276],[11.3250775,49.1554929],[11.3245593,49.1565407],[11.31921,49.1560429],[11.3189606,49.1580429],[11.3147005,49.15755],[11.3149751,49.1562171],[11.3126329,49.1558969],[11.3123785,49.1570146],[11.3115554,49.1568196],[11.3100887,49.1583949],[11.3094815,49.1615011],[11.3101296,49.1621211],[11.3110562,49.1618426],[11.3110911,49.163191],[11.3081634,49.1631191],[11.3124128,49.1734473],[11.3128164,49.1760102],[11.3135635,49.1760393],[11.313637,49.1782761],[11.3054412,49.1806006],[11.3055549,49.1821462],[11.2978382,49.1839953],[11.294458,49.1844624],[11.2901623,49.1817686],[11.289864,49.1825458],[11.2864886,49.1827651],[11.2872136,49.183124],[11.287217,49.1869033],[11.2865369,49.1873728],[11.2783022,49.1870702],[11.2751633,49.1874568],[11.2745837,49.1889192],[11.2692695,49.1886433],[11.2703147,49.192136],[11.2716821,49.1919198],[11.2715814,49.1962012],[11.2653823,49.1957407],[11.263876,49.1970546],[11.2622465,49.1966393],[11.2621766,49.2006489],[11.2663703,49.2013213],[11.2657798,49.2081519],[11.2631837,49.2089606],[11.2630796,49.2080378],[11.2618786,49.2083218],[11.2619703,49.2101551],[11.2627995,49.2114636],[11.2648811,49.2109801],[11.2918668,49.2105299],[11.3028449,49.2073817],[11.3118876,49.2071326],[11.3121649,49.2096651],[11.3143113,49.2092462],[11.3180807,49.2070055],[11.3199188,49.2029137],[11.3222868,49.2027883],[11.3197503,49.2069306],[11.3192322,49.2096825],[11.3147291,49.2144849],[11.313566,49.2148811],[11.3108321,49.2140913],[11.3077242,49.2192292],[11.3064343,49.2187397],[11.3028748,49.2209614],[11.3050711,49.2215823],[11.3028186,49.2234584],[11.3035856,49.2238873],[11.3013092,49.2255199],[11.2999091,49.2288386],[11.2961321,49.2315939],[11.2928445,49.2359349],[11.2942728,49.2383191],[11.295114,49.2375408],[11.2990304,49.2391234],[11.2990737,49.239928],[11.3034258,49.2437269],[11.3011036,49.2449643],[11.2964223,49.2498019],[11.2900805,49.2503566],[11.2900549,49.2512238],[11.2917177,49.2512184],[11.2916935,49.2520516],[11.2908317,49.2527856],[11.2889297,49.2530214],[11.2890721,49.2535868],[11.2877749,49.2543223],[11.288204,49.2550454],[11.2919356,49.2562527],[11.2921739,49.2569083],[11.2901543,49.2569174],[11.2899744,49.2577089],[11.2865603,49.2574911],[11.2882668,49.2600666],[11.2858202,49.260782],[11.2833471,49.2568925],[11.2822682,49.2566638],[11.2816507,49.2540598],[11.2792792,49.254547],[11.277565,49.2533875],[11.2756582,49.2542344],[11.2761946,49.2553796],[11.273035,49.257497],[11.2761525,49.2578217],[11.2773105,49.2596073],[11.2750229,49.2603791],[11.2727986,49.2602678],[11.2721836,49.2609692],[11.2697753,49.261533],[11.2683983,49.2604466],[11.264036,49.2605626],[11.2678051,49.2631737],[11.2691741,49.2650784],[11.2757539,49.2674236],[11.2773079,49.2677475],[11.2881804,49.2646795],[11.2910466,49.2651711],[11.2920371,49.2670137],[11.2904588,49.2676453],[11.2850307,49.2672717],[11.2881773,49.2681315],[11.2886361,49.2690352],[11.2849209,49.2704288],[11.2817037,49.2697892],[11.284074,49.2709855],[11.2838031,49.2720001],[11.2800011,49.2731541],[11.2751111,49.2729412],[11.2745955,49.2738675],[11.2599281,49.2738803],[11.2513159,49.2721121],[11.2483882,49.27107],[11.2477377,49.2696877],[11.2464493,49.2694642],[11.2410556,49.2714171],[11.2388484,49.2760943],[11.2318082,49.2761236],[11.2315898,49.2773853],[11.2270298,49.2786122],[11.2265608,49.2770068],[11.2278903,49.2766802],[11.2274091,49.2744871],[11.226164,49.2752966],[11.2248543,49.2748555],[11.2223242,49.2752871],[11.2225401,49.2756512],[11.2214286,49.2757068],[11.2196022,49.2770072],[11.2159452,49.2766778],[11.2163364,49.2783127],[11.2142833,49.2768494],[11.2152464,49.2742339],[11.2086645,49.2737249],[11.2049187,49.2742941],[11.203012,49.2766836],[11.20544,49.2796734],[11.2085492,49.2815812],[11.2084569,49.2825315],[11.2103425,49.283195],[11.2151823,49.2873386],[11.2147497,49.2882364],[11.2164658,49.2885034],[11.2154306,49.2916006],[11.2156852,49.2924141],[11.2067133,49.2921476],[11.2026687,49.2906076],[11.1979266,49.2900653],[11.1955561,49.2928062],[11.1927397,49.2938121],[11.1875893,49.297387],[11.1859187,49.3003027],[11.1890215,49.300565],[11.1883625,49.3048364],[11.1908651,49.3046304],[11.1966769,49.3057595],[11.2024459,49.3055162],[11.2072656,49.3088613],[11.2072937,49.3095043],[11.2081891,49.3087405],[11.2085594,49.3090971],[11.2080506,49.3118012],[11.2130079,49.3123575],[11.2197257,49.3153664],[11.2198653,49.3159268],[11.2275454,49.3147539],[11.2333694,49.3128911],[11.2434311,49.3066205],[11.2500329,49.3083117],[11.2513062,49.308856],[11.2513093,49.3145824],[11.2518385,49.3161155],[11.2467721,49.3185626],[11.2438266,49.318522],[11.2400774,49.3198167],[11.2390127,49.3209582],[11.2401562,49.3233246],[11.2406704,49.3230916],[11.2408759,49.324531],[11.2456421,49.3244689],[11.246896,49.3246998],[11.2468304,49.3252037],[11.2571061,49.3237704],[11.2665765,49.3247434],[11.2656628,49.3220522],[11.2719826,49.3224367],[11.2733768,49.3202422],[11.2743133,49.3207795],[11.2748947,49.3189263],[11.277206,49.3182947],[11.2770705,49.3166672],[11.2763907,49.3162122],[11.2779218,49.3153577],[11.273454,49.3138522],[11.2733388,49.312982],[11.2832767,49.3145687],[11.2907134,49.3131698],[11.2916463,49.3150501],[11.289713,49.3157107],[11.291257,49.3160165],[11.2928026,49.3172279],[11.2987955,49.3138516],[11.302091,49.3130946],[11.3030844,49.31124],[11.3030989,49.309781],[11.3042952,49.3095423],[11.3039864,49.3087522],[11.3106048,49.309429],[11.3169591,49.3087089],[11.3236233,49.3051471],[11.326204,49.3025198],[11.3270102,49.3025536],[11.3272685,49.3034117],[11.3271589,49.3058926],[11.3286221,49.3063581],[11.3281312,49.3069363],[11.3287676,49.3072533],[11.3299725,49.3068061],[11.3290399,49.3034797],[11.3316016,49.3021221],[11.3351108,49.3029756],[11.3344777,49.3046509],[11.3356245,49.3041257],[11.336475,49.3055047],[11.3341413,49.3054201],[11.3333042,49.3083197],[11.3393599,49.309442],[11.339868,49.3123594],[11.3426749,49.3111356],[11.3448767,49.314051],[11.3460899,49.3145803],[11.3449257,49.315285],[11.3455654,49.317575],[11.3450962,49.3195691],[11.3487961,49.3177732],[11.3521963,49.3189469],[11.3593994,49.3184177],[11.3601257,49.3187095],[11.3599374,49.3193417],[11.367744,49.3213868],[11.3674655,49.3221522],[11.3629685,49.3233093],[11.3644948,49.3247975],[11.364402,49.326161],[11.370778,49.3270068],[11.3728942,49.3261477],[11.3721009,49.3255396],[11.3731846,49.3247167],[11.3753101,49.3255096],[11.3767166,49.3248039],[11.3818754,49.3260699],[11.381926,49.327226],[11.3829812,49.3277196],[11.3808743,49.3305819],[11.3798066,49.3310361],[11.385235,49.3335219],[11.386864,49.3362041],[11.3866592,49.3381595],[11.3896583,49.3389392],[11.38935,49.3408773],[11.3901547,49.3409177],[11.3900378,49.3419328],[11.3853777,49.3422805],[11.3846032,49.3433823],[11.3848232,49.3440677],[11.3826534,49.3448027],[11.3825513,49.3456445],[11.3807458,49.3452106],[11.3792768,49.3469237],[11.377153,49.3475811],[11.3759731,49.3492842],[11.3782961,49.35161],[11.3740459,49.3533025],[11.3742295,49.3542976],[11.3724489,49.3548773],[11.3711134,49.3571264],[11.3726965,49.3569376],[11.3771551,49.3588138],[11.3786908,49.3560096],[11.3761835,49.3542279],[11.378729,49.3532414],[11.3836156,49.3561113],[11.3848488,49.3583943],[11.3876021,49.3567174],[11.3937891,49.3567795],[11.3974288,49.3626992],[11.3981357,49.3625432],[11.3991843,49.3643656],[11.404982,49.3635712],[11.4048258,49.3641507],[11.4063962,49.3652791],[11.4062878,49.3669267],[11.3944808,49.3700484],[11.3969934,49.3704121],[11.3989297,49.3723751],[11.4023424,49.3744409],[11.4067134,49.3735199],[11.4075219,49.3720227],[11.4096873,49.3719176],[11.4121176,49.3746132],[11.4174171,49.3753724],[11.4171997,49.3758268],[11.4192934,49.3754931],[11.4207976,49.3759437],[11.4197524,49.3781036],[11.4204488,49.3781939],[11.4205938,49.3807358],[11.4200725,49.3815255],[11.4194366,49.3814354],[11.4189911,49.3833999],[11.4202862,49.3841504],[11.4197199,49.3858519],[11.4278328,49.3897541],[11.4256153,49.3910956],[11.4225831,49.3916846],[11.4233045,49.3927813],[11.4321324,49.3954574],[11.4356118,49.3959298],[11.4381145,49.3955726],[11.4371963,49.3971179],[11.4403246,49.3984519],[11.4398635,49.400223],[11.4382432,49.3999683],[11.4381177,49.4005121],[11.4400331,49.4014749],[11.4429645,49.4013943],[11.4431904,49.4031267],[11.44426,49.4039225],[11.4427184,49.404443],[11.4439229,49.4058093],[11.4454428,49.406842],[11.4475465,49.4054529],[11.4551733,49.4095331],[11.460968,49.4113334],[11.4603221,49.4117301],[11.4612162,49.4120379],[11.4608502,49.4133581],[11.458883,49.4158061],[11.453909,49.4145309],[11.4530669,49.4163388],[11.4510915,49.4159679],[11.4511959,49.4139632],[11.4496924,49.4134102],[11.4493001,49.4143999],[11.4467133,49.4135369],[11.4479123,49.4151289],[11.445381,49.4139594],[11.4446898,49.4148907],[11.44615,49.4162168],[11.445638,49.4167548],[11.4489324,49.4181277],[11.4484439,49.419438],[11.4516536,49.4200643],[11.4485916,49.4217468],[11.4501006,49.4239564],[11.4490948,49.4264598],[11.4480622,49.427333],[11.4489091,49.4283122],[11.4520436,49.4287345],[11.4552897,49.4313159],[11.4587124,49.4325725],[11.4607158,49.4277336],[11.4604776,49.4260215],[11.4616264,49.422885],[11.4639037,49.4230558],[11.4645135,49.42188],[11.4673636,49.42332],[11.4680824,49.4229963],[11.4702633,49.4248786],[11.4756554,49.4257665],[11.4785755,49.4272405],[11.4825417,49.4270757],[11.4856831,49.4252414],[11.4870211,49.4220577],[11.4902034,49.4221404],[11.4917284,49.4190266],[11.4952058,49.4192489],[11.500639,49.41793],[11.5051151,49.4187172],[11.5093177,49.4172429],[11.5077034,49.4151157],[11.5088991,49.4146653],[11.5155612,49.4133447],[11.5249946,49.4134914],[11.5288264,49.4124967],[11.5299342,49.4107023],[11.5371888,49.4090717],[11.5388366,49.4089526],[11.5424028,49.4100912],[11.5429255,49.4109751],[11.5435246,49.4092236],[11.544921,49.4094926],[11.553246,49.4125354],[11.5546268,49.4148512],[11.5567717,49.4162134],[11.559072,49.4162754],[11.5578438,49.4188298],[11.5580676,49.4195476],[11.5573527,49.4199687],[11.5575885,49.4220421],[11.555496,49.4288492],[11.5566335,49.4304104],[11.5561232,49.4307956],[11.5572543,49.4319461],[11.5572922,49.4331346],[11.561585,49.4355286],[11.5626505,49.4380269],[11.5638647,49.4384856],[11.5644039,49.4400316],[11.5676013,49.4419253],[11.5678694,49.4429128],[11.5668749,49.4440619],[11.5683473,49.4456662],[11.5699852,49.4451908],[11.5736982,49.4477329],[11.5734031,49.448574],[11.5763546,49.4494791],[11.5766426,49.450464],[11.580258,49.452818],[11.581001,49.4539653],[11.58086,49.4562818],[11.5819069,49.4564608],[11.5826444,49.458328],[11.5900769,49.4639023],[11.5899476,49.4652851],[11.5920254,49.465667],[11.5924472,49.4680605],[11.5959187,49.4720961],[11.5956882,49.4733867],[11.5962137,49.4738407],[11.589018,49.4768534],[11.5888087,49.4790972],[11.5896014,49.4810724],[11.5907179,49.4809991],[11.5908581,49.4831187],[11.5919363,49.4835334],[11.5922947,49.4845375],[11.5912298,49.4851141],[11.5907244,49.4845469],[11.5880444,49.4845947],[11.589049,49.4857628],[11.5882575,49.4862617],[11.5858368,49.4851119],[11.5841805,49.486929],[11.5831161,49.4861905],[11.5837078,49.4857853],[11.5824904,49.4859956],[11.5816802,49.4869154],[11.5803198,49.4868895],[11.5796916,49.4852702],[11.5788347,49.4851135],[11.5778943,49.4867085],[11.5786077,49.4890659],[11.5739103,49.4889508],[11.5739356,49.4897456],[11.5752257,49.4901682],[11.5707992,49.4905748],[11.5663915,49.4943054],[11.5654024,49.4966564],[11.563762,49.4984462],[11.5639494,49.5000938],[11.5671087,49.5009974],[11.5667067,49.5022293],[11.5672728,49.5040568],[11.5641545,49.5035284],[11.5592427,49.5050023],[11.5552162,49.5049],[11.5548863,49.5040619],[11.5531786,49.5041259],[11.5443123,49.5060413],[11.5423763,49.5054171],[11.5375333,49.5054975],[11.5373128,49.5061773],[11.5363334,49.5061878],[11.5363416,49.507053],[11.5337394,49.5074367],[11.5349046,49.5102044],[11.5322716,49.5109763],[11.5344776,49.5138311],[11.5358426,49.5135245],[11.5385274,49.5150213],[11.5452256,49.5167907],[11.5436874,49.5175903],[11.5470527,49.5187018],[11.5471002,49.5206365],[11.548438,49.5210566],[11.5445403,49.5225238],[11.5442041,49.5243387],[11.5449457,49.5244622],[11.5447972,49.5249016],[11.5428711,49.5268485],[11.5444028,49.5279061],[11.5463853,49.5274821],[11.5463463,49.5292633],[11.5443717,49.5292809],[11.5455229,49.5302548],[11.5435407,49.5306195],[11.5438045,49.5312473],[11.5465103,49.5310274],[11.5456281,49.5321383],[11.5467897,49.5334055],[11.5447625,49.5336354],[11.5433456,49.534338],[11.5438716,49.5347391],[11.5434957,49.5354447],[11.5407321,49.5363687],[11.5418296,49.5369224],[11.5432523,49.539084],[11.5453819,49.5389317],[11.5463755,49.5378079],[11.5510732,49.5388086],[11.5498674,49.5404849],[11.5511677,49.5421602],[11.5493119,49.5433054],[11.5492045,49.544477],[11.5454304,49.5437731],[11.5446093,49.5442258],[11.5414346,49.5439265],[11.5400778,49.5445329],[11.5374039,49.5438848],[11.5363275,49.5447641],[11.5371483,49.5434085],[11.5367679,49.5425109],[11.5360201,49.5435247],[11.5313749,49.5446393],[11.5318271,49.545273],[11.5345301,49.5449662],[11.5349089,49.5455266],[11.5339174,49.5466809],[11.5213757,49.5465217],[11.5198592,49.547641],[11.5195264,49.5492932],[11.5149568,49.548513],[11.5135148,49.5493096],[11.5180685,49.5508789],[11.5177328,49.5515198],[11.5137594,49.5504843],[11.5117831,49.552174],[11.5119651,49.5528231],[11.510927,49.5532559],[11.513608,49.5547993],[11.5163579,49.5542589],[11.5139795,49.5551813],[11.5152803,49.5566098],[11.5134263,49.5564421],[11.5132093,49.5572459],[11.5197694,49.5581249],[11.5222575,49.5595958],[11.5271226,49.5597735],[11.5256709,49.5618342],[11.5270891,49.5620605],[11.5272579,49.5627751],[11.5250914,49.563366],[11.5307208,49.5650467],[11.5310453,49.5632679],[11.5341628,49.5625816],[11.5360015,49.5631964],[11.5360773,49.5625796],[11.5350595,49.5624027],[11.5359119,49.5622358],[11.5379252,49.5628595],[11.537734,49.5616801],[11.5422507,49.5597851],[11.5448461,49.5601633],[11.5484081,49.5627683],[11.5543337,49.5644531],[11.5532137,49.5675573],[11.5524968,49.5679284],[11.5532697,49.5685957],[11.5512831,49.5692636],[11.5511923,49.5706167],[11.54979,49.5703521],[11.5497495,49.571382],[11.5515775,49.573805],[11.552133,49.573663],[11.552041,49.5730334],[11.5558035,49.5730897],[11.5565115,49.5737754],[11.555657,49.5742148],[11.5559431,49.5746573],[11.5578923,49.575699],[11.561647,49.5761375],[11.5635076,49.5756855],[11.5653932,49.5771308],[11.5708774,49.5785027],[11.5706003,49.5790893],[11.576142,49.5790974],[11.5757975,49.5802976],[11.5743006,49.5813008],[11.5735308,49.5812807],[11.5734035,49.5798078],[11.5720394,49.5798638],[11.569247,49.5817133],[11.5694225,49.5826652],[11.567664,49.5827277],[11.5679532,49.5831181],[11.5647312,49.5849531],[11.56424,49.5864254],[11.5653172,49.5872609],[11.5641742,49.5874395],[11.5650013,49.5884443],[11.5643947,49.5894321],[11.566031,49.5899248],[11.567575,49.5915304],[11.5706101,49.592409],[11.57023,49.5930362],[11.5691181,49.592772],[11.5692894,49.593307],[11.5677026,49.5943373],[11.5674422,49.5960332],[11.5685688,49.5973687],[11.566365,49.5963729],[11.5653156,49.5971737],[11.5627411,49.5966042],[11.5623728,49.5958926],[11.563547,49.5958256],[11.5637027,49.5951326],[11.5594989,49.5937109],[11.5580804,49.5945106],[11.5577771,49.5957561],[11.5566684,49.5955855],[11.5583314,49.5962455],[11.560281,49.5959884],[11.559388,49.5965432],[11.5605644,49.5966621],[11.5600225,49.5983077],[11.5571488,49.5978572],[11.556259,49.5982753],[11.5559887,49.5991701],[11.5579051,49.6004429],[11.5573301,49.6009038],[11.55539,49.6002051],[11.5528773,49.600742],[11.5502105,49.6039489],[11.5516079,49.6057838],[11.5546547,49.6059374],[11.556069,49.6067018],[11.5564797,49.6055199],[11.5576378,49.605922],[11.5573382,49.6065417],[11.558807,49.6063183],[11.5589588,49.6051395],[11.5594073,49.6074432],[11.5623814,49.6068977],[11.5613592,49.6089658],[11.5628407,49.6094988],[11.5606024,49.6113539],[11.5604749,49.6124753],[11.5640678,49.6136602],[11.5673172,49.6123023],[11.567378,49.6132498],[11.5708027,49.6135068],[11.5711788,49.6144522],[11.5781559,49.6142985],[11.5785398,49.6147893],[11.5773444,49.6151727],[11.5770355,49.6160536],[11.5804291,49.6151406],[11.5809206,49.6169832],[11.5800745,49.6173519],[11.5805685,49.6186039],[11.5826542,49.6161297],[11.5849648,49.6150549],[11.5860568,49.6154475],[11.5912485,49.6115327],[11.5927249,49.6125345],[11.5943582,49.6160734],[11.5982988,49.6190449],[11.5999585,49.6222851],[11.6016272,49.6231781],[11.6010628,49.6227606],[11.5977906,49.6233075],[11.5985554,49.6245586],[11.5999298,49.6244476],[11.6011611,49.625396],[11.6010632,49.6260616],[11.600325,49.6266164],[11.5994186,49.6262364],[11.599643,49.6269926],[11.5974349,49.6314135],[11.5953404,49.6332675],[11.5960411,49.6336471],[11.5938892,49.6341387],[11.5938541,49.6361682],[11.5953195,49.636288],[11.5939338,49.6367254],[11.5931467,49.6386732],[11.5905537,49.6395547],[11.5893298,49.6413556],[11.5867094,49.6416927],[11.5851209,49.6431206],[11.582302,49.6422749],[11.5829013,49.6416586],[11.5827165,49.640568],[11.5802709,49.6408112],[11.5767185,49.6396122],[11.5733675,49.6406959],[11.5717903,49.6394819],[11.5713116,49.6401925],[11.5707985,49.6399463],[11.5699127,49.6416357],[11.5709158,49.6422571],[11.5705458,49.6429296],[11.5720762,49.6442089],[11.5735181,49.6444729],[11.5748126,49.6465285],[11.573967,49.647896],[11.5711537,49.6498801],[11.5681394,49.6500838],[11.5692403,49.6515179],[11.5633651,49.6557136],[11.5641768,49.6563267],[11.5628563,49.6582417],[11.5638256,49.6587113],[11.5630318,49.660057],[11.5648534,49.6616401],[11.5702467,49.6611914],[11.5718135,49.6619636],[11.5723451,49.6629381],[11.5753308,49.6634223],[11.5757227,49.6642599],[11.5734994,49.6657083],[11.5736211,49.6666547],[11.5728189,49.6677798],[11.5738193,49.6690821],[11.5712362,49.6697304],[11.567334,49.6723997],[11.5616097,49.6767686],[11.5601889,49.6786198],[11.5601162,49.6812722],[11.5645428,49.6845392],[11.5653397,49.6859816],[11.5630908,49.6873026],[11.56194,49.6889705],[11.5605227,49.6886226],[11.5595186,49.6893326],[11.5561359,49.6897045],[11.5514423,49.6918184],[11.5496681,49.691131],[11.546887,49.6918508],[11.5460472,49.6912293],[11.5439922,49.6924813],[11.543929,49.6947043],[11.5443809,49.6940736],[11.5477161,49.694593],[11.5477578,49.6953858],[11.5500036,49.6949928],[11.5520455,49.6957492],[11.5540653,49.6955353],[11.5545469,49.6965653],[11.5557967,49.6956838],[11.5566677,49.69695],[11.5594351,49.6961011],[11.559922,49.6964553],[11.5595366,49.6969735],[11.5604108,49.6962067],[11.560978,49.6967185],[11.5631198,49.6960867],[11.563134,49.6970334],[11.5605156,49.6985201],[11.5597853,49.6993488],[11.5598053,49.7006318],[11.558196,49.7014018],[11.5576193,49.7024848],[11.5585096,49.702915],[11.5584381,49.7037769],[11.5573963,49.704433],[11.5583734,49.7063385],[11.5597757,49.7059387],[11.5621253,49.7065202],[11.5608493,49.7073387],[11.5616411,49.7075412],[11.5612338,49.7090349],[11.5593372,49.7095706],[11.560946,49.7100417],[11.5603584,49.7106311],[11.5594401,49.7103176],[11.5598773,49.7108498],[11.5588753,49.711736],[11.5593687,49.7145652],[11.5588962,49.7145192],[11.5592294,49.7159071],[11.5587601,49.7160211],[11.5579105,49.7134503],[11.5587497,49.71334],[11.5578766,49.7120573],[11.5579208,49.7104409],[11.5603904,49.7085521],[11.5606306,49.706712],[11.558963,49.7069361],[11.5556331,49.7056247],[11.5550064,49.7042977],[11.5555629,49.7026009],[11.5578618,49.701697],[11.5609926,49.697529],[11.555469,49.6974069],[11.5503445,49.6958572],[11.5460949,49.6961516],[11.5414647,49.6943494],[11.5407445,49.6933237],[11.5465533,49.6904455],[11.547023,49.6896043],[11.550914,49.6894147],[11.5527766,49.6901635],[11.557555,49.6887944],[11.5573473,49.6893729],[11.5604031,49.6883659],[11.5607626,49.6875915],[11.5642138,49.6857306],[11.5635107,49.6852646],[11.5633617,49.6840798],[11.5585574,49.6817231],[11.5584931,49.67968],[11.5570208,49.6793712],[11.5572178,49.678833],[11.5556665,49.6774488],[11.5563805,49.6764773],[11.5583183,49.6760275],[11.5567792,49.674064],[11.5575706,49.6733806],[11.5568744,49.6734041],[11.5563716,49.6725149],[11.5609003,49.6711885],[11.5616863,49.6690096],[11.5638246,49.6672036],[11.5638224,49.6656687],[11.5647297,49.6644944],[11.5602627,49.6627413],[11.5573933,49.6598838],[11.5605014,49.6569438],[11.5575013,49.6551655],[11.5598493,49.6540526],[11.5601734,49.65124],[11.5606947,49.6508596],[11.5585333,49.6489401],[11.5597419,49.6486248],[11.5598479,49.6471149],[11.5572071,49.6465036],[11.5563753,49.6468441],[11.5575842,49.6442543],[11.5571296,49.6423176],[11.5529535,49.6433575],[11.550488,49.6423982],[11.5509038,49.6417247],[11.5504408,49.6406186],[11.5466633,49.640394],[11.5428691,49.6438628],[11.5423391,49.6434636],[11.54434,49.6415339],[11.5379496,49.6430403],[11.5387598,49.6439147],[11.5389906,49.6459142],[11.535655,49.6442989],[11.5372574,49.6437518],[11.5378882,49.6445862],[11.5372577,49.6430557],[11.5349154,49.6445069],[11.5342485,49.6437329],[11.5296811,49.6442243],[11.5290745,49.6446119],[11.5296256,49.6451387],[11.5283787,49.6459098],[11.5275032,49.6454104],[11.5272853,49.6461788],[11.524884,49.6466971],[11.5232917,49.6458451],[11.5218694,49.6469043],[11.5207651,49.6464677],[11.5202985,49.6470708],[11.5218349,49.6480458],[11.5214283,49.6482879],[11.519127,49.6475582],[11.5180302,49.6481284],[11.518514,49.6486379],[11.5147055,49.648943],[11.5139094,49.6497572],[11.5126655,49.6496395],[11.5117069,49.6485794],[11.5070294,49.647934],[11.5075234,49.6466871],[11.5022351,49.6470274],[11.500023,49.6485198],[11.4981861,49.6481987],[11.495891,49.646381],[11.4947805,49.646565],[11.4950343,49.647108],[11.4932529,49.6465729],[11.4933648,49.6456619],[11.4910346,49.6447672],[11.4914754,49.6429488],[11.4887266,49.6396686],[11.4862131,49.6403396],[11.4871329,49.6413124],[11.4868572,49.6417147],[11.4836541,49.6413661],[11.4838668,49.6419596],[11.4822203,49.6414607],[11.481005,49.6444913],[11.472822,49.6446033],[11.4721397,49.6434421],[11.4747217,49.640464],[11.4711046,49.639431],[11.4684125,49.6397972],[11.4685602,49.6386858],[11.4712797,49.6374066],[11.4708193,49.6371808],[11.4683266,49.6372649],[11.46054,49.6355082],[11.4611515,49.6332624],[11.4578266,49.6330731],[11.4583605,49.6326059],[11.4569351,49.6315797],[11.4573729,49.6307661],[11.4565103,49.6299143],[11.4599472,49.6296153],[11.4571989,49.6294034],[11.4574566,49.6283747],[11.4586957,49.6281833],[11.4562327,49.6269728],[11.4505981,49.6264978],[11.4493269,49.627514],[11.4455081,49.6263888],[11.444986,49.6271236],[11.4371215,49.6275738],[11.4313599,49.6288612],[11.4303253,49.6268119],[11.4295602,49.6274314],[11.4298049,49.6280799],[11.4289998,49.6280118],[11.428501,49.6267834],[11.4308158,49.6251462],[11.433094,49.6257882],[11.4311814,49.6245065],[11.4316693,49.6233744],[11.4293936,49.6227405],[11.431605,49.6187036],[11.428939,49.6165684],[11.429012,49.6147992],[11.4264739,49.6138511],[11.4253453,49.6157553],[11.4212819,49.6162005],[11.4200108,49.617689],[11.4158762,49.6201546],[11.4152406,49.6217682],[11.4133394,49.6215569],[11.4150648,49.6219882],[11.4142527,49.6260129],[11.4098193,49.6236613],[11.404416,49.6227475],[11.4023214,49.6229792],[11.3999406,49.6247999],[11.3978106,49.6249232],[11.3967539,49.6258574],[11.3961574,49.627437],[11.3990375,49.6287753],[11.398988,49.6301906],[11.3995565,49.630164],[11.3999026,49.6311839],[11.3976791,49.6313056],[11.3970173,49.6332689],[11.3974295,49.6336577],[11.3911493,49.6327278],[11.3908678,49.6333804],[11.3924455,49.6344544],[11.3919372,49.6344926],[11.3926852,49.6377337],[11.3937737,49.6385253],[11.3931842,49.6391727],[11.3939733,49.6401863],[11.3922377,49.64174],[11.3911959,49.6417667],[11.3944844,49.6425007],[11.3926333,49.6431971],[11.3897119,49.6461704],[11.3910186,49.6460648],[11.3919135,49.6470748],[11.3884526,49.6482875],[11.3894882,49.6500419],[11.3871199,49.6506853],[11.387625,49.6540996],[11.3845559,49.6538769],[11.381838,49.6548321],[11.381084,49.6553675],[11.3810987,49.6571587],[11.3798737,49.65869],[11.378393,49.6593294],[11.3738323,49.6580926],[11.3710066,49.6588236],[11.372425,49.6625259],[11.3746208,49.6636874],[11.3770946,49.6665348],[11.3774616,49.6685465],[11.3735741,49.6694459],[11.3695594,49.6664721],[11.3685021,49.666646],[11.3648847,49.6652147],[11.3612582,49.666604],[11.3557726,49.6648285],[11.3527853,49.6647426],[11.3516462,49.6626934],[11.3472991,49.660884],[11.3447368,49.6608669],[11.3412758,49.6571941],[11.3427418,49.6556324],[11.3407147,49.6531126],[11.3419408,49.6522134],[11.3411141,49.6522743],[11.3373733,49.6495678],[11.3358264,49.6492173],[11.335019,49.6475009],[11.3332189,49.6471052],[11.3326196,49.6450305],[11.3365369,49.6442227],[11.3366724,49.6432704],[11.3359274,49.6438562],[11.3341575,49.6437362],[11.3327328,49.6426587],[11.3332521,49.6416137],[11.3321291,49.639467],[11.3329426,49.6384523],[11.332231,49.6370952],[11.3247386,49.6370193],[11.3244911,49.6376009],[11.3228089,49.6376584],[11.3205951,49.636864],[11.3214217,49.6360641],[11.3242117,49.6368362],[11.3258875,49.6354569],[11.3217456,49.6357428],[11.3209267,49.6350879],[11.3197405,49.6355013],[11.3198605,49.6322622],[11.3160449,49.6322437],[11.314293,49.6340626],[11.3082628,49.6334207],[11.3061942,49.6316826],[11.3040555,49.6318076],[11.3018385,49.6302466],[11.3031863,49.6298997],[11.3020536,49.6293153],[11.2998975,49.630424],[11.2981353,49.6302421],[11.3001581,49.629452],[11.2989305,49.6279119],[11.2980666,49.6280406],[11.2969839,49.6266809],[11.2960844,49.6265714],[11.2965475,49.6237961],[11.2952881,49.6227159],[11.2998437,49.623075],[11.3003128,49.6209256],[11.299661,49.6209759],[11.2991631,49.6199719],[11.2969702,49.6208043],[11.2973807,49.6197603],[11.2966706,49.6176407],[11.2938161,49.6175198],[11.2939848,49.6169557],[11.292378,49.6160515],[11.2913102,49.617379],[11.2905349,49.6168669],[11.2882302,49.6171161],[11.2881539,49.6186436],[11.2871575,49.618627],[11.2859212,49.6130645],[11.2874831,49.611082],[11.2868385,49.6103566],[11.2865294,49.6070891],[11.2851706,49.6067472],[11.2851715,49.6054241],[11.2804911,49.6038422],[11.2775456,49.6063847],[11.2719324,49.6067728],[11.2708992,49.6066358],[11.2705833,49.6055571],[11.2699691,49.605534],[11.2640955,49.6069551],[11.2636879,49.6058903],[11.2595748,49.6050247],[11.2583499,49.6041227],[11.2604054,49.6027134],[11.2602131,49.6021877],[11.2581848,49.6009531],[11.257311,49.5988392],[11.2562063,49.5982894],[11.256138,49.5966855],[11.2529647,49.5947504],[11.2520741,49.5954609],[11.2526911,49.5970484],[11.2493726,49.5973727],[11.246638,49.5964518],[11.2459224,49.5969224],[11.2426519,49.5965307],[11.2412436,49.5973703],[11.241813,49.5984776],[11.2394507,49.5990091],[11.2344616,49.5985446],[11.2336051,49.5977389],[11.2329822,49.5977608],[11.2331296,49.5994405],[11.2306918,49.5991952],[11.2308712,49.5984528],[11.2302308,49.5985077],[11.2291737,49.601219],[11.228523,49.6012279],[11.2292528,49.6029748],[11.2267421,49.6032351],[11.2277472,49.6061923],[11.2254785,49.6064451],[11.2259552,49.6081924],[11.218112,49.6094602],[11.214905,49.6081087],[11.2155741,49.6071211],[11.2146205,49.6062069],[11.2158505,49.6043479],[11.2078955,49.601454],[11.2097571,49.5964833],[11.2088597,49.5961089],[11.2092442,49.595389],[11.2076276,49.5943625],[11.2008012,49.5923207],[11.1992169,49.591069],[11.1981184,49.5927472],[11.1941961,49.5908765],[11.1920009,49.5905631],[11.1900831,49.5903272],[11.1898574,49.5916748],[11.1860808,49.5911013],[11.1861682,49.5885816],[11.1853223,49.5893682],[11.1807912,49.5885508],[11.1802824,49.5873968],[11.1772674,49.5881109],[11.1779192,49.5889226],[11.1764048,49.5891896],[11.17588,49.5883015],[11.1738647,49.5891071],[11.1733199,49.5899753],[11.1706981,49.5892848],[11.1707292,49.5903146],[11.1695778,49.5905521],[11.168103,49.5903424],[11.1679944,49.5893301],[11.1666899,49.5901701],[11.1656206,49.5896226],[11.1660947,49.5887662],[11.1627883,49.588123],[11.162513,49.5886439],[11.161355,49.5883168],[11.1611764,49.5890403],[11.1598634,49.5891148],[11.1599049,49.589596],[11.1568793,49.5893654],[11.1569321,49.5902362],[11.1558836,49.590166],[11.1554058,49.5890612],[11.1550485,49.5904816],[11.1524363,49.588549],[11.15066,49.5888984],[11.150002,49.5882934],[11.1500819,49.5871618],[11.1493482,49.58841],[11.1474694,49.5883017],[11.1461094,49.588941],[11.1456806,49.5885277],[11.1443198,49.5892787],[11.1446808,49.5898611],[11.1422813,49.5900513],[11.1370827,49.5891437],[11.135574,49.5900056],[11.1337129,49.5891726],[11.13307,49.5901453],[11.131641,49.5899335],[11.1313086,49.5890272],[11.1295578,49.5896727],[11.1274102,49.5895462],[11.1276171,49.5890719],[11.1266495,49.5882964],[11.120975,49.589146],[11.1205293,49.5905646],[11.1174103,49.5890698],[11.1103067,49.5902592],[11.1105734,49.5894268],[11.1088421,49.5885057],[11.1093284,49.5919906],[11.1083963,49.5909231],[11.1082075,49.5915572],[11.1067431,49.5915564],[11.1074706,49.5941489],[11.1066478,49.5940697],[11.1054133,49.5975108],[11.1000502,49.5973079],[11.1071819,49.5997547],[11.1014351,49.6005787],[11.1008119,49.598782],[11.0996782,49.5987532],[11.0919906,49.6007505],[11.0875036,49.6000803],[11.0879634,49.60179],[11.0861702,49.6019951],[11.0836526,49.6060731],[11.0820445,49.6059408],[11.0815904,49.6070122],[11.0822233,49.6070636],[11.0821514,49.6076847],[11.0810694,49.6075435],[11.0808128,49.6080565],[11.0823994,49.6083256],[11.0817863,49.6095976],[11.0808715,49.6107029],[11.0799759,49.610755],[11.0799072,49.6124264],[11.0784226,49.6130777],[11.0761575,49.6159819],[11.0765693,49.6177873],[11.0757687,49.6199019],[11.0766297,49.6199452],[11.0762617,49.6209423],[11.0803967,49.6207945],[11.0805508,49.6219496],[11.0811397,49.6219528],[11.0813854,49.622948],[11.0787242,49.623612],[11.0799809,49.6243663],[11.0802419,49.6264626],[11.0699977,49.6279568],[11.0690234,49.6304224],[11.0681053,49.6311941],[11.0690144,49.6322786],[11.0682614,49.6328574],[11.068581,49.6332647],[11.0654779,49.6330457],[11.0656936,49.6341803],[11.0622557,49.6355663],[11.0605526,49.6378788],[11.0540318,49.6369899],[11.0539986,49.635972],[11.0553258,49.6345728],[11.0548163,49.6328915],[11.0508899,49.6340418],[11.0446315,49.6334243],[11.0449487,49.631608],[11.0441346,49.6305368],[11.0398091,49.6289997],[11.0402461,49.6277192],[11.038606,49.6262943],[11.0396267,49.6248598],[11.0378449,49.6236949],[11.0351597,49.6254133],[11.0273424,49.6260421],[11.0269719,49.6269712],[11.0248677,49.6273968],[11.0255531,49.6287907],[11.0244698,49.6291309],[11.0261971,49.6307547],[11.0213775,49.632801],[11.0267262,49.6365536],[11.0309718,49.6386034],[11.0347483,49.6379675],[11.0357644,49.6366877],[11.0381018,49.6365067],[11.0375475,49.6404249],[11.0381045,49.6403545],[11.0382833,49.64114],[11.0431522,49.6395768],[11.0432953,49.6407911],[11.0460902,49.6406254],[11.0468894,49.6416251],[11.04894,49.6416182],[11.0484194,49.6449983],[11.0462179,49.6463332],[11.047089,49.6478778],[11.0462164,49.64956],[11.0479463,49.6524328],[11.0510921,49.6523199],[11.0525499,49.6532594],[11.0568203,49.6541578],[11.0574828,49.6541456],[11.0577042,49.6534618],[11.0615674,49.6535192],[11.0633926,49.6603137],[11.0605568,49.6609238],[11.0608175,49.661372],[11.0601977,49.6615658],[11.0570108,49.6587592],[11.052466,49.6570901],[11.0512944,49.6582024],[11.0549532,49.6601771],[11.052649,49.6602372],[11.0532194,49.6610382],[11.0511354,49.6615469],[11.050794,49.6623025],[11.0482311,49.6616868],[11.0463384,49.662376],[11.0501989,49.6668752],[11.0462548,49.6679886],[11.0494359,49.6726206],[11.0480029,49.6729752],[11.0496038,49.6753019],[11.0519159,49.6759224],[11.0546166,49.6801114],[11.0534783,49.6807874],[11.0539859,49.6815082],[11.052449,49.6819914],[11.0516187,49.6810024],[11.049625,49.6808154],[11.0495603,49.6785085],[11.0478925,49.6771971],[11.0425387,49.6773453],[11.0420422,49.6762748],[11.0411863,49.6760268],[11.0414616,49.6753686],[11.0329704,49.6716181],[11.0319414,49.6730747],[11.0278044,49.670885],[11.0257489,49.6721284],[11.0247957,49.6716209],[11.0165782,49.671786],[11.011756,49.6740595],[11.0057382,49.6735875],[11.0038019,49.6739615],[11.004423,49.6753938],[11.009476,49.6752791],[11.0093543,49.6765636],[11.0099033,49.6769899],[11.0094428,49.6774116],[11.0099309,49.6777199],[11.0133602,49.6772163],[11.013423,49.6803775],[11.0157319,49.6809373],[11.015018,49.6837766],[11.0133938,49.6845944],[11.0095289,49.6852097],[10.9927502,49.6821725],[10.9913581,49.6835865],[10.9880171,49.6821844],[10.987649,49.6815076],[10.9868292,49.6817127],[10.986767,49.6824798],[10.983186,49.6820867],[10.9820273,49.6824748],[10.9817736,49.6832401],[10.980478,49.6832924],[10.9736234,49.6805945],[10.972275,49.6818213],[10.9766497,49.6841348],[10.9738115,49.6874537],[10.973635,49.6889271],[10.97281,49.6898454],[10.9743058,49.6912578],[10.9733068,49.6919783],[10.9705903,49.6904771],[10.968812,49.6909342],[10.9685933,49.6915309],[10.9610761,49.6922703],[10.9467839,49.6972912],[10.9381371,49.6991794],[10.9386451,49.6997204],[10.9333843,49.700303],[10.9296155,49.703279],[10.9271679,49.7072085],[10.9220226,49.706916],[10.923392,49.7088237],[10.9227593,49.7089227],[10.9231929,49.7103682],[10.9245292,49.7114289],[10.9230334,49.7117725],[10.9227159,49.7141731],[10.9280499,49.7125424],[10.9315036,49.7105908],[10.9327915,49.7090936],[10.9332891,49.710487],[10.9312396,49.7128206],[10.9304575,49.7150612],[10.9320605,49.7150582],[10.933768,49.7139235],[10.9333772,49.7136079],[10.9367047,49.7125455],[10.937583,49.7131115],[10.9379502,49.7145376],[10.941031,49.7140764],[10.9445354,49.7114402],[10.9453202,49.7116815],[10.9439088,49.7137454],[10.9447866,49.7134782],[10.9449492,49.714343],[10.941565,49.715507],[10.9401684,49.7151904],[10.9388306,49.7161921],[10.9403595,49.7163449],[10.9506382,49.7130121],[10.9499997,49.7144389],[10.9515959,49.7146339],[10.9557531,49.7118602],[10.9566379,49.712824],[10.9585624,49.7131167],[10.9595681,49.7152762],[10.9624247,49.7168094],[10.9547657,49.7186855],[10.9512278,49.7175997],[10.9516129,49.7182156],[10.948194,49.7196243],[10.9488609,49.71997],[10.9477781,49.7203705],[10.9485066,49.721871],[10.9461134,49.7225591],[10.9448693,49.7244829],[10.9432678,49.7254033],[10.9412245,49.7294162],[10.9386882,49.727728],[10.934734,49.7267269],[10.9335307,49.7264955],[10.9328728,49.7274922],[10.9306919,49.7268379],[10.9300975,49.7278734],[10.9324104,49.728695],[10.9305596,49.7304922],[10.9284534,49.729706],[10.926571,49.7314025],[10.9270879,49.7317864],[10.9260549,49.7330139],[10.9235996,49.7348174],[10.9251434,49.7356171],[10.9221317,49.736509],[10.9205599,49.7379069],[10.9219172,49.7377265],[10.9214406,49.7386923],[10.9234639,49.7383807],[10.9237292,49.7388263],[10.9216207,49.7424554],[10.9209639,49.7422119],[10.9190357,49.7432357],[10.9265638,49.7458028],[10.9273953,49.7464535],[10.9265553,49.7469996],[10.9264512,49.7481192],[10.930908,49.7473889],[10.9312065,49.7483887],[10.9348436,49.7478296],[10.9350403,49.7485164],[10.9317693,49.7490428],[10.9323218,49.7498795],[10.931628,49.7507532],[10.9331443,49.7512011],[10.9303569,49.7519263],[10.9305889,49.7525099],[10.9329249,49.7523127],[10.9341607,49.7551932],[10.9310425,49.7575099],[10.9319145,49.7593659],[10.9276996,49.7611702],[10.927761,49.7620046],[10.9248831,49.7613893],[10.9246155,49.7627843],[10.9217514,49.7615912],[10.9143742,49.7617925],[10.9131407,49.7639631],[10.9134425,49.7653803],[10.9154949,49.7655258],[10.9153663,49.7635445],[10.9211072,49.7630978],[10.9231146,49.7656949],[10.9258436,49.763834],[10.9320956,49.76617],[10.9308709,49.7676959],[10.9260912,49.7676999],[10.9254818,49.7680546],[10.9256699,49.7695626],[10.9187219,49.7722415],[10.9196996,49.7727796],[10.9186768,49.7736694],[10.9192793,49.7748717],[10.9172522,49.7757032],[10.9168413,49.7772648],[10.9206237,49.7803136],[10.9302635,49.7829876],[10.93065,49.7842215],[10.9324855,49.7852188],[10.932089,49.7855346],[10.9290238,49.7853416],[10.927829,49.7838687],[10.92613,49.784942],[10.9253304,49.7844638],[10.9208761,49.7853585],[10.9154193,49.7823342],[10.9148051,49.7802166],[10.9128444,49.7799315],[10.9118621,49.7813407],[10.9085137,49.7810515],[10.9081999,49.7801325],[10.9064158,49.7806313],[10.9065246,49.7796215],[10.8998573,49.7783262],[10.9004814,49.777549],[10.8992919,49.7770423],[10.9006277,49.7751887],[10.9042066,49.773809],[10.9037015,49.7734948],[10.8988327,49.7725257],[10.8951764,49.775757],[10.8936871,49.7762631],[10.8909413,49.7758541],[10.8910427,49.774586],[10.8878128,49.7735868],[10.8875162,49.7740425],[10.8785834,49.7729058],[10.875504,49.771443],[10.8705506,49.7706192],[10.8701086,49.7690384],[10.8711248,49.7691655],[10.8718212,49.7677814],[10.8776116,49.7664879],[10.8770436,49.7658985],[10.8777256,49.765788],[10.8776557,49.7637868],[10.8764978,49.7631904],[10.8755912,49.7606221],[10.8766975,49.7605575],[10.8782059,49.759024],[10.8787215,49.7574294],[10.877562,49.7571481],[10.8778858,49.7563765],[10.8713963,49.7548369],[10.8701534,49.7575286],[10.8658382,49.7564077],[10.8649566,49.7585063],[10.8610865,49.7577222],[10.8603714,49.7590679],[10.8564801,49.7587788],[10.8538956,49.7554115],[10.8459029,49.7554106],[10.841878,49.7533448],[10.8365792,49.7523714],[10.8327449,49.7493703],[10.8289888,49.7495691],[10.8256387,49.7452834],[10.8259131,49.744184],[10.8254599,49.7438145],[10.8269653,49.7432711],[10.8273127,49.7423943],[10.8231733,49.7407024],[10.8132022,49.7381303],[10.8096813,49.7392415],[10.8096911,49.7383521],[10.8035582,49.7378205],[10.8030477,49.7406419],[10.801247,49.7413881],[10.8013169,49.742188],[10.7998464,49.7419936],[10.8004883,49.7423715],[10.8001486,49.7458046],[10.801001,49.7478851],[10.7994587,49.7491078],[10.7974492,49.7490746],[10.7952333,49.7501801],[10.7925471,49.7501118],[10.794639,49.7518585],[10.7934617,49.7540398],[10.7918881,49.7540906],[10.7913314,49.7548097],[10.789768,49.754524],[10.7894956,49.7570569],[10.7842106,49.7613942],[10.7836533,49.7626863],[10.7804172,49.7624154],[10.7790153,49.7650681],[10.7764046,49.7659028],[10.7757809,49.7673349],[10.7692011,49.7664309],[10.7689363,49.7675003],[10.7649051,49.7675018],[10.7636464,49.768895],[10.7642073,49.7694786],[10.7614488,49.7694859],[10.7610685,49.7704207],[10.7603487,49.7704398],[10.76179,49.7712015],[10.7582256,49.7709511],[10.7578225,49.7725104],[10.7491949,49.7725569],[10.7473902,49.7735038],[10.7480672,49.7741456],[10.7472841,49.7746186],[10.7393419,49.7775578],[10.7366784,49.7797797],[10.7371606,49.7801542],[10.7364,49.7809266],[10.732358,49.7834548],[10.7310625,49.7839419],[10.7292756,49.7835804],[10.7266308,49.7854016],[10.7244188,49.7850161],[10.7207379,49.7882496],[10.7150221,49.7879161],[10.7155698,49.7842794],[10.7135178,49.7835836],[10.7133205,49.7829955],[10.7156395,49.7801397],[10.7107291,49.7764546],[10.7059928,49.7767898],[10.7047694,49.7781202],[10.6974658,49.7759296],[10.6911622,49.7713232],[10.6862374,49.7697293],[10.6808736,49.766848],[10.6811396,49.7663957],[10.6796482,49.7644104],[10.6772721,49.7643356],[10.6761316,49.7622931],[10.675253,49.7626085],[10.6759532,49.7596521],[10.6722028,49.7586429],[10.6717813,49.7567121],[10.675448,49.7550555],[10.6775665,49.7551821],[10.6779686,49.7543291],[10.6802136,49.7549164],[10.6806617,49.7524463],[10.6844115,49.7532475],[10.685351,49.7520505],[10.6882649,49.7520651],[10.6885486,49.7486679],[10.6890928,49.7487685],[10.6891507,49.7474077],[10.6912254,49.745509],[10.6983723,49.746529],[10.6983565,49.7472784],[10.6995429,49.746991],[10.7041207,49.7483602],[10.7044475,49.747431],[10.7079476,49.7474489],[10.7063316,49.7446196],[10.7064905,49.7422749],[10.7028899,49.7407676],[10.7043737,49.7384207],[10.7012209,49.7355266],[10.7034546,49.7367586],[10.70478,49.7351656],[10.7018397,49.731552],[10.6921112,49.7316583],[10.6914566,49.7322743],[10.6867901,49.7319971],[10.6845991,49.7305801],[10.6760454,49.7299475],[10.6762684,49.7295118],[10.6696767,49.7271645],[10.6698657,49.7265336],[10.6690764,49.7261823],[10.6696767,49.7233596],[10.6709311,49.7232861],[10.6712333,49.7223659],[10.6604564,49.7224924],[10.6543186,49.721094],[10.6537282,49.722835],[10.650909,49.7257127],[10.644969,49.7301618],[10.6443174,49.731595],[10.6420613,49.7325928],[10.6429351,49.7352957],[10.6418433,49.7359304],[10.6431618,49.7369532],[10.6405015,49.738884],[10.6399075,49.739776],[10.640713,49.7398924],[10.6404522,49.7403598],[10.6392759,49.740428],[10.6388185,49.7416264],[10.6365742,49.740961],[10.6313125,49.7376817],[10.6306484,49.7384693],[10.6319626,49.73877],[10.6318719,49.7393348],[10.6300058,49.7401011],[10.6269914,49.7393701],[10.6181897,49.7389805],[10.6086984,49.7410809],[10.6046035,49.7413396],[10.6039179,49.7428553],[10.6026591,49.7435382],[10.5919783,49.7448868],[10.5888084,49.7446123],[10.5850407,49.7487707],[10.5793744,49.7485094],[10.5768685,49.7499589],[10.5761983,49.7510615],[10.559429,49.7525698],[10.5561219,49.7533853],[10.5519193,49.7554403],[10.5469151,49.7565588],[10.5437236,49.7554294],[10.5437391,49.7538284],[10.5398783,49.7530781],[10.5366827,49.7537713],[10.5317263,49.7527833],[10.5280417,49.7531884],[10.527199,49.7533504],[10.5266095,49.7554387],[10.5077884,49.751832],[10.4962607,49.7532203],[10.4941286,49.7496332],[10.4935558,49.7498966],[10.4922004,49.7489224],[10.4935859,49.7473664],[10.4948686,49.747332],[10.4913053,49.7427839],[10.4896608,49.7434392],[10.4790104,49.7446084],[10.4643261,49.7413193],[10.4637359,49.7405372],[10.4557401,49.744868],[10.4498511,49.7457122],[10.4466455,49.7482306],[10.4379368,49.7502855],[10.4356524,49.7502091],[10.4350092,49.7495074],[10.4354714,49.7476266],[10.4346565,49.7465665],[10.4301582,49.7438346],[10.4303669,49.7423371],[10.4271284,49.7412016],[10.4275932,49.7396305],[10.4271195,49.7379514],[10.4251234,49.7378867],[10.4238187,49.7362847],[10.4229695,49.7362804],[10.4218603,49.7337112],[10.4227355,49.7321741],[10.4222029,49.731296],[10.4189838,49.7318995],[10.4180611,49.7308739],[10.4163284,49.7312182],[10.4166136,49.7326571],[10.4182461,49.7355551],[10.4193704,49.7401776],[10.4209207,49.7424425],[10.4200386,49.7436033],[10.4211022,49.7436983],[10.4216676,49.7450885],[10.4209981,49.7453043],[10.4197815,49.7441128],[10.4200555,49.742682],[10.4177826,49.7401566],[10.4153191,49.7422756],[10.4115017,49.7430593],[10.4109605,49.7422763],[10.4122999,49.7419352],[10.4076453,49.7385221],[10.407109,49.7365152],[10.4014057,49.7346612],[10.3988439,49.7349958],[10.397362,49.7325451],[10.3960752,49.7331514],[10.3953015,49.732715],[10.3961607,49.7320779],[10.3940929,49.731675],[10.3928884,49.7291907],[10.3769455,49.7231765],[10.3757112,49.7215162],[10.3737032,49.7207298],[10.3720911,49.7182808],[10.3741506,49.7167523],[10.3723542,49.7136393],[10.3713766,49.7139182],[10.3703793,49.7126448],[10.3707869,49.7124847],[10.3699146,49.7120235],[10.3700925,49.7113996],[10.3524232,49.7055108],[10.3538152,49.7034914],[10.3506502,49.7022216],[10.3538158,49.7008931],[10.3528678,49.6999686],[10.3508988,49.7003154],[10.350275,49.6998477],[10.3484092,49.7008016],[10.3435384,49.7003404],[10.3420498,49.7045955],[10.3387582,49.7042274],[10.3388703,49.7029108],[10.3361534,49.6999454],[10.3328099,49.6983527],[10.3365358,49.6973907],[10.339317,49.6977595],[10.3409025,49.6956944],[10.3463342,49.6945509],[10.3550304,49.694551],[10.3557506,49.6940689],[10.3535089,49.6936212],[10.3538495,49.6928616],[10.3596562,49.6923587],[10.3618447,49.6909526],[10.3636416,49.6911798],[10.3633577,49.6929695],[10.365611,49.6933997],[10.3677747,49.6904487],[10.3730277,49.6907699],[10.3755765,49.6915268],[10.3761918,49.6909385],[10.3825752,49.6940331],[10.3822743,49.6926128],[10.3808308,49.6918161],[10.3834252,49.6908355],[10.3872946,49.6907373],[10.3866942,49.6886891],[10.3871349,49.6879755],[10.3852346,49.6849558],[10.3798256,49.6851534],[10.3773151,49.6846529],[10.3764248,49.6837241],[10.375324,49.6855656],[10.3776985,49.6879304],[10.3755386,49.6892008],[10.3732257,49.6885157],[10.373494,49.6868053],[10.3694179,49.6861504],[10.3688582,49.6840439],[10.3668771,49.6832331],[10.3680385,49.682135],[10.3676351,49.6813091],[10.3631044,49.6796264],[10.3626147,49.6805503],[10.3601534,49.6807475],[10.3588225,49.6782481],[10.3577442,49.6775542],[10.360709,49.6777762],[10.3679854,49.6720327],[10.3676337,49.6693354],[10.368994,49.6675648],[10.3675849,49.6669321],[10.3653629,49.6671528],[10.3627051,49.6658529],[10.3626302,49.6653003],[10.3680175,49.6632286],[10.3662217,49.6618099],[10.3692648,49.6589618],[10.3698251,49.6576208],[10.3731476,49.654384],[10.379228,49.6504031],[10.3801631,49.6489265],[10.3804084,49.6462361],[10.3820226,49.6440797],[10.3817167,49.6419052],[10.3830953,49.6391046],[10.3848793,49.6362491],[10.3879404,49.6345606],[10.3877651,49.6340039],[10.3869166,49.634303],[10.3741049,49.6314442],[10.3649623,49.6319653],[10.3615333,49.6299802],[10.3610812,49.6276182],[10.3600052,49.625999],[10.355547,49.6243707],[10.3524928,49.6240513],[10.3482713,49.6222766],[10.3419216,49.6233021],[10.3342261,49.6228432],[10.3298777,49.6238193],[10.3256469,49.6227423],[10.3247199,49.625256],[10.3135113,49.6251527],[10.3097089,49.6247701],[10.3080282,49.622691],[10.3081369,49.6210732],[10.3064886,49.6212019],[10.3036428,49.6234961],[10.3023875,49.6265548],[10.3012986,49.6271654],[10.2966147,49.6243639],[10.2929968,49.62568],[10.2881109,49.6210108],[10.2827704,49.6190911],[10.2811061,49.6193213],[10.2787205,49.6209555],[10.2739801,49.6225439],[10.2692668,49.6251971],[10.2671165,49.6241429],[10.2640573,49.6248204],[10.2552298,49.6248624],[10.2535479,49.6255143],[10.2493331,49.6252287],[10.2441419,49.6272495],[10.2434249,49.6269915],[10.238684,49.629646],[10.2386113,49.6292356],[10.2279076,49.6297528],[10.2215953,49.6327795],[10.2193559,49.6328819],[10.2194116,49.6314166],[10.2122623,49.6314382],[10.2115234,49.6311649],[10.211305,49.6299125],[10.2097913,49.6296849],[10.2096423,49.630693],[10.2083488,49.6303468],[10.208545,49.629591],[10.2075442,49.6293245],[10.207782,49.6283735],[10.2003016,49.6257767],[10.2004347,49.6248107],[10.1996426,49.6241194],[10.1998047,49.6204308],[10.2003125,49.6187146],[10.2013571,49.6177963],[10.201918,49.6147942],[10.1999047,49.6028228],[10.1956679,49.6031669],[10.1958174,49.5998674],[10.1925516,49.6001514],[10.1912676,49.60164],[10.1900314,49.600997],[10.1885382,49.6015273],[10.1881257,49.6009047],[10.1796813,49.598108],[10.1788484,49.5981178],[10.1786566,49.5994054],[10.1750229,49.5993539],[10.1749216,49.5954197],[10.1742011,49.595483],[10.172182,49.5876517],[10.1577942,49.5941052],[10.1571602,49.5993066],[10.1553926,49.5991175],[10.1539712,49.6034919],[10.1516772,49.6035447],[10.1516953,49.6047458],[10.1507392,49.6045019],[10.1493194,49.606582],[10.1498142,49.606719],[10.1479609,49.6087567],[10.149875,49.6093246],[10.148524,49.6117739],[10.1462419,49.6113409],[10.1454484,49.6125144],[10.1438152,49.6118936],[10.1423182,49.612181],[10.141856,49.6112268],[10.1400231,49.6115621],[10.1362824,49.6107105],[10.1363554,49.6116618],[10.1321649,49.6111961],[10.1308862,49.613089],[10.1283862,49.6126351],[10.126684,49.6147051],[10.1242595,49.6141359],[10.1164461,49.6213179],[10.1134377,49.6208047],[10.1126933,49.6216514],[10.1106211,49.6209856],[10.110266,49.6214667],[10.102191,49.6202344],[10.1024629,49.619446],[10.0995546,49.6190781],[10.1002449,49.6175365],[10.0975446,49.6170502],[10.0992686,49.6125254],[10.0898765,49.6109758],[10.0907841,49.6076624],[10.0867863,49.6079602],[10.0872486,49.6053708],[10.0858293,49.6052903],[10.0863728,49.6026785],[10.0821781,49.6023547],[10.0829985,49.5984323],[10.0747978,49.5963317],[10.0760034,49.5948244],[10.0731216,49.5934364],[10.0709543,49.5935026],[10.0695475,49.5924831]],[[10.8734848,49.7411659],[10.8743083,49.7419146],[10.8762622,49.7420429],[10.876813,49.7408938],[10.8754693,49.7405291],[10.8752703,49.7411428],[10.8734848,49.7411659]],[[10.8775532,49.7419204],[10.8778413,49.7429838],[10.8801531,49.7428557],[10.8799202,49.7433349],[10.8809177,49.7438564],[10.883009,49.7428486],[10.882309,49.7422422],[10.8831175,49.741878],[10.8887211,49.7417115],[10.8911904,49.7411033],[10.8918212,49.7402992],[10.8936123,49.7403118],[10.8935406,49.7383751],[10.8933525,49.7376306],[10.8881983,49.7388733],[10.8841779,49.7380119],[10.8822794,49.7384707],[10.8831899,49.7395925],[10.8805633,49.7414483],[10.8777746,49.7413231],[10.8775532,49.7419204]]]}}