{"type":"Feature","properties":{"osm_display_name":"Landkreis Schweinfurt, Bayern, Deutschland","osm_id":62530,"hinweis":"Landkreis fuer den Hero der Stadtseite. Der Stadtmittelpunkt liegt im aeusseren Ring dieses Kreises (geprueft). Vereinfacht, Toleranz 0.0004 Grad."},"geometry":{"type":"MultiPolygon","coordinates":[[[[9.9570861,50.0663715],[9.9572285,50.0650165],[9.9596119,50.0617251],[9.9648113,50.0580967],[9.9655266,50.0581766],[9.9636542,50.0561875],[9.964709,50.0558133],[9.9637397,50.0545991],[9.9643298,50.0539599],[9.9656367,50.0544664],[9.9663755,50.0561911],[9.9722773,50.0545283],[9.9725009,50.0556769],[9.9802281,50.0579152],[9.9822768,50.0554564],[9.9848348,50.0557231],[9.9844002,50.0531402],[9.9848588,50.0523561],[9.9809699,50.05111],[9.9812109,50.0495221],[9.9839959,50.0489136],[9.9858798,50.0466235],[9.9854515,50.0445619],[9.9845852,50.0443986],[9.985525,50.0437165],[9.9856564,50.0413793],[9.9871216,50.0411971],[9.9868594,50.0373715],[9.9928128,50.0367106],[9.9926109,50.0358105],[9.993337,50.0357691],[9.9936761,50.034044],[9.9988679,50.0340186],[10.0008799,50.0337158],[10.0011788,50.0327005],[10.0046481,50.0330136],[10.0049345,50.0324813],[10.0109265,50.034314],[10.0104476,50.036461],[10.0206594,50.0394964],[10.0205058,50.0384326],[10.0213227,50.0378445],[10.0254918,50.040189],[10.0270702,50.04047],[10.0321902,50.0387163],[10.031839,50.0382445],[10.0339358,50.0371739],[10.0367787,50.0368141],[10.0398688,50.0342945],[10.0395154,50.0300843],[10.0384413,50.0274724],[10.0368748,50.0274859],[10.036583,50.0268651],[10.0344433,50.0271288],[10.034685,50.0256379],[10.0342626,50.0255134],[10.034891,50.0239665],[10.0336963,50.0239244],[10.0332536,50.0220687],[10.0340948,50.0219966],[10.0350075,50.0184627],[10.0374011,50.0195916],[10.0383478,50.0164416],[10.0414912,50.0167872],[10.0417424,50.0155542],[10.0450952,50.0159674],[10.0460939,50.0116053],[10.0434594,50.0112879],[10.0455271,50.0067408],[10.0409904,50.0060485],[10.041158,50.0034772],[10.0419626,50.0023054],[10.0329505,50.0010656],[10.0337225,50.0001246],[10.0212294,49.9971072],[10.0194105,49.9995735],[10.0156856,49.9995713],[10.0155794,49.9986349],[10.0099055,49.9982872],[10.0068905,49.99736],[10.0060379,49.9962283],[10.0052713,49.9922395],[10.0058072,49.9898108],[10.0039227,49.9889723],[10.0009065,49.9892408],[10.0014385,49.9857464],[10.0083432,49.98729],[10.0087786,49.986361],[10.0171925,49.9873912],[10.0198766,49.98738],[10.0203302,49.9868876],[10.0276062,49.987496],[10.0281296,49.986606],[10.0377574,49.9888901],[10.0405479,49.9886738],[10.0410654,49.985693],[10.04442,49.98631],[10.044952,49.9820956],[10.0416125,49.9820092],[10.0412798,49.9801933],[10.0419146,49.9753082],[10.0440705,49.9755345],[10.0439013,49.9739992],[10.0429057,49.9739534],[10.04207,49.9708105],[10.038939,49.9702169],[10.0373186,49.969193],[10.0405342,49.9615665],[10.0398503,49.9614237],[10.0395349,49.9603485],[10.0322402,49.9588054],[10.0324353,49.9576074],[10.0308619,49.9563857],[10.0295,49.9564199],[10.0285011,49.9542542],[10.0264494,49.9524904],[10.0308562,49.9522244],[10.0312212,49.9504288],[10.0325855,49.9504282],[10.0320571,49.9516137],[10.03309,49.9516875],[10.0329634,49.9525402],[10.0442444,49.9535198],[10.0446558,49.9524847],[10.0429811,49.9523439],[10.043195,49.95032],[10.0441697,49.9492354],[10.0495319,49.9485974],[10.0490132,49.9476258],[10.0533791,49.9477173],[10.0537989,49.9463089],[10.0548581,49.9464835],[10.0563238,49.9427472],[10.0613984,49.9435011],[10.0623421,49.9414447],[10.0619021,49.9413709],[10.0627193,49.9373908],[10.0650593,49.9376845],[10.0653951,49.9360854],[10.0702928,49.9352779],[10.0696631,49.9318125],[10.0763725,49.9319411],[10.0770964,49.9317353],[10.0770349,49.9312016],[10.0797964,49.9313306],[10.0798413,49.930875],[10.0858274,49.9311088],[10.0860872,49.9299971],[10.091737,49.9302805],[10.0972257,49.9290013],[10.1061081,49.9285229],[10.1059236,49.9249905],[10.1071101,49.9249193],[10.1069997,49.9242397],[10.1040313,49.9241731],[10.104157,49.9218252],[10.1026471,49.9217324],[10.1035122,49.9174211],[10.1019628,49.9171669],[10.1019444,49.9159872],[10.09981,49.9153329],[10.1012491,49.91492],[10.1022288,49.912271],[10.099171,49.9132915],[10.1002324,49.9107213],[10.1026619,49.9095548],[10.1089059,49.911864],[10.1134003,49.9119246],[10.113873,49.9101882],[10.1197368,49.909568],[10.1188311,49.9078058],[10.125803,49.9079699],[10.1355387,49.9092028],[10.1355387,49.9066734],[10.1451779,49.9082909],[10.1484497,49.9068414],[10.1466431,49.9063777],[10.1469042,49.9055249],[10.1519192,49.9051103],[10.1520668,49.9023608],[10.1586367,49.9023994],[10.1623026,49.9031452],[10.1617484,49.9040674],[10.1611838,49.9039907],[10.160134,49.9061716],[10.1629826,49.9073955],[10.1644736,49.9088028],[10.1675257,49.9094097],[10.1722006,49.9127315],[10.174299,49.9135426],[10.1795824,49.9080863],[10.1803709,49.9058954],[10.1837201,49.9069947],[10.1846877,49.9035672],[10.1893862,49.9037254],[10.1886656,49.8979387],[10.184626,49.8933927],[10.1902463,49.8918478],[10.2014259,49.8916193],[10.2037053,49.8919091],[10.2035124,49.8931963],[10.208836,49.8950206],[10.2087166,49.8964325],[10.211077,49.8963325],[10.2114753,49.898749],[10.2077827,49.8997869],[10.2067527,49.906268],[10.2071085,49.9085108],[10.2095985,49.9080672],[10.211339,49.909678],[10.2112948,49.9112998],[10.2097104,49.9120842],[10.2094917,49.9131324],[10.2120544,49.9129088],[10.2146523,49.9135715],[10.2153462,49.9117622],[10.2204542,49.9133015],[10.2249303,49.9155752],[10.2286519,49.916047],[10.2295889,49.9127761],[10.2291938,49.9109136],[10.2371575,49.9094914],[10.2364497,49.9080179],[10.2308238,49.9067726],[10.2324743,49.9033437],[10.2330383,49.9032039],[10.2322729,49.9013884],[10.2360083,49.9013543],[10.237697,49.8980353],[10.2354256,49.897448],[10.2370825,49.8941104],[10.233592,49.8933953],[10.2341451,49.8916637],[10.2353271,49.8918693],[10.2360727,49.8901963],[10.2370816,49.8900596],[10.2369551,49.8871572],[10.2422678,49.8858019],[10.2435305,49.8837461],[10.2466723,49.8811493],[10.2482339,49.8808311],[10.2492779,49.8824713],[10.2553006,49.8845609],[10.2585547,49.8872534],[10.2614666,49.8886708],[10.2654187,49.8887554],[10.2626344,49.88702],[10.2611482,49.886801],[10.2614894,49.8856888],[10.2639977,49.8858347],[10.2673502,49.8868789],[10.2674431,49.8878495],[10.2697352,49.8874524],[10.2700244,49.8884956],[10.2797724,49.8924715],[10.2807443,49.8911064],[10.2835295,49.8916555],[10.2844914,49.8901903],[10.2897314,49.8914521],[10.2906561,49.8901312],[10.2914141,49.8843937],[10.290848,49.8843065],[10.2929695,49.8791706],[10.2918943,49.875895],[10.2918776,49.8728651],[10.2896478,49.8713542],[10.2929095,49.8694224],[10.296496,49.8688964],[10.2964537,49.8703374],[10.30041,49.8702788],[10.3010007,49.8663856],[10.3037719,49.8634579],[10.2995311,49.861929],[10.3038278,49.8603803],[10.3049785,49.8612283],[10.3070749,49.8607674],[10.306883,49.8604104],[10.308552,49.8601284],[10.3085534,49.8590376],[10.3119153,49.8570394],[10.3170937,49.8572295],[10.3181114,49.854556],[10.3297859,49.8558228],[10.3286129,49.8581642],[10.33035,49.8584906],[10.3300437,49.8593249],[10.3333335,49.8594545],[10.3332529,49.8604838],[10.3364031,49.8606599],[10.3359195,49.86322],[10.3392634,49.8659861],[10.3483099,49.8624425],[10.353308,49.8617474],[10.3543114,49.8621749],[10.3560193,49.8613899],[10.3563977,49.8618286],[10.3611343,49.8602706],[10.3605946,49.8600503],[10.3637152,49.8594985],[10.363654,49.8590177],[10.3663768,49.8592149],[10.3656313,49.8609093],[10.3672792,49.8611609],[10.3673754,49.8621119],[10.3700326,49.8624729],[10.3698443,49.8636948],[10.3734493,49.8641883],[10.373774,49.8655218],[10.3752496,49.86485],[10.376065,49.8667289],[10.3763352,49.8699179],[10.3807155,49.8685673],[10.3806372,49.8679769],[10.3851344,49.8673101],[10.3837046,49.8660075],[10.390777,49.8646153],[10.390977,49.8615372],[10.3893751,49.8617834],[10.3892904,49.8586472],[10.3878949,49.8590934],[10.3867007,49.8575971],[10.3875821,49.8573529],[10.3869842,49.8562819],[10.3896162,49.8559373],[10.3898141,49.8543457],[10.3923639,49.852635],[10.3872711,49.8520506],[10.3882021,49.8494315],[10.3956286,49.8496194],[10.4010637,49.8489743],[10.4008486,49.8458596],[10.3978745,49.8456924],[10.3962258,49.8436267],[10.3927292,49.8432212],[10.3898589,49.8436759],[10.3917694,49.8404353],[10.3897782,49.8402208],[10.3899869,49.8379181],[10.3884314,49.8380812],[10.3879065,49.8370819],[10.3865244,49.8368446],[10.3860041,49.8377232],[10.3841894,49.8376668],[10.3840164,49.8367578],[10.3848446,49.8356322],[10.381161,49.836278],[10.3766776,49.835821],[10.3733379,49.8368374],[10.3726114,49.8343776],[10.3766778,49.8346236],[10.3827456,49.8339134],[10.3874806,49.8355612],[10.3962781,49.8358482],[10.3952698,49.8332403],[10.4084524,49.8313134],[10.4083826,49.8302272],[10.4119573,49.8291227],[10.4115963,49.8274542],[10.4187382,49.8264285],[10.4292479,49.8237059],[10.4329978,49.8236948],[10.4389848,49.8223056],[10.4398823,49.8229255],[10.4437575,49.8201803],[10.4445212,49.8205205],[10.4452261,49.8227932],[10.4460353,49.823261],[10.4474578,49.8218377],[10.4487226,49.8223024],[10.4470396,49.8234632],[10.4528684,49.8285239],[10.4547533,49.831422],[10.4536926,49.8320105],[10.4585977,49.8343918],[10.4580137,49.8348746],[10.4610703,49.8353643],[10.4617817,49.8360168],[10.4566695,49.8379975],[10.4541883,49.8400912],[10.4497034,49.8409708],[10.4485183,49.8422856],[10.445019,49.8435682],[10.4437169,49.8436803],[10.4421845,49.8422674],[10.440739,49.8429153],[10.4410387,49.8447862],[10.4401106,49.8451486],[10.4407161,49.8466471],[10.4474589,49.8485297],[10.4443914,49.849075],[10.4491594,49.8554485],[10.4519604,49.8635049],[10.4526164,49.8677164],[10.4535474,49.8685751],[10.452677,49.8709934],[10.4528807,49.8721504],[10.4554675,49.8707433],[10.4569014,49.8724252],[10.456704,49.8733281],[10.4574481,49.8740888],[10.4571323,49.875462],[10.4590787,49.8771681],[10.4594143,49.8787712],[10.4647656,49.8774264],[10.4747298,49.8769864],[10.4914705,49.8723531],[10.5024779,49.8713756],[10.5045032,49.8725013],[10.5051103,49.8778939],[10.5073032,49.8799766],[10.5073571,49.8814488],[10.5067905,49.8814739],[10.5024264,49.8794307],[10.4944106,49.8791966],[10.4937631,49.8798773],[10.4948221,49.8809106],[10.4943558,49.8825362],[10.4920967,49.8847084],[10.4884403,49.8854791],[10.4839974,49.8845634],[10.47556,49.8856811],[10.4728239,49.8861329],[10.4706881,49.8878126],[10.4650028,49.888583],[10.4660942,49.8899635],[10.4654947,49.8914392],[10.4665456,49.8930197],[10.4632328,49.8948283],[10.4583577,49.8960022],[10.4578003,49.8968483],[10.4585106,49.8981546],[10.4583033,49.8991492],[10.4591637,49.8991357],[10.4613587,49.8966569],[10.4651687,49.8951391],[10.4691352,49.8944235],[10.4692782,49.8954697],[10.4715073,49.8961366],[10.4724865,49.8973146],[10.4725632,49.8983654],[10.4707795,49.8990649],[10.4697954,49.9002517],[10.4713951,49.9009498],[10.4728861,49.8993042],[10.475251,49.8998327],[10.4767996,49.898058],[10.4766254,49.896657],[10.4755378,49.8954013],[10.4770076,49.8951752],[10.4772742,49.8943821],[10.4823595,49.8916863],[10.485505,49.8946044],[10.4848414,49.8967773],[10.4862619,49.8971251],[10.4847832,49.9014499],[10.482789,49.9022788],[10.4823232,49.9034304],[10.4807612,49.9037168],[10.4829773,49.9065875],[10.4814518,49.9083502],[10.4828702,49.9098156],[10.4843421,49.9085984],[10.4852239,49.9067491],[10.4847802,49.9050226],[10.4872579,49.9027294],[10.4863427,49.8994552],[10.4868934,49.8986818],[10.4895365,49.896439],[10.4918547,49.8965431],[10.4945404,49.8944982],[10.4963853,49.8948778],[10.498029,49.8936311],[10.5006468,49.893997],[10.5015169,49.8943468],[10.5028748,49.8965808],[10.5016342,49.8985877],[10.5028255,49.8987577],[10.5042768,49.8977648],[10.506413,49.8983378],[10.5061203,49.8986296],[10.5072158,49.89917],[10.5059657,49.8998227],[10.5042866,49.8991825],[10.5040807,49.8999361],[10.5003971,49.9027477],[10.4967245,49.9040615],[10.4969961,49.9045414],[10.4951732,49.9054222],[10.4951812,49.9042351],[10.4943831,49.904296],[10.4945125,49.9048501],[10.4926648,49.9058519],[10.4947275,49.906292],[10.4932963,49.9068681],[10.4922523,49.906352],[10.4919487,49.9068822],[10.4937885,49.9077864],[10.4927396,49.9087759],[10.4935714,49.9090383],[10.4945112,49.9090347],[10.4942582,49.9081215],[10.4968169,49.905596],[10.4987637,49.9051265],[10.4987415,49.9045593],[10.5040892,49.9014333],[10.5096411,49.8989958],[10.510928,49.8993505],[10.5135801,49.8979542],[10.5159305,49.8975601],[10.5175468,49.8980864],[10.5152359,49.899911],[10.516928,49.8997868],[10.5189383,49.8989574],[10.5195622,49.8976945],[10.5216255,49.8964777],[10.5303273,49.8945722],[10.5312243,49.896888],[10.5258589,49.8983452],[10.523427,49.8997395],[10.5241273,49.9002482],[10.5231483,49.9010464],[10.5204181,49.9015048],[10.5184042,49.900621],[10.5170272,49.9013914],[10.5212833,49.90317],[10.5137898,49.9087791],[10.5124772,49.9083853],[10.5122522,49.9073471],[10.5093353,49.9074371],[10.509184,49.9080218],[10.5112202,49.9086447],[10.5105226,49.9088241],[10.5112467,49.9093714],[10.5097802,49.9104374],[10.5107391,49.9109825],[10.5098102,49.9111842],[10.510773,49.9114928],[10.5105336,49.913122],[10.5099364,49.912656],[10.5026209,49.9134473],[10.502534,49.9141361],[10.5031385,49.9144093],[10.5049618,49.913784],[10.5095052,49.9138279],[10.5104074,49.9178926],[10.5083736,49.9181002],[10.5095568,49.9183249],[10.5086272,49.9198235],[10.5065316,49.9191997],[10.5062182,49.9198489],[10.5043785,49.9201532],[10.5074327,49.9205248],[10.5067284,49.9222378],[10.5054464,49.9222308],[10.5056953,49.9227921],[10.5065733,49.9227366],[10.5079481,49.9255279],[10.5084754,49.923796],[10.5174586,49.9273364],[10.51465,49.9301792],[10.5141151,49.9315612],[10.4914986,49.9381143],[10.4806628,49.9385052],[10.4783941,49.9403429],[10.4765782,49.9407516],[10.4746772,49.9426649],[10.4699582,49.9456657],[10.4662118,49.9471652],[10.4652835,49.9509515],[10.4658072,49.9520589],[10.4638293,49.9544853],[10.4584565,49.9543756],[10.4573318,49.9554046],[10.4571771,49.9541541],[10.459483,49.9540437],[10.4594533,49.9536295],[10.4568372,49.9526576],[10.4558598,49.9537614],[10.455229,49.9536826],[10.4545394,49.9553716],[10.455109,49.9570194],[10.4546791,49.9574997],[10.4507165,49.9569076],[10.4523028,49.9561845],[10.4483521,49.9534614],[10.4468139,49.9540642],[10.4440033,49.9529876],[10.4454015,49.9552365],[10.4479919,49.9565271],[10.4488762,49.9577629],[10.444275,49.958946],[10.4456005,49.963607],[10.4445512,49.9638096],[10.444784,49.9646261],[10.4420073,49.9656999],[10.4425352,49.9668455],[10.4421595,49.9680257],[10.4429177,49.9682793],[10.4426864,49.9697145],[10.441517,49.9709857],[10.4385214,49.9716393],[10.4390127,49.9731588],[10.4420182,49.97297],[10.4427787,49.9740307],[10.4428153,49.9758706],[10.4440124,49.976241],[10.4436869,49.9787834],[10.4395191,49.9799746],[10.4376813,49.9826435],[10.4359548,49.9816484],[10.43453,49.981975],[10.434639,49.9826523],[10.4325834,49.9828021],[10.4337433,49.9846889],[10.433167,49.9849468],[10.4298703,49.9833483],[10.4282097,49.9843491],[10.4262494,49.9829296],[10.4224404,49.983916],[10.4192242,49.9837847],[10.4163372,49.9856555],[10.4169231,49.9859106],[10.4159069,49.9867125],[10.4124582,49.9855176],[10.4137975,49.9866878],[10.4132044,49.9875499],[10.4074519,49.9879015],[10.4094681,49.9898561],[10.4038293,49.9920948],[10.3986185,49.9906357],[10.3977168,49.9923681],[10.3954367,49.9914352],[10.3940586,49.9931545],[10.3929763,49.9930186],[10.3926296,49.9960962],[10.3915958,49.9981226],[10.3891664,49.9977519],[10.3885771,49.9989195],[10.390942,49.9992274],[10.3899422,50.0004667],[10.3896381,50.003248],[10.3926557,50.0041736],[10.3923878,50.0046878],[10.3944716,50.0052084],[10.3948207,50.0060445],[10.3972192,50.0066638],[10.3969532,50.0075466],[10.3985222,50.0075817],[10.398804,50.0092228],[10.3976565,50.009652],[10.3986773,50.0100322],[10.395733,50.0124719],[10.3911791,50.0143612],[10.3865161,50.0150754],[10.3840349,50.0152249],[10.3805012,50.01355],[10.3691224,50.0166069],[10.3598333,50.0159961],[10.3582286,50.0167094],[10.3586844,50.0175036],[10.3480415,50.0196068],[10.3470229,50.0185097],[10.3403062,50.0200507],[10.339991,50.0190046],[10.3346499,50.0191675],[10.3278918,50.0213993],[10.3242495,50.0263774],[10.3204739,50.0296798],[10.323615,50.0309893],[10.3312303,50.0321777],[10.3340215,50.0336797],[10.3359937,50.0322434],[10.335783,50.031314],[10.3393585,50.029957],[10.3405206,50.0314166],[10.3418281,50.0314321],[10.3416788,50.0347743],[10.3509935,50.0350047],[10.3557065,50.034631],[10.3560746,50.0319617],[10.3580868,50.0325095],[10.3586571,50.0311377],[10.3562726,50.0304575],[10.3563934,50.0295601],[10.357856,50.0286191],[10.3551564,50.0273806],[10.3572162,50.025029],[10.3617087,50.0242527],[10.367306,50.0259581],[10.3672825,50.0268023],[10.3709373,50.026361],[10.3702602,50.0276839],[10.3733128,50.0296352],[10.3736529,50.0303094],[10.3730866,50.0315651],[10.3744332,50.0324584],[10.3757062,50.0329982],[10.3777852,50.0301385],[10.3787875,50.0297501],[10.3798737,50.0304393],[10.3784549,50.0332166],[10.3771818,50.0333719],[10.3736392,50.0362204],[10.3751374,50.0368007],[10.370514,50.0397279],[10.3742715,50.0415817],[10.375608,50.0409263],[10.3769507,50.0424895],[10.377613,50.0422621],[10.3784105,50.0434893],[10.3762367,50.0437917],[10.3768273,50.0453564],[10.3798292,50.0451859],[10.3811823,50.0467513],[10.3833406,50.0467463],[10.3835603,50.0450257],[10.3811308,50.04481],[10.3807865,50.0434602],[10.3830889,50.0436925],[10.3833713,50.0447398],[10.3904677,50.0437189],[10.3927582,50.0449045],[10.3968498,50.0430544],[10.4000405,50.0483037],[10.4042692,50.0522013],[10.4074866,50.0578135],[10.4076759,50.0584514],[10.4063554,50.0604697],[10.4046243,50.0615398],[10.4035342,50.0641853],[10.4089589,50.0669453],[10.4161356,50.0661058],[10.4172426,50.0686773],[10.4200874,50.0707376],[10.4210036,50.0722142],[10.4201639,50.0727646],[10.4209109,50.0734897],[10.4233644,50.0740881],[10.4232843,50.0723156],[10.4240312,50.0714012],[10.4243112,50.0731539],[10.4331813,50.076117],[10.4312138,50.0768783],[10.4322084,50.0780687],[10.4317133,50.0783225],[10.4333403,50.0792384],[10.4314451,50.080701],[10.4310257,50.0820511],[10.4291772,50.0832119],[10.421043,50.0844261],[10.4184281,50.0841057],[10.4155384,50.0862248],[10.4149433,50.0859022],[10.4140593,50.0864485],[10.4132956,50.087694],[10.4091887,50.0859013],[10.4066159,50.0860999],[10.4045878,50.085403],[10.4027255,50.0878081],[10.4013443,50.08852],[10.3972791,50.0881854],[10.3967521,50.0918221],[10.3842728,50.091719],[10.3832019,50.0899224],[10.3792917,50.0906755],[10.3771225,50.0933242],[10.3797735,50.0938744],[10.379973,50.0996373],[10.3789457,50.1025949],[10.3867438,50.1030218],[10.3864096,50.1048059],[10.3939951,50.1049404],[10.3938715,50.1078446],[10.396285,50.1074908],[10.3977449,50.1105958],[10.4008422,50.1120623],[10.4010121,50.113595],[10.4032635,50.1155457],[10.4042607,50.1200871],[10.4066356,50.1205451],[10.4068411,50.1224116],[10.4057744,50.1263155],[10.4033105,50.1277521],[10.4026374,50.127476],[10.4006276,50.130093],[10.4012383,50.1363863],[10.3958061,50.1377904],[10.3928489,50.1405849],[10.3931339,50.1415724],[10.4012049,50.1415988],[10.4052985,50.1456538],[10.4101101,50.1457926],[10.4100746,50.1474182],[10.4110728,50.1474867],[10.4113888,50.1487366],[10.4130669,50.1505581],[10.4158697,50.1520766],[10.4156365,50.1532728],[10.4224893,50.1554282],[10.4219203,50.156614],[10.4234258,50.1569958],[10.4237428,50.1598353],[10.4252451,50.1607605],[10.4243521,50.1613793],[10.4269751,50.1631817],[10.4288735,50.1634053],[10.4281603,50.1663888],[10.4303246,50.1666473],[10.4299288,50.1686077],[10.4324868,50.1688082],[10.4335069,50.1732485],[10.4394623,50.1740678],[10.4385059,50.1752877],[10.4410166,50.175515],[10.4407973,50.179206],[10.4386106,50.1793046],[10.43883,50.1833049],[10.4380239,50.1860744],[10.441121,50.1890071],[10.446592,50.1927168],[10.4472532,50.1944623],[10.4478297,50.1944824],[10.4476754,50.1955847],[10.4509119,50.1966782],[10.4474524,50.1997003],[10.4432171,50.2008583],[10.4411115,50.2032694],[10.4403206,50.2059362],[10.439755,50.2061753],[10.4401673,50.2082679],[10.4378859,50.2096163],[10.4399273,50.2105943],[10.439166,50.2110658],[10.4381676,50.2106951],[10.4362039,50.2117597],[10.4366527,50.2137958],[10.4349003,50.2166789],[10.4351011,50.2208697],[10.4307834,50.2231761],[10.4228696,50.2244298],[10.4140849,50.2202182],[10.4129958,50.2207458],[10.4130688,50.2235062],[10.4121592,50.2247653],[10.4098083,50.224273],[10.4057761,50.2247413],[10.4040248,50.2229109],[10.3988746,50.2223982],[10.3966638,50.2245538],[10.3940617,50.2256202],[10.3915895,50.2284691],[10.3843206,50.2285369],[10.3838658,50.2294244],[10.3785755,50.2296017],[10.3787732,50.2307776],[10.3745181,50.2316844],[10.3736072,50.2301295],[10.3683622,50.2281746],[10.3639996,50.2240814],[10.3633348,50.2226867],[10.3594391,50.219455],[10.3570349,50.218962],[10.3562805,50.2179473],[10.3503189,50.2158328],[10.3460625,50.2104877],[10.3338815,50.2092298],[10.3317373,50.2101864],[10.3321261,50.2112356],[10.3280759,50.2105732],[10.3282035,50.2110213],[10.3259451,50.2112195],[10.323821,50.2111779],[10.3221413,50.2100929],[10.3220354,50.2095739],[10.3275756,50.2077554],[10.330406,50.206068],[10.3289922,50.2036332],[10.332531,50.203926],[10.3310552,50.2019089],[10.332714,50.2009414],[10.3307758,50.1948176],[10.3332839,50.1939872],[10.3323966,50.1924973],[10.3370021,50.191493],[10.3369959,50.1896491],[10.3380599,50.1897517],[10.3381047,50.1885713],[10.3396421,50.1882989],[10.339658,50.1877205],[10.3426264,50.1874285],[10.3424997,50.1834531],[10.3412832,50.1816505],[10.341745,50.1816186],[10.3418954,50.1797758],[10.3415518,50.1775164],[10.342076,50.1771808],[10.3401522,50.1740002],[10.3405646,50.1726072],[10.3376944,50.1723312],[10.3378242,50.1712813],[10.3356286,50.1707277],[10.31882,50.172188],[10.3185812,50.1710236],[10.3201698,50.1682629],[10.3200425,50.1658445],[10.3206255,50.1644523],[10.3164282,50.1615137],[10.3180428,50.1614478],[10.3210927,50.1599725],[10.3205841,50.1577606],[10.3233946,50.1561952],[10.323049,50.1543362],[10.3234993,50.1531885],[10.3271818,50.1515394],[10.3274661,50.1484602],[10.3254239,50.1464466],[10.3231342,50.1462932],[10.3187933,50.1475615],[10.3183246,50.1486719],[10.318752,50.1502576],[10.314873,50.1521224],[10.3144353,50.1531499],[10.3103018,50.1530547],[10.3065849,50.1543136],[10.3053718,50.155749],[10.3050907,50.1585906],[10.3040114,50.1606996],[10.3016917,50.1621405],[10.3017797,50.1607039],[10.2978122,50.1584666],[10.2953354,50.1587884],[10.2954153,50.1592241],[10.2913488,50.1594162],[10.2901761,50.156418],[10.2765229,50.1562748],[10.2758048,50.154907],[10.2762514,50.150299],[10.2728674,50.1497659],[10.2710626,50.1477517],[10.2672645,50.1454447],[10.2643929,50.1454775],[10.2598005,50.1443064],[10.2585866,50.1447],[10.2616988,50.1474102],[10.2652935,50.1521275],[10.2600583,50.1562035],[10.25805,50.1543832],[10.2580039,50.153849],[10.2591397,50.1538758],[10.258884,50.1521558],[10.2630561,50.1519073],[10.2631147,50.1514394],[10.2597136,50.1514488],[10.258523,50.1495414],[10.2540779,50.1501065],[10.2546666,50.1518608],[10.2524471,50.1521085],[10.2535067,50.1554562],[10.2515313,50.1570395],[10.2489737,50.1534879],[10.2488445,50.1522039],[10.2462998,50.1543507],[10.2379239,50.1558276],[10.2349746,50.1552975],[10.2300796,50.1517679],[10.229387,50.1498367],[10.2280203,50.1484087],[10.2289663,50.1477866],[10.2266754,50.1458097],[10.2219493,50.1474101],[10.2215088,50.149402],[10.2189436,50.1500679],[10.2136199,50.1494032],[10.2053251,50.149873],[10.189274,50.1492677],[10.1799977,50.1537406],[10.1712804,50.1481926],[10.1706401,50.1458641],[10.1627132,50.1453872],[10.1610175,50.1473715],[10.1576881,50.1449765],[10.1562913,50.1464119],[10.1521256,50.1453537],[10.1523759,50.1440291],[10.1502774,50.1445735],[10.154255,50.1429905],[10.151072,50.1377981],[10.150223,50.1372814],[10.1491653,50.1377937],[10.1476748,50.1368531],[10.1474465,50.1349776],[10.1450124,50.1332827],[10.1426684,50.1344314],[10.142262,50.1327968],[10.1433934,50.1326027],[10.1434867,50.1318764],[10.1425394,50.1318464],[10.143103,50.1307247],[10.1465246,50.1283691],[10.1465401,50.1268241],[10.1452381,50.1254224],[10.145293,50.1236423],[10.143654,50.1220068],[10.1441262,50.1200288],[10.1391951,50.1141906],[10.1379393,50.1137478],[10.1365612,50.1144047],[10.1368382,50.1147808],[10.1351927,50.1149432],[10.1350195,50.114331],[10.133012,50.1145693],[10.1323234,50.1135104],[10.1304251,50.1136515],[10.1308205,50.1102986],[10.1276884,50.1097999],[10.1291682,50.1078343],[10.1289462,50.1064039],[10.1296614,50.1064368],[10.129838,50.1052911],[10.1284294,50.105009],[10.1280195,50.1034862],[10.1275149,50.1035166],[10.1259754,50.1082284],[10.1138472,50.1111456],[10.1114026,50.1111022],[10.1112332,50.1092763],[10.1164435,50.1096053],[10.1169379,50.1095576],[10.1154051,50.1092075],[10.1155681,50.1088015],[10.1192366,50.1092821],[10.1201998,50.1088741],[10.1173494,50.1082896],[10.1187942,50.1079696],[10.1183484,50.1071517],[10.1147073,50.1067252],[10.1151105,50.1050181],[10.1140006,50.1048985],[10.1125803,50.1066184],[10.1097602,50.1074378],[10.109866,50.1082764],[10.1033628,50.110258],[10.1031224,50.1089029],[10.1014308,50.1097185],[10.1008486,50.1091142],[10.098653,50.1094314],[10.0984552,50.1099568],[10.0927702,50.1056441],[10.090198,50.1048769],[10.0829623,50.1053992],[10.0761762,50.104847],[10.0741812,50.106343],[10.071369,50.1042397],[10.0708867,50.1031854],[10.0723879,50.1016916],[10.0658302,50.0999937],[10.0638115,50.0987639],[10.0598698,50.0987584],[10.0603367,50.10046],[10.054994,50.1012143],[10.0522356,50.1040904],[10.0491932,50.1035144],[10.04764,50.1040063],[10.047103,50.1050638],[10.0454746,50.1050085],[10.0458402,50.1064017],[10.0389766,50.1060387],[10.0377851,50.1067592],[10.0339376,50.1058837],[10.0333914,50.1063317],[10.0278696,50.1062272],[10.027814,50.1068581],[10.021583,50.1064578],[10.0162948,50.1071019],[10.0129339,50.1085299],[10.0108072,50.10523],[10.0059401,50.1036458],[10.0055883,50.1015057],[10.0016679,50.0982155],[10.0019256,50.0968662],[9.9994245,50.0972012],[9.9893337,50.096524],[9.9887419,50.09373],[9.9874438,50.0923497],[9.9856472,50.0920125],[9.985242,50.0899707],[9.9818818,50.0869346],[9.9809296,50.0844217],[9.9696146,50.084644],[9.9694196,50.082677],[9.9685152,50.0823419],[9.9694769,50.0812927],[9.9678134,50.0808125],[9.9687772,50.0790113],[9.9662372,50.0779271],[9.9665106,50.0760782],[9.9681565,50.0749113],[9.968153,50.0742738],[9.9644962,50.0720989],[9.9586476,50.0707814],[9.9570861,50.0663715]],[[10.1651718,50.0312287],[10.1696297,50.0320381],[10.1725533,50.0340698],[10.1732421,50.0353282],[10.176232,50.0371689],[10.1765537,50.0391733],[10.1785939,50.0402749],[10.1794636,50.0417648],[10.1845865,50.0415286],[10.187343,50.0421587],[10.1875733,50.0435308],[10.1895458,50.0434816],[10.1817181,50.0529301],[10.1792982,50.0534571],[10.1795667,50.0547411],[10.1802444,50.0564633],[10.1826779,50.055991],[10.1858858,50.0543286],[10.1899802,50.0555926],[10.1883665,50.0566806],[10.1899177,50.0578924],[10.1892872,50.0582102],[10.1920723,50.0613571],[10.1920365,50.0624274],[10.1949222,50.0626106],[10.1950026,50.0694819],[10.2008105,50.0702306],[10.2003633,50.0715576],[10.2029223,50.0718917],[10.2037273,50.0712966],[10.2052574,50.0727089],[10.2114894,50.0683914],[10.2223881,50.0659573],[10.22459,50.0658243],[10.2258036,50.0666098],[10.2259548,50.0678629],[10.2277624,50.0693936],[10.2264706,50.0706008],[10.2276082,50.0713123],[10.2270521,50.0732084],[10.2286186,50.0766661],[10.2286322,50.0777721],[10.2269536,50.0796338],[10.2260322,50.0827593],[10.2294574,50.0847363],[10.2300325,50.0858063],[10.2258121,50.085412],[10.222077,50.0858614],[10.2203929,50.0852939],[10.2213359,50.0871373],[10.2226226,50.0879116],[10.2214404,50.0890623],[10.2225527,50.0901365],[10.2216237,50.0914587],[10.2227311,50.0923641],[10.2239876,50.0919111],[10.2252641,50.0921461],[10.2258871,50.0930381],[10.2276381,50.0925366],[10.2322162,50.0929704],[10.2335442,50.0933103],[10.233823,50.0947735],[10.2349112,50.0948861],[10.2361912,50.0924789],[10.237699,50.0926002],[10.238203,50.0916265],[10.2354783,50.0885304],[10.2366094,50.0880939],[10.238951,50.0849109],[10.2379797,50.0830739],[10.238909,50.0828969],[10.2386813,50.0816213],[10.2374642,50.0788391],[10.246262,50.0772407],[10.2493127,50.0773416],[10.2475872,50.0786836],[10.247003,50.0801194],[10.2484684,50.0833741],[10.2543201,50.0878695],[10.2567763,50.0886791],[10.257181,50.0859588],[10.2628764,50.0837615],[10.2617669,50.0811733],[10.2625733,50.0808842],[10.2593145,50.0783564],[10.2589615,50.076148],[10.2603128,50.0761967],[10.2620161,50.0745813],[10.2610934,50.071389],[10.2621325,50.07077],[10.2643286,50.0709456],[10.2630017,50.070477],[10.2615897,50.0672788],[10.2673212,50.0668339],[10.2671625,50.0660672],[10.2679938,50.0657054],[10.2670292,50.0651254],[10.2673196,50.0634999],[10.2651448,50.0627326],[10.2652552,50.0620589],[10.2609022,50.0612189],[10.261066,50.0601723],[10.2575158,50.0572245],[10.2607285,50.0563338],[10.269121,50.0584308],[10.2744566,50.0587232],[10.2755953,50.0576296],[10.2721528,50.0558005],[10.2682338,50.0550689],[10.2638422,50.0526391],[10.2565676,50.0504529],[10.253584,50.0488589],[10.252059,50.0466975],[10.24973,50.0457631],[10.2484712,50.0437336],[10.245559,50.0437101],[10.2435227,50.0413492],[10.240391,50.0392754],[10.2421742,50.0386892],[10.2408672,50.0379676],[10.2417553,50.036871],[10.2416309,50.0360533],[10.2423789,50.0360482],[10.241933,50.0343777],[10.2433782,50.0333821],[10.2429151,50.0331771],[10.2438642,50.0317678],[10.2430285,50.029865],[10.2416566,50.028898],[10.2420745,50.0287688],[10.2408157,50.026672],[10.2414103,50.0248936],[10.2387816,50.0225242],[10.2387094,50.0205481],[10.2419969,50.0218193],[10.2474048,50.0217183],[10.2488635,50.0196451],[10.2486654,50.0179647],[10.2509979,50.0159906],[10.2467971,50.0143423],[10.2437614,50.0140845],[10.2387956,50.0148518],[10.2346938,50.0137885],[10.2342262,50.0143057],[10.2325938,50.0141886],[10.2272609,50.0118921],[10.217346,50.0089567],[10.2124228,50.0088503],[10.2091791,50.0108875],[10.205192,50.0123448],[10.1997654,50.0134758],[10.1986619,50.0127892],[10.1863328,50.0191856],[10.184266,50.0211516],[10.1826205,50.0207545],[10.1811578,50.0224403],[10.178261,50.022318],[10.1740073,50.0245487],[10.1745806,50.0249053],[10.1737708,50.0252718],[10.174231,50.0257651],[10.1721562,50.0265093],[10.1724287,50.0270254],[10.1670018,50.0283613],[10.1651718,50.0312287]]],[[[10.4527387,50.1946726],[10.4545115,50.1942622],[10.4539016,50.1956963],[10.4527387,50.1946726]]],[[[10.4544508,50.1926668],[10.4557838,50.1916773],[10.4576904,50.1916313],[10.4556388,50.1934826],[10.4550902,50.1935952],[10.4544508,50.1926668]]],[[[10.4705463,50.1873322],[10.4731698,50.1872584],[10.474366,50.1885343],[10.4713319,50.1893696],[10.4712741,50.18798],[10.4705463,50.1873322]]]]}}