{"type": "Feature", "properties": {"name": "schwandorf", "osm_display_name": "Schwandorf, Landkreis Schwandorf, Bayern, 92421, Deutschland", "osm_type": "relation", "osm_id": 962181}, "geometry": {"type": "Polygon", "coordinates": [[[11.98973, 49.32381], [11.9913, 49.32155], [11.99148, 49.3206], [11.992, 49.32004], [11.99169, 49.31871], [11.99276, 49.31854], [11.99295, 49.3187], [11.99377, 49.31861], [11.99467, 49.31793], [11.99633, 49.31784], [11.99665, 49.31799], [11.99822, 49.31802], [11.99858, 49.31791], [11.99961, 49.31807], [12.00178, 49.31793], [12.00404, 49.31825], [12.00628, 49.31819], [12.00723, 49.31803], [12.00754, 49.31819], [12.00855, 49.31801], [12.00858, 49.31776], [12.00922, 49.31786], [12.01068, 49.31779], [12.01324, 49.31816], [12.014, 49.31799], [12.0148, 49.31807], [12.01503, 49.3183], [12.01722, 49.31838], [12.01929, 49.31879], [12.01994, 49.31822], [12.02011, 49.31677], [12.02044, 49.31651], [12.0202, 49.31568], [12.01967, 49.31555], [12.0192, 49.31446], [12.01952, 49.31416], [12.01899, 49.31056], [12.01907, 49.30956], [12.01772, 49.30873], [12.0127, 49.30885], [12.01107, 49.30844], [12.00962, 49.30832], [12.00689, 49.3088], [12.00112, 49.30808], [12.00113, 49.30654], [12.00013, 49.30375], [11.99972, 49.30343], [12.00102, 49.30352], [12.00216, 49.3031], [12.00379, 49.30185], [12.00367, 49.30083], [12.00617, 49.29949], [12.00913, 49.30086], [12.01018, 49.30151], [12.01195, 49.30222], [12.01246, 49.3026], [12.01505, 49.30163], [12.0158, 49.30115], [12.01705, 49.29942], [12.01908, 49.29876], [12.01938, 49.29897], [12.0198, 49.29993], [12.0199, 49.30085], [12.02106, 49.30303], [12.02166, 49.30367], [12.02215, 49.3039], [12.02339, 49.30096], [12.02411, 49.29712], [12.02481, 49.29595], [12.02194, 49.29503], [12.0223, 49.29407], [12.02423, 49.29146], [12.02464, 49.29018], [12.02288, 49.28705], [12.02316, 49.28674], [12.0229, 49.28643], [12.0231, 49.28545], [12.02397, 49.28459], [12.02432, 49.28443], [12.0249, 49.28459], [12.02549, 49.28434], [12.02561, 49.28412], [12.02535, 49.2838], [12.02785, 49.28449], [12.02823, 49.28146], [12.02931, 49.28029], [12.02926, 49.27983], [12.02962, 49.27891], [12.02984, 49.27875], [12.03103, 49.27861], [12.03309, 49.27851], [12.0333, 49.27818], [12.0334, 49.27653], [12.03213, 49.27465], [12.0337, 49.27443], [12.03619, 49.27432], [12.03849, 49.2738], [12.04167, 49.27429], [12.04315, 49.27076], [12.04378, 49.26981], [12.04682, 49.27131], [12.04746, 49.27056], [12.04843, 49.26826], [12.05195, 49.26493], [12.0504, 49.26139], [12.04907, 49.26098], [12.04831, 49.26112], [12.04483, 49.26305], [12.04458, 49.26276], [12.04433, 49.26288], [12.0447, 49.26135], [12.04452, 49.26002], [12.04398, 49.25935], [12.04407, 49.25888], [12.04462, 49.25875], [12.04469, 49.25846], [12.04368, 49.25794], [12.03995, 49.25817], [12.04026, 49.25907], [12.03942, 49.25937], [12.03803, 49.25753], [12.03715, 49.25779], [12.03651, 49.25679], [12.03785, 49.25644], [12.03702, 49.2551], [12.03811, 49.25506], [12.0384, 49.25376], [12.03835, 49.25257], [12.04219, 49.25328], [12.04483, 49.25332], [12.04643, 49.25428], [12.04708, 49.25439], [12.05046, 49.25583], [12.05408, 49.25234], [12.05468, 49.25134], [12.06052, 49.24898], [12.06338, 49.24804], [12.06399, 49.24804], [12.06529, 49.24835], [12.06967, 49.2487], [12.07125, 49.24837], [12.07132, 49.24859], [12.07305, 49.24856], [12.07564, 49.24796], [12.07625, 49.24815], [12.07583, 49.24928], [12.07615, 49.25021], [12.0767, 49.2507], [12.07933, 49.25182], [12.08004, 49.25182], [12.08388, 49.25258], [12.08466, 49.25012], [12.08586, 49.25106], [12.08775, 49.25159], [12.08894, 49.2515], [12.08915, 49.25188], [12.08901, 49.25354], [12.09268, 49.25285], [12.09389, 49.25457], [12.09438, 49.25448], [12.0957, 49.25368], [12.09677, 49.25337], [12.09879, 49.25326], [12.0994, 49.25559], [12.09922, 49.25694], [12.10056, 49.2569], [12.10071, 49.25716], [12.10028, 49.25791], [12.10047, 49.2582], [12.10067, 49.25836], [12.10173, 49.25815], [12.10275, 49.25744], [12.1033, 49.25736], [12.10406, 49.25782], [12.10414, 49.25768], [12.10455, 49.25782], [12.10494, 49.2583], [12.10528, 49.2582], [12.10509, 49.25907], [12.10577, 49.25991], [12.10589, 49.25922], [12.10608, 49.25912], [12.10632, 49.2593], [12.10658, 49.25912], [12.10677, 49.25858], [12.10932, 49.2576], [12.10964, 49.25737], [12.10987, 49.25671], [12.11058, 49.25687], [12.10999, 49.25846], [12.10831, 49.26175], [12.10827, 49.26238], [12.10966, 49.26289], [12.11066, 49.26258], [12.11101, 49.26091], [12.11136, 49.26066], [12.11315, 49.26049], [12.11503, 49.26071], [12.11591, 49.26117], [12.11663, 49.26112], [12.11761, 49.26132], [12.11757, 49.26075], [12.11817, 49.2599], [12.11904, 49.25998], [12.11952, 49.26033], [12.1205, 49.26028], [12.12468, 49.2606], [12.12518, 49.26087], [12.1256, 49.26157], [12.1261, 49.26187], [12.12676, 49.26263], [12.12714, 49.26421], [12.12731, 49.26437], [12.12811, 49.26452], [12.12899, 49.26425], [12.12941, 49.26393], [12.13033, 49.2626], [12.13071, 49.26251], [12.13093, 49.26283], [12.1324, 49.2631], [12.13252, 49.26365], [12.13436, 49.26381], [12.13637, 49.26366], [12.13706, 49.26383], [12.13765, 49.26374], [12.13744, 49.26327], [12.13751, 49.26269], [12.13824, 49.2628], [12.13975, 49.26255], [12.14013, 49.26228], [12.14083, 49.26209], [12.14163, 49.26238], [12.14162, 49.26287], [12.14184, 49.26309], [12.14267, 49.2631], [12.14123, 49.26478], [12.14058, 49.265], [12.14057, 49.26551], [12.14021, 49.2661], [12.14017, 49.26641], [12.14047, 49.26689], [12.14119, 49.26694], [12.14187, 49.26727], [12.14268, 49.26695], [12.14328, 49.2664], [12.14362, 49.26529], [12.14415, 49.26498], [12.145, 49.26483], [12.14592, 49.26428], [12.14623, 49.26431], [12.14771, 49.2638], [12.15101, 49.26359], [12.15171, 49.26345], [12.15235, 49.26307], [12.15198, 49.265], [12.15268, 49.26521], [12.15312, 49.26556], [12.15319, 49.26621], [12.15315, 49.26658], [12.15283, 49.26662], [12.15281, 49.26685], [12.1522, 49.267], [12.1515, 49.26758], [12.15152, 49.26779], [12.15214, 49.26829], [12.15203, 49.26942], [12.15228, 49.26954], [12.15234, 49.27], [12.15209, 49.27017], [12.15278, 49.27078], [12.15269, 49.27095], [12.15198, 49.27104], [12.1518, 49.27257], [12.15113, 49.27286], [12.15093, 49.27272], [12.14981, 49.27318], [12.14901, 49.27368], [12.14847, 49.2746], [12.14798, 49.27464], [12.14627, 49.27412], [12.14599, 49.2733], [12.14623, 49.27276], [12.14564, 49.27244], [12.14547, 49.27198], [12.14516, 49.27176], [12.14437, 49.2717], [12.14389, 49.27193], [12.14254, 49.27327], [12.14051, 49.2736], [12.13941, 49.274], [12.13826, 49.27551], [12.13776, 49.27678], [12.13744, 49.27703], [12.14024, 49.27904], [12.13972, 49.27944], [12.1384, 49.27976], [12.13715, 49.2797], [12.13721, 49.28057], [12.13697, 49.28068], [12.13678, 49.28065], [12.13651, 49.27956], [12.13551, 49.27934], [12.13546, 49.27972], [12.13511, 49.28], [12.13411, 49.27892], [12.1327, 49.2791], [12.1324, 49.27882], [12.13194, 49.27893], [12.13164, 49.27882], [12.13089, 49.27914], [12.13142, 49.27967], [12.1314, 49.28022], [12.13166, 49.28067], [12.13192, 49.28061], [12.13221, 49.28076], [12.13315, 49.28013], [12.13383, 49.28044], [12.1336, 49.28122], [12.13361, 49.28336], [12.1339, 49.28424], [12.13375, 49.28455], [12.13296, 49.28476], [12.13312, 49.28518], [12.13374, 49.28551], [12.13299, 49.28576], [12.13287, 49.2867], [12.13332, 49.28756], [12.13272, 49.28849], [12.1335, 49.2897], [12.13483, 49.29072], [12.13565, 49.2911], [12.13625, 49.29059], [12.13708, 49.2902], [12.13755, 49.29025], [12.13833, 49.28985], [12.13894, 49.29006], [12.14037, 49.28911], [12.14193, 49.28974], [12.14287, 49.29181], [12.14308, 49.29352], [12.14294, 49.29352], [12.14326, 49.29432], [12.14399, 49.29434], [12.14544, 49.2948], [12.14021, 49.29682], [12.13933, 49.29738], [12.13839, 49.29828], [12.13771, 49.29975], [12.13748, 49.30408], [12.13658, 49.30585], [12.13709, 49.30616], [12.13999, 49.30899], [12.14206, 49.31043], [12.14276, 49.31148], [12.14409, 49.31152], [12.15164, 49.31295], [12.15162, 49.31416], [12.15211, 49.31452], [12.15283, 49.31419], [12.15344, 49.3143], [12.15395, 49.31615], [12.15415, 49.31814], [12.15919, 49.31779], [12.16222, 49.31812], [12.16241, 49.31843], [12.16163, 49.3206], [12.16156, 49.32149], [12.15678, 49.32242], [12.15845, 49.32473], [12.15849, 49.32568], [12.15918, 49.32783], [12.16108, 49.32754], [12.16514, 49.3298], [12.16332, 49.33044], [12.16199, 49.33141], [12.15986, 49.33239], [12.15866, 49.33326], [12.15758, 49.33356], [12.15622, 49.33341], [12.1532, 49.33444], [12.1527, 49.3355], [12.15126, 49.33656], [12.15147, 49.33716], [12.15099, 49.33753], [12.15067, 49.3405], [12.151, 49.34126], [12.15184, 49.34192], [12.15219, 49.34247], [12.1521, 49.34293], [12.15158, 49.34332], [12.15175, 49.34343], [12.15257, 49.34306], [12.15325, 49.34306], [12.15467, 49.34355], [12.15681, 49.34364], [12.15834, 49.34442], [12.15921, 49.34435], [12.16182, 49.34452], [12.16426, 49.34352], [12.16454, 49.34325], [12.16452, 49.34267], [12.16552, 49.34259], [12.16658, 49.34173], [12.16929, 49.34148], [12.17002, 49.34245], [12.16962, 49.34337], [12.16961, 49.34395], [12.17058, 49.34461], [12.17092, 49.34461], [12.17165, 49.34302], [12.17412, 49.34049], [12.17684, 49.33931], [12.17719, 49.33948], [12.17785, 49.33911], [12.17884, 49.33836], [12.18045, 49.33665], [12.18232, 49.33564], [12.18298, 49.33547], [12.1839, 49.33564], [12.18479, 49.33544], [12.1865, 49.3354], [12.19015, 49.33479], [12.19408, 49.33434], [12.19745, 49.33323], [12.19875, 49.33252], [12.20056, 49.33191], [12.20175, 49.33132], [12.20398, 49.33291], [12.20682, 49.33433], [12.21009, 49.33556], [12.21086, 49.33601], [12.21084, 49.33652], [12.20902, 49.33795], [12.20843, 49.33893], [12.20682, 49.33978], [12.20638, 49.34038], [12.20383, 49.34053], [12.20225, 49.34087], [12.2009, 49.34154], [12.19946, 49.34263], [12.19789, 49.3432], [12.19567, 49.3436], [12.19381, 49.34335], [12.19139, 49.34543], [12.19057, 49.34643], [12.18999, 49.3477], [12.19034, 49.34872], [12.19133, 49.34971], [12.19121, 49.35062], [12.19166, 49.35076], [12.19121, 49.35126], [12.18894, 49.35281], [12.18751, 49.35349], [12.18518, 49.35426], [12.18313, 49.35471], [12.18209, 49.3555], [12.18179, 49.35597], [12.17929, 49.35717], [12.17738, 49.35777], [12.17563, 49.35853], [12.16965, 49.3619], [12.16604, 49.36497], [12.16532, 49.3658], [12.16456, 49.36747], [12.16119, 49.37057], [12.15981, 49.36903], [12.15905, 49.36851], [12.15855, 49.36837], [12.15635, 49.36927], [12.1561, 49.36939], [12.15627, 49.36953], [12.15535, 49.36999], [12.15222, 49.36941], [12.15203, 49.37157], [12.14925, 49.37166], [12.14859, 49.37081], [12.14704, 49.37021], [12.14822, 49.36996], [12.14876, 49.36909], [12.14855, 49.36831], [12.14837, 49.36814], [12.1474, 49.36868], [12.14659, 49.36851], [12.14694, 49.36827], [12.14729, 49.36739], [12.14467, 49.36548], [12.1444, 49.36537], [12.14414, 49.36555], [12.14353, 49.36549], [12.14316, 49.36533], [12.14287, 49.36482], [12.14257, 49.36481], [12.14222, 49.36528], [12.14175, 49.36545], [12.14075, 49.36532], [12.13977, 49.36539], [12.13926, 49.36591], [12.13854, 49.36597], [12.13828, 49.36537], [12.13795, 49.36547], [12.13758, 49.36522], [12.13695, 49.36512], [12.13592, 49.36427], [12.13514, 49.36248], [12.13446, 49.36183], [12.13332, 49.36147], [12.1313, 49.36144], [12.13042, 49.36116], [12.13005, 49.36046], [12.13038, 49.35998], [12.13093, 49.36046], [12.13172, 49.3606], [12.13225, 49.36042], [12.1332, 49.35975], [12.13315, 49.35966], [12.13225, 49.35999], [12.13147, 49.36009], [12.12984, 49.35808], [12.12905, 49.35837], [12.12943, 49.35866], [12.12955, 49.35934], [12.12915, 49.3604], [12.12686, 49.36122], [12.1274, 49.36173], [12.12696, 49.36187], [12.12602, 49.36114], [12.12537, 49.36189], [12.12354, 49.36309], [12.12121, 49.36422], [12.11746, 49.3651], [12.1155, 49.36656], [12.11136, 49.36854], [12.11028, 49.3706], [12.10978, 49.37103], [12.10808, 49.37174], [12.10765, 49.37221], [12.10806, 49.37461], [12.10765, 49.37533], [12.10696, 49.37505], [12.10651, 49.37221], [12.10276, 49.37134], [12.10259, 49.37193], [12.10116, 49.3726], [12.09953, 49.37414], [12.09635, 49.37618], [12.0932, 49.37758], [12.07918, 49.38132], [12.07915, 49.38116], [12.07886, 49.38122], [12.07356, 49.38262], [12.07181, 49.38204], [12.06879, 49.38154], [12.06527, 49.38055], [12.06438, 49.38017], [12.06178, 49.37796], [12.06087, 49.37764], [12.06042, 49.37677], [12.06118, 49.37479], [12.0611, 49.37381], [12.06208, 49.37374], [12.06312, 49.37343], [12.0598, 49.37195], [12.05646, 49.36949], [12.05597, 49.36938], [12.05209, 49.3693], [12.05061, 49.36909], [12.05066, 49.36694], [12.05659, 49.36658], [12.05635, 49.36506], [12.05843, 49.36425], [12.05876, 49.36388], [12.05879, 49.36359], [12.05783, 49.36181], [12.05806, 49.35992], [12.05631, 49.35777], [12.05487, 49.35863], [12.0546, 49.35827], [12.06314, 49.35331], [12.06198, 49.35303], [12.06154, 49.35269], [12.05408, 49.35272], [12.05388, 49.35182], [12.04779, 49.35227], [12.0467, 49.3503], [12.04692, 49.34858], [12.04678, 49.34778], [12.04447, 49.34498], [12.04387, 49.34563], [12.04374, 49.34615], [12.04321, 49.34647], [12.04295, 49.34714], [12.04084, 49.34788], [12.0401, 49.34887], [12.03991, 49.34953], [12.04196, 49.35129], [12.04251, 49.35213], [12.04313, 49.35254], [12.04213, 49.3528], [12.04127, 49.35285], [12.04057, 49.35206], [12.03861, 49.35158], [12.03819, 49.35198], [12.03755, 49.35356], [12.03682, 49.35388], [12.0369, 49.35403], [12.0327, 49.35415], [12.02712, 49.35368], [12.02535, 49.35309], [12.02433, 49.35222], [12.02284, 49.35199], [12.02186, 49.35246], [12.02207, 49.35429], [12.02236, 49.35515], [12.02382, 49.35541], [12.02413, 49.35566], [12.02367, 49.35632], [12.02126, 49.35621], [12.0202, 49.35471], [12.01882, 49.35384], [12.01818, 49.35361], [12.01816, 49.3537], [12.01759, 49.35361], [12.01741, 49.35387], [12.01697, 49.35383], [12.01719, 49.35281], [12.01683, 49.35251], [12.01695, 49.3523], [12.01672, 49.35202], [12.01764, 49.35204], [12.01789, 49.35066], [12.01775, 49.34988], [12.01832, 49.34925], [12.01787, 49.34855], [12.01785, 49.34804], [12.01722, 49.34783], [12.0135, 49.34863], [12.01178, 49.3486], [12.01005, 49.34879], [12.00944, 49.34898], [12.00936, 49.34921], [12.00777, 49.3493], [12.00724, 49.34971], [12.00673, 49.35116], [12.00617, 49.35168], [12.00489, 49.35079], [12.00377, 49.35033], [11.99996, 49.34997], [11.99892, 49.35009], [11.99938, 49.35208], [11.99743, 49.35209], [11.99742, 49.35219], [11.9953, 49.35173], [11.99525, 49.35194], [11.994, 49.35174], [11.99484, 49.35096], [11.9947, 49.35041], [11.99735, 49.35027], [11.99689, 49.3491], [11.99726, 49.34776], [11.99704, 49.34704], [11.99657, 49.34688], [11.99587, 49.34745], [11.99416, 49.34711], [11.99432, 49.34651], [11.99521, 49.34675], [11.99587, 49.34614], [11.99419, 49.34558], [11.99438, 49.34524], [11.99766, 49.34642], [11.99802, 49.34602], [11.99809, 49.34514], [11.9984, 49.3445], [12.00056, 49.34452], [12.00105, 49.34223], [12.004, 49.3424], [12.00529, 49.34278], [12.00601, 49.34316], [12.00643, 49.34254], [12.00737, 49.34273], [12.0082, 49.34273], [12.00849, 49.34233], [12.01092, 49.34214], [12.01117, 49.34192], [12.01047, 49.34141], [12.01036, 49.34093], [12.01004, 49.34071], [12.0069, 49.34009], [12.00696, 49.33911], [12.00597, 49.33724], [12.00523, 49.33661], [12.001, 49.33692], [11.99964, 49.33668], [11.99855, 49.3355], [11.99741, 49.33317], [11.99705, 49.33296], [11.99705, 49.33237], [11.99749, 49.33099], [11.99741, 49.33056], [11.9995, 49.33011], [11.99952, 49.32931], [11.99978, 49.32924], [11.99911, 49.32885], [11.99898, 49.3274], [12.00006, 49.32448], [11.99439, 49.32371], [11.99252, 49.32386], [11.98973, 49.32381]]]}}