{"type":"Feature","properties":{"osm_display_name":"Landkreis Würzburg, Bayern, Deutschland","osm_id":62465,"hinweis":"Landkreis fuer den Hero der Stadtseite. Der Stadtmittelpunkt liegt im aeusseren Ring dieses Kreises (geprueft). Vereinfacht, Toleranz 0.0004 Grad."},"geometry":{"type":"Polygon","coordinates":[[[9.6254973,49.7034193],[9.6265379,49.7024501],[9.630527,49.7017089],[9.6327694,49.696744],[9.6322749,49.6931902],[9.6430391,49.6933345],[9.6451004,49.6909794],[9.6494553,49.6915176],[9.6491067,49.6907989],[9.6500328,49.6905289],[9.6490897,49.6889989],[9.6532653,49.6870997],[9.6546378,49.688433],[9.6626817,49.6892017],[9.6761252,49.6933846],[9.6741354,49.6967287],[9.6758883,49.7010838],[9.6774977,49.708353],[9.6778733,49.71411],[9.677039,49.7163248],[9.6825788,49.7176142],[9.6920683,49.7180522],[9.6962304,49.7193152],[9.6973033,49.7181288],[9.7008292,49.7169206],[9.7001939,49.7173849],[9.7012471,49.7202941],[9.7010786,49.7222347],[9.7025011,49.7223056],[9.7046953,49.7251913],[9.7069771,49.7246161],[9.71049,49.72705],[9.7118462,49.726247],[9.712008,49.7226767],[9.7141589,49.7208767],[9.7141471,49.7179654],[9.7135476,49.7168255],[9.7145619,49.7166167],[9.7141778,49.7142065],[9.713291,49.7139748],[9.713577,49.7130373],[9.7160313,49.7080487],[9.7197123,49.7032545],[9.7193607,49.7019611],[9.7259167,49.7005666],[9.7280841,49.698845],[9.729165,49.6970988],[9.7274873,49.690966],[9.727814,49.6881229],[9.7298798,49.6887646],[9.735501,49.6877368],[9.7393839,49.6881966],[9.7387661,49.6900595],[9.7417456,49.6905576],[9.7420686,49.6917049],[9.7454263,49.6918464],[9.7453872,49.6935704],[9.7479495,49.6948729],[9.7497079,49.6949688],[9.7510275,49.6967864],[9.7515223,49.699144],[9.7505023,49.7020572],[9.7528671,49.7101144],[9.7583391,49.7121756],[9.7603723,49.7142808],[9.768468,49.7189152],[9.7793941,49.7224558],[9.7869461,49.7217113],[9.7893263,49.7246436],[9.7899522,49.7287467],[9.791622,49.7310071],[9.7999073,49.730973],[9.8002428,49.7295956],[9.7963975,49.7274501],[9.795918,49.7263305],[9.7963051,49.7211336],[9.8041913,49.7181716],[9.8053742,49.7174481],[9.8076032,49.7143402],[9.8207006,49.7104542],[9.8236293,49.7077356],[9.8226653,49.7074382],[9.8234325,49.7046771],[9.8268821,49.7058382],[9.8288367,49.7035603],[9.8327297,49.7022474],[9.8329236,49.6991155],[9.831856,49.6983943],[9.8339568,49.6967312],[9.8323431,49.695723],[9.8346664,49.6943682],[9.8329854,49.6934772],[9.8354165,49.692208],[9.8295311,49.6884249],[9.8312603,49.686585],[9.832617,49.6874114],[9.8367035,49.6853725],[9.8363703,49.6843343],[9.837115,49.6829329],[9.8406623,49.6835884],[9.8411597,49.6817485],[9.8300957,49.6810144],[9.8311516,49.6789567],[9.8289671,49.678571],[9.827473,49.6754295],[9.8256155,49.6754835],[9.8252653,49.6722328],[9.8232995,49.6721968],[9.825642,49.6675355],[9.8217579,49.6661489],[9.8224173,49.6647118],[9.8239028,49.6632258],[9.8249454,49.6634985],[9.8274935,49.661194],[9.8317496,49.6606788],[9.8293803,49.6600692],[9.8293677,49.6595874],[9.8313327,49.659015],[9.8318939,49.6574508],[9.833859,49.6562537],[9.832588,49.6544622],[9.8296361,49.6542116],[9.8304006,49.6506108],[9.8333647,49.6495914],[9.8328399,49.6489704],[9.8352745,49.648172],[9.8360707,49.6474587],[9.8350401,49.6464893],[9.8366509,49.6457677],[9.8376628,49.6460689],[9.8418846,49.6442705],[9.8423602,49.6451259],[9.8445417,49.6451002],[9.8453689,49.6436827],[9.8500411,49.6440113],[9.8501806,49.6428554],[9.851891,49.6431787],[9.8554802,49.6415296],[9.8558338,49.6388835],[9.8565972,49.6388414],[9.8580375,49.6360671],[9.8572495,49.6359265],[9.8568411,49.6346983],[9.8587919,49.6347873],[9.8576747,49.6323833],[9.8605029,49.6324],[9.863755,49.6278488],[9.8629663,49.6275445],[9.8655984,49.624119],[9.8640984,49.6238941],[9.8644196,49.621765],[9.8671571,49.6218458],[9.8672083,49.621216],[9.8677086,49.6212823],[9.8686393,49.6169543],[9.8674639,49.616911],[9.8675403,49.6164294],[9.8691498,49.6125001],[9.8675889,49.6122836],[9.8679929,49.61118],[9.8720116,49.6115173],[9.8728281,49.6100355],[9.8702867,49.6098333],[9.8704363,49.608849],[9.8640283,49.6081321],[9.8642808,49.6075919],[9.8573623,49.6080317],[9.8592159,49.605625],[9.8595391,49.6029921],[9.8487744,49.5975559],[9.8457985,49.5979431],[9.8454102,49.5968273],[9.8440087,49.5967771],[9.8441229,49.5955238],[9.8414667,49.594765],[9.841745,49.5940068],[9.8433412,49.5932663],[9.841036,49.5917063],[9.8414076,49.5905611],[9.8469837,49.5850691],[9.84761,49.5810673],[9.8488864,49.5802766],[9.8466766,49.5797941],[9.8474028,49.578402],[9.8487845,49.5776702],[9.8443483,49.5754636],[9.8406382,49.5744574],[9.8417004,49.5728118],[9.8372,49.5709468],[9.8384417,49.5694957],[9.8255617,49.5634808],[9.8163695,49.5602594],[9.8167481,49.5596111],[9.8102683,49.5569077],[9.8117756,49.5556963],[9.8181332,49.55879],[9.8186406,49.5571731],[9.8180797,49.5557734],[9.8257738,49.5535734],[9.8277359,49.5516133],[9.84061,49.55057],[9.8434015,49.5474829],[9.8471618,49.5474542],[9.8478309,49.5462255],[9.8501262,49.5452965],[9.8516947,49.545136],[9.8544735,49.5460997],[9.8554033,49.5456461],[9.8593252,49.5459197],[9.8603245,49.5473512],[9.8594914,49.5485378],[9.8610588,49.5511319],[9.8604823,49.5534866],[9.8645102,49.5537409],[9.8643623,49.5552519],[9.8658524,49.5553524],[9.8653411,49.5565317],[9.8666464,49.5574968],[9.8663037,49.5590669],[9.8669689,49.5591849],[9.8645688,49.5677772],[9.8700067,49.5688548],[9.8693537,49.5711163],[9.8742421,49.5717071],[9.873667,49.5734367],[9.8751375,49.5785386],[9.8790343,49.5789748],[9.8832866,49.5802914],[9.883104,49.5808825],[9.8838619,49.5810872],[9.8840805,49.5803991],[9.8859515,49.5803414],[9.8860277,49.5815697],[9.8870175,49.5824363],[9.8898837,49.582453],[9.8909664,49.5834875],[9.8937014,49.5835526],[9.8950266,49.5848426],[9.8968603,49.5853713],[9.8975852,49.5871262],[9.9003508,49.5844367],[9.9012195,49.585842],[9.9038287,49.5850046],[9.904207,49.5856428],[9.9074734,49.5849127],[9.9084976,49.5863602],[9.9122295,49.5857217],[9.9109092,49.5835674],[9.9140468,49.583025],[9.9064874,49.5792629],[9.9062901,49.5774533],[9.9049867,49.5774134],[9.9048178,49.574904],[9.9038511,49.5729845],[9.9011612,49.5725582],[9.9006213,49.5715918],[9.9012095,49.5691367],[9.8994262,49.5676767],[9.8978667,49.5625783],[9.8988747,49.5608658],[9.906539,49.5624409],[9.9114441,49.561443],[9.9158845,49.5616051],[9.9211814,49.5633698],[9.9209958,49.5626525],[9.9245014,49.5613789],[9.9251105,49.5600796],[9.9246803,49.5589626],[9.9229499,49.5581445],[9.924811,49.5571667],[9.9245559,49.5563192],[9.9206426,49.5545003],[9.9215638,49.5539461],[9.9222131,49.5543603],[9.9238106,49.5529893],[9.9258075,49.5535928],[9.9273963,49.5510205],[9.9267651,49.5506114],[9.9275189,49.5495338],[9.9250856,49.5495641],[9.9242762,49.5488996],[9.9217185,49.5514109],[9.9210416,49.5510421],[9.9217285,49.5481892],[9.9213461,49.5472772],[9.9229247,49.5458695],[9.9200684,49.5449747],[9.9228389,49.5421476],[9.9213285,49.5411151],[9.9234152,49.5398992],[9.92709,49.5360086],[9.9249741,49.5349455],[9.9257411,49.5338804],[9.924734,49.5319672],[9.925787,49.5301417],[9.923207,49.5290085],[9.9245891,49.527761],[9.923703,49.5240746],[9.9208872,49.5236573],[9.918621,49.5223879],[9.9176129,49.5216426],[9.9168842,49.5191514],[9.9171092,49.5176427],[9.9202479,49.5148285],[9.922946,49.5102258],[9.9251323,49.5086598],[9.9217675,49.5036669],[9.919413,49.5020942],[9.9187061,49.5007455],[9.9181325,49.5008207],[9.9177821,49.4994319],[9.9160299,49.4995666],[9.9158812,49.498196],[9.916646,49.4981148],[9.916796,49.4969319],[9.915569,49.4964708],[9.9153888,49.4956413],[9.9143715,49.4956041],[9.9139274,49.4931884],[9.9266985,49.4846447],[9.9289739,49.4838578],[9.9334032,49.4837572],[9.9449071,49.4815838],[9.9485814,49.4816628],[9.9516953,49.4804787],[9.9548268,49.4806844],[9.958945,49.4840314],[9.9654872,49.4841401],[9.972458,49.485876],[9.9757426,49.4852557],[9.9734345,49.4819963],[9.9749955,49.4809708],[9.9784635,49.4839906],[9.982651,49.484111],[9.9922677,49.4863383],[9.9926927,49.4857425],[9.9972673,49.4863563],[9.9978066,49.4854811],[10.0007969,49.4860557],[10.0011266,49.4852354],[10.0034128,49.4843068],[10.0110423,49.4829864],[10.0160792,49.4838519],[10.0167672,49.4852929],[10.0193886,49.4862495],[10.0194856,49.4849486],[10.020093,49.4850304],[10.0201857,49.4870155],[10.0215691,49.488162],[10.0243371,49.4935145],[10.0261192,49.4956247],[10.0275018,49.4984456],[10.0275169,49.5002872],[10.0283737,49.500352],[10.027853,49.5015346],[10.0281632,49.5039989],[10.0338878,49.503701],[10.0391782,49.5050416],[10.0390755,49.5057199],[10.0403462,49.5062465],[10.0448032,49.5059166],[10.0453331,49.5066911],[10.0477895,49.5068279],[10.0526411,49.5098349],[10.0514839,49.514412],[10.0560931,49.514907],[10.0573146,49.5168688],[10.0571711,49.5193338],[10.0548897,49.5197928],[10.0548815,49.5211809],[10.050122,49.521049],[10.0431571,49.5257894],[10.0413273,49.5261978],[10.0399391,49.5276355],[10.04095,49.5278872],[10.0397758,49.528906],[10.045106,49.5306632],[10.0529253,49.5345584],[10.0584457,49.5359584],[10.0589434,49.5370189],[10.0613546,49.5374492],[10.0570956,49.5406413],[10.0618084,49.5416719],[10.0616718,49.5451492],[10.0667068,49.5455291],[10.0758707,49.5444342],[10.0760688,49.542874],[10.0837586,49.5435833],[10.0844707,49.547373],[10.083121,49.5473777],[10.0825626,49.5506077],[10.0825904,49.5517788],[10.0833141,49.55184],[10.0829296,49.5546566],[10.0836639,49.5547325],[10.082669,49.5556808],[10.0831796,49.5559382],[10.0806789,49.5571833],[10.0808576,49.5584812],[10.0816668,49.558832],[10.0805744,49.5599051],[10.0809945,49.5601979],[10.0764893,49.5634493],[10.0786085,49.5650329],[10.0759707,49.5657711],[10.074747,49.5648546],[10.071695,49.567326],[10.0744128,49.5682896],[10.0725634,49.5722923],[10.0730905,49.5724095],[10.0743571,49.5773332],[10.0753626,49.5774924],[10.0752481,49.5805974],[10.073071,49.5805253],[10.0721159,49.5866025],[10.071368,49.5865409],[10.071492,49.5881839],[10.0706849,49.5882382],[10.0726559,49.5909953],[10.0695475,49.5924831],[10.0709543,49.5935026],[10.0731216,49.5934364],[10.0760034,49.5948244],[10.0747978,49.5963317],[10.0829985,49.5984323],[10.0821781,49.6023547],[10.0863728,49.6026785],[10.0858293,49.6052903],[10.0872486,49.6053708],[10.0867863,49.6079602],[10.0907841,49.6076624],[10.0898765,49.6109758],[10.0992686,49.6125254],[10.0975446,49.6170502],[10.1002449,49.6175365],[10.0995546,49.6190781],[10.1024629,49.619446],[10.102191,49.6202344],[10.110266,49.6214667],[10.1078951,49.624437],[10.1068187,49.6241641],[10.1041974,49.6268702],[10.1025772,49.6275456],[10.0987703,49.6242119],[10.0969833,49.6261575],[10.0968598,49.6284088],[10.0948205,49.6306267],[10.0894093,49.630235],[10.0890678,49.6315591],[10.0875418,49.6313367],[10.0869047,49.6322995],[10.0855115,49.6327207],[10.0858452,49.6333264],[10.0840964,49.6329631],[10.0838379,49.6339999],[10.0843464,49.6353643],[10.0849159,49.6353852],[10.0841489,49.6366568],[10.085672,49.6376338],[10.0844974,49.6385955],[10.0836466,49.6408399],[10.0842205,49.6423066],[10.0861847,49.6429624],[10.0822007,49.6456177],[10.0814612,49.6470049],[10.0845877,49.6500754],[10.0851391,49.6527625],[10.0877705,49.6546586],[10.0882867,49.6553555],[10.0879193,49.6560849],[10.0888549,49.6564394],[10.0894302,49.6575776],[10.09084,49.6578917],[10.0905021,49.6592299],[10.0931297,49.6608521],[10.0979328,49.6622855],[10.0996582,49.6603386],[10.1022338,49.6605296],[10.1034503,49.6586446],[10.1033498,49.6570905],[10.104067,49.6570699],[10.1045488,49.6591749],[10.1039285,49.6602752],[10.1049914,49.6622378],[10.1077695,49.6646995],[10.1096054,49.6646146],[10.1092048,49.6694178],[10.123444,49.6670298],[10.1293068,49.6668388],[10.1339148,49.6674037],[10.1323417,49.6707511],[10.1306206,49.6705502],[10.1298025,49.6724024],[10.1279942,49.674033],[10.1273512,49.6753017],[10.1277342,49.6769137],[10.1252224,49.6784149],[10.1209402,49.6838136],[10.1249027,49.6839308],[10.1275856,49.6867037],[10.1170149,49.6932388],[10.1148761,49.6953293],[10.1136555,49.6982385],[10.1117592,49.6994173],[10.1025883,49.7024755],[10.1008058,49.7047873],[10.1003371,49.7081145],[10.0982454,49.7097664],[10.0960786,49.7154018],[10.0961206,49.7167786],[10.1013113,49.7188796],[10.1067426,49.7181316],[10.1088182,49.7184972],[10.114588,49.7205271],[10.1139985,49.7211442],[10.1114577,49.7222534],[10.1112712,49.7231256],[10.1070867,49.7225147],[10.1060019,49.7232853],[10.1029766,49.7231248],[10.1027716,49.7203011],[10.101842,49.7203094],[10.1018395,49.719315],[10.0972954,49.7197451],[10.0976296,49.7183905],[10.095385,49.7181505],[10.0897141,49.7185885],[10.0845257,49.7179176],[10.0658955,49.7191191],[10.0658753,49.7222482],[10.0576581,49.7226661],[10.0577167,49.724775],[10.0560242,49.7248841],[10.0561582,49.7255759],[10.0515472,49.7280824],[10.0507232,49.7298806],[10.0504335,49.7333475],[10.0520767,49.7351394],[10.0514954,49.7350001],[10.0477192,49.7405779],[10.0507925,49.7412833],[10.046814,49.7454512],[10.0466842,49.7465545],[10.0405583,49.7466281],[10.0399057,49.7479181],[10.0436152,49.7481263],[10.0431044,49.7498811],[10.0462102,49.7503692],[10.045486,49.7515716],[10.0522246,49.7527209],[10.0517515,49.7543267],[10.056217,49.7546003],[10.0560517,49.7559077],[10.0576332,49.7559531],[10.0575019,49.7564555],[10.0597191,49.7571766],[10.0614817,49.7586726],[10.059842,49.7592925],[10.0578045,49.7623833],[10.0602901,49.7641609],[10.0599306,49.7648502],[10.0590591,49.7658899],[10.0561927,49.7669924],[10.0567082,49.7676207],[10.0540815,49.7686048],[10.0522446,49.7723238],[10.0525849,49.7736213],[10.0561449,49.7723414],[10.058919,49.7754184],[10.0612428,49.7742307],[10.0628935,49.7770561],[10.0624524,49.7771194],[10.0626088,49.7813138],[10.0648419,49.7829092],[10.0616073,49.7826096],[10.0598637,49.7893181],[10.0579413,49.7919331],[10.0609984,49.7922841],[10.05625,49.7957093],[10.0577631,49.7960242],[10.0565193,49.7999152],[10.0603593,49.8002899],[10.0582998,49.8050397],[10.0601529,49.8057334],[10.0595784,49.8073972],[10.0637639,49.8087113],[10.062004,49.8100364],[10.0626519,49.8133981],[10.0619362,49.8153908],[10.062742,49.8164956],[10.0648495,49.8175216],[10.0645186,49.8184805],[10.0656738,49.820371],[10.062931,49.8216018],[10.0607979,49.8212551],[10.060597,49.8218509],[10.0650974,49.8231433],[10.0650314,49.8253054],[10.0685261,49.8262093],[10.0673403,49.827122],[10.0686739,49.8278459],[10.0751664,49.8289575],[10.0847139,49.8330334],[10.0835776,49.8341129],[10.0867152,49.8373868],[10.0894148,49.8358709],[10.0951343,49.8360894],[10.0967051,49.8372929],[10.1007078,49.8361004],[10.1073349,49.8359861],[10.1140413,49.8373685],[10.1138666,49.8387123],[10.1188642,49.8385479],[10.1220485,49.8376766],[10.1240577,49.8397691],[10.1207882,49.8404946],[10.1212709,49.8427439],[10.1206253,49.8427566],[10.11965,49.8451634],[10.1218977,49.8453107],[10.121476,49.846732],[10.125255,49.8469715],[10.1251292,49.8478552],[10.1291472,49.8481604],[10.1289174,49.8490917],[10.1378851,49.849521],[10.138755,49.8463963],[10.1454307,49.8465893],[10.1450754,49.8471776],[10.1477718,49.8474804],[10.1596227,49.8460456],[10.16361,49.8470704],[10.1644859,49.8482874],[10.1643004,49.8556825],[10.1652799,49.8577296],[10.164368,49.8578361],[10.1637632,49.8599094],[10.1643366,49.8673791],[10.1662505,49.8695192],[10.1640382,49.8711479],[10.1631556,49.8727119],[10.1627192,49.8752624],[10.1631172,49.8771595],[10.1668849,49.8823149],[10.1697989,49.884305],[10.1745529,49.8851313],[10.1761126,49.8835412],[10.1770894,49.8840303],[10.1780482,49.8833152],[10.1825883,49.8851591],[10.1864797,49.8877041],[10.1890358,49.8922789],[10.184626,49.8933927],[10.1886656,49.8979387],[10.1893862,49.9037254],[10.1846877,49.9035672],[10.1837201,49.9069947],[10.1803709,49.9058954],[10.1795824,49.9080863],[10.174299,49.9135426],[10.1722006,49.9127315],[10.1675257,49.9094097],[10.1644736,49.9088028],[10.1629826,49.9073955],[10.160134,49.9061716],[10.1611838,49.9039907],[10.1617484,49.9040674],[10.1623026,49.9031452],[10.1586367,49.9023994],[10.1520668,49.9023608],[10.1519192,49.9051103],[10.1469042,49.9055249],[10.1466431,49.9063777],[10.1484497,49.9068414],[10.1451779,49.9082909],[10.1355387,49.9066734],[10.1355387,49.9092028],[10.125803,49.9079699],[10.1188311,49.9078058],[10.1197368,49.909568],[10.113873,49.9101882],[10.1134003,49.9119246],[10.1089059,49.911864],[10.1026619,49.9095548],[10.1002324,49.9107213],[10.099171,49.9132915],[10.1022288,49.912271],[10.1012491,49.91492],[10.09981,49.9153329],[10.1019444,49.9159872],[10.1019628,49.9171669],[10.1035122,49.9174211],[10.1026471,49.9217324],[10.104157,49.9218252],[10.1040313,49.9241731],[10.1069997,49.9242397],[10.1071101,49.9249193],[10.1059236,49.9249905],[10.1061081,49.9285229],[10.0972257,49.9290013],[10.091737,49.9302805],[10.0860872,49.9299971],[10.0858274,49.9311088],[10.0798413,49.930875],[10.0797964,49.9313306],[10.0770349,49.9312016],[10.0770964,49.9317353],[10.0763725,49.9319411],[10.0696631,49.9318125],[10.0702928,49.9352779],[10.0653951,49.9360854],[10.0650593,49.9376845],[10.0627193,49.9373908],[10.0619021,49.9413709],[10.0623421,49.9414447],[10.0613984,49.9435011],[10.0563238,49.9427472],[10.0548581,49.9464835],[10.0537989,49.9463089],[10.0533791,49.9477173],[10.0490132,49.9476258],[10.0495319,49.9485974],[10.0441697,49.9492354],[10.043195,49.95032],[10.0429811,49.9523439],[10.0446558,49.9524847],[10.0442444,49.9535198],[10.0329634,49.9525402],[10.03309,49.9516875],[10.0320571,49.9516137],[10.0325855,49.9504282],[10.0312212,49.9504288],[10.0308562,49.9522244],[10.0288605,49.9523902],[10.0293433,49.9495828],[10.0250792,49.9485086],[10.0238643,49.9486006],[10.0225302,49.9499268],[10.0208413,49.9493229],[10.0140944,49.9510477],[10.012018,49.9505149],[10.011228,49.9493689],[10.0116824,49.9449689],[10.0105893,49.9431364],[10.0155081,49.9415246],[10.0192467,49.9417192],[10.0211653,49.9397891],[10.0043383,49.9366946],[9.9948199,49.9367982],[9.9947977,49.9381608],[9.9922667,49.9383789],[9.9922174,49.9397382],[9.9882629,49.9399804],[9.9891695,49.9405582],[9.9885431,49.9417004],[9.9842473,49.9402654],[9.9821931,49.9428886],[9.9791898,49.9432598],[9.97857,49.9430102],[9.9783089,49.9403559],[9.971485,49.9396761],[9.9601043,49.9401616],[9.9534485,49.9383706],[9.9525319,49.9414088],[9.9493082,49.9463713],[9.94953,49.9476401],[9.9452239,49.9470962],[9.9393007,49.94871],[9.9379769,49.9468442],[9.9351623,49.9463062],[9.9326997,49.9439335],[9.9287133,49.9430715],[9.9260597,49.9412477],[9.9255578,49.9415687],[9.9127204,49.9334295],[9.9134104,49.9322418],[9.9123748,49.9309826],[9.9120822,49.9287687],[9.9134592,49.9262545],[9.9170866,49.9239617],[9.9182278,49.9222166],[9.9164571,49.9186095],[9.9161065,49.9159215],[9.9171438,49.9137444],[9.9191092,49.9122366],[9.9172302,49.9099777],[9.916558,49.9074072],[9.9185742,49.9043699],[9.9189852,49.9021477],[9.9226144,49.8969619],[9.92755,49.8922901],[9.9253698,49.8909352],[9.9227729,49.8919924],[9.917962,49.8925613],[9.9018883,49.8933626],[9.8923495,49.8924997],[9.8874064,49.8905452],[9.8862353,49.8891325],[9.8834899,49.8880299],[9.8835361,49.8898326],[9.8830823,49.8898199],[9.8826672,49.891914],[9.8758845,49.8917036],[9.8758169,49.8927533],[9.8669422,49.8942181],[9.8548469,49.8928809],[9.8534297,49.8943704],[9.8507354,49.8952548],[9.8379264,49.8909245],[9.8330053,49.8952714],[9.82982,49.89421],[9.8335522,49.8849472],[9.8379907,49.8761908],[9.8344358,49.875552],[9.8286411,49.8723304],[9.8237287,49.8724978],[9.8229358,49.8733432],[9.8211999,49.87256],[9.8200734,49.87281],[9.8205344,49.8733484],[9.8200261,49.8745786],[9.8191041,49.8749786],[9.8193374,49.8754827],[9.815638,49.8766332],[9.8160119,49.8776124],[9.8121708,49.87812],[9.8124048,49.8787571],[9.8084561,49.8796902],[9.8085809,49.8804692],[9.8053136,49.8812444],[9.8034279,49.8809094],[9.8030556,49.879834],[9.7978678,49.8796602],[9.792231,49.8781813],[9.7900493,49.8787027],[9.7899865,49.8778869],[9.7844915,49.8778102],[9.7801126,49.8785545],[9.7783077,49.8770049],[9.7764495,49.8772001],[9.7747977,49.8760831],[9.7742695,49.8745617],[9.7635801,49.87028],[9.7633564,49.8693856],[9.7605653,49.8687301],[9.7539212,49.8654929],[9.7532425,49.8619071],[9.7548043,49.8599594],[9.7518273,49.8570488],[9.7512127,49.854823],[9.7486578,49.8515098],[9.7478373,49.8483204],[9.7442297,49.8445168],[9.7449404,49.8427798],[9.7381961,49.838492],[9.7350529,49.839358],[9.7314813,49.8379195],[9.7325966,49.8368932],[9.7281967,49.8348832],[9.7297233,49.8339817],[9.7271101,49.8322],[9.7261362,49.8333796],[9.724726,49.8328367],[9.72423,49.8337877],[9.72097,49.8338093],[9.7185651,49.8345864],[9.7170733,49.8339343],[9.715963,49.8351776],[9.709606,49.8368603],[9.7078907,49.8381324],[9.7038231,49.837446],[9.7013178,49.8385815],[9.693458,49.8379902],[9.6930789,49.8373087],[9.692087,49.8378971],[9.6908403,49.8369194],[9.6887239,49.8378524],[9.6831148,49.8366895],[9.6816196,49.8360699],[9.682064,49.8351702],[9.6787647,49.8345041],[9.6723953,49.8339721],[9.6703474,49.8343818],[9.6721613,49.8324683],[9.6756052,49.8313256],[9.6758205,49.8295725],[9.6717757,49.8262906],[9.6727239,49.8243124],[9.6734326,49.8234312],[9.6748334,49.8238275],[9.6776678,49.822659],[9.6763301,49.8218137],[9.6800751,49.8196471],[9.677285,49.8179031],[9.6779454,49.8174086],[9.6769436,49.8167656],[9.6785074,49.8157255],[9.6768001,49.8146594],[9.6778308,49.814183],[9.6765487,49.8133998],[9.6769557,49.8129427],[9.6747196,49.8112809],[9.6694466,49.8092596],[9.6647076,49.8089846],[9.6645274,49.8078813],[9.6666262,49.8071543],[9.6679171,49.8051061],[9.6631426,49.8044168],[9.6526701,49.8051],[9.651618,49.8043289],[9.6514457,49.803082],[9.6533149,49.8030143],[9.6546607,49.7998064],[9.6501238,49.7991013],[9.6520483,49.7932908],[9.6488545,49.7927739],[9.6493537,49.7914802],[9.6487945,49.7914417],[9.6508575,49.7871893],[9.651018,49.7858058],[9.6499661,49.7857522],[9.6502246,49.7835401],[9.6519902,49.7806102],[9.649566,49.7790515],[9.6466324,49.7783944],[9.6451484,49.7787218],[9.64558,49.7774244],[9.6449086,49.7772037],[9.6448904,49.7751095],[9.646136,49.7728655],[9.6474506,49.7725263],[9.6463999,49.7718489],[9.6468393,49.7706855],[9.65073,49.76582],[9.6470023,49.7626792],[9.6440645,49.7591434],[9.6402215,49.757191],[9.6375794,49.7549266],[9.6385,49.7530471],[9.6375221,49.7515871],[9.6381059,49.7512758],[9.6388797,49.7519344],[9.6428702,49.7499101],[9.6437028,49.7482303],[9.645494,49.7468794],[9.6445244,49.7438595],[9.6392557,49.7425944],[9.6387614,49.741017],[9.6393562,49.7401688],[9.645119,49.7399585],[9.6469452,49.739156],[9.6461345,49.7376536],[9.6438076,49.7371917],[9.6437555,49.7367353],[9.6378739,49.738024],[9.6381656,49.7343645],[9.6363775,49.731502],[9.6308691,49.7322198],[9.6255119,49.7316317],[9.631883,49.7278633],[9.6353101,49.7280377],[9.6375275,49.7254496],[9.6386604,49.7257061],[9.6420332,49.7234499],[9.6385499,49.7223776],[9.64095,49.72037],[9.6370366,49.7187705],[9.6344963,49.7187204],[9.6310068,49.716676],[9.6312248,49.7146182],[9.6298171,49.7108219],[9.6312125,49.7101503],[9.6276744,49.7082499],[9.6254973,49.7034193]],[[9.8716285,49.7971542],[9.8744022,49.7969582],[9.8766915,49.798482],[9.8773639,49.7982339],[9.8780355,49.7990264],[9.8772679,49.7992837],[9.8779682,49.8001957],[9.8824468,49.7977316],[9.8834815,49.7983899],[9.8751931,49.8082764],[9.8727335,49.8156386],[9.8732746,49.8196903],[9.8723224,49.8220412],[9.8775675,49.8236365],[9.8781048,49.8223952],[9.8799338,49.8222152],[9.8808297,49.8210954],[9.8817577,49.8212943],[9.8824355,49.8201844],[9.8872435,49.8212851],[9.8880028,49.8223446],[9.8860093,49.8245995],[9.8944746,49.8270764],[9.8968023,49.8260329],[9.900567,49.8257667],[9.9002989,49.8247463],[9.9031269,49.8243164],[9.9038882,49.8251558],[9.9072607,49.8253201],[9.9082071,49.8289216],[9.9090811,49.8290222],[9.9092463,49.8401593],[9.9099496,49.8441395],[9.9133886,49.8451165],[9.91775,49.8438592],[9.9189546,49.842661],[9.9202704,49.842698],[9.9208638,49.8435142],[9.9197948,49.8454619],[9.9217142,49.8446466],[9.9256314,49.8408525],[9.9289743,49.8420189],[9.9324673,49.837843],[9.9337313,49.8352712],[9.9375988,49.8357227],[9.9383153,49.8337603],[9.9417601,49.8340601],[9.9416707,49.8333853],[9.9465031,49.8337491],[9.9467597,49.833288],[9.9517461,49.8348052],[9.9494206,49.8359842],[9.9500183,49.8365839],[9.9692484,49.8397622],[9.9751184,49.8391869],[9.9774296,49.8383616],[9.9800446,49.8393337],[9.9823019,49.8369099],[9.9873637,49.8386346],[9.9893623,49.8348101],[9.9879476,49.8301562],[9.9891546,49.8270702],[9.9883006,49.825614],[9.9886453,49.8249904],[9.9907506,49.8233884],[9.9927667,49.8243931],[9.9997331,49.8199266],[10.0010074,49.8181966],[10.0037641,49.8193133],[10.0040786,49.8189679],[10.002967,49.8183865],[10.0040619,49.8171237],[10.0038679,49.8134575],[10.0053516,49.808622],[10.009467,49.8074043],[10.0074705,49.8042122],[10.0098647,49.8034557],[10.0131248,49.8041771],[10.0144286,49.8019676],[10.0072032,49.8002848],[10.0093103,49.7958308],[10.003793,49.7917786],[10.0028453,49.7919547],[10.0000008,49.7874994],[9.9964841,49.7875459],[9.9952531,49.7884398],[9.9932277,49.7887359],[9.9942335,49.7892746],[9.9927575,49.7896772],[9.9856017,49.7901769],[9.9857566,49.7883427],[9.9838205,49.7874165],[9.9812551,49.7841333],[9.9751606,49.7825214],[9.9765265,49.781568],[9.9760953,49.7797856],[9.9764781,49.7775808],[9.9779583,49.7749011],[9.9794728,49.7750044],[9.9802209,49.7715468],[9.9751584,49.7723712],[9.9736702,49.7735878],[9.9703789,49.7720275],[9.9688013,49.7728652],[9.9637872,49.7723113],[9.9634784,49.771189],[9.9602076,49.7682762],[9.9596376,49.7663913],[9.9540606,49.7679283],[9.9535478,49.7676131],[9.9531703,49.7668775],[9.9543696,49.7658892],[9.9542376,49.7649959],[9.9562036,49.7641844],[9.9690706,49.7621593],[9.9739827,49.7605842],[9.9771259,49.7576852],[9.9793104,49.7535993],[9.9832657,49.7499272],[9.9847392,49.747479],[9.9853933,49.7444485],[9.9842575,49.7408776],[9.9844154,49.7368079],[9.980326,49.7357474],[9.9808534,49.73292],[9.9801169,49.7325341],[9.9737732,49.7321452],[9.9730443,49.7308623],[9.9733053,49.7289517],[9.9788636,49.7227305],[9.9856794,49.7226197],[9.9854974,49.7197028],[9.9832519,49.7159591],[9.982125,49.7153774],[9.9823407,49.7134198],[9.9721311,49.7109717],[9.9715433,49.7115234],[9.9646352,49.7106974],[9.9629773,49.7106843],[9.962734,49.7127319],[9.9592929,49.7119693],[9.9583432,49.7138249],[9.9557108,49.7142089],[9.9530094,49.7142067],[9.9526046,49.7115798],[9.9483048,49.7108805],[9.9480249,49.7159441],[9.94712,49.7180266],[9.9436438,49.7212427],[9.9385937,49.7198881],[9.9364523,49.7224448],[9.9394883,49.7241859],[9.9368864,49.7268387],[9.9393574,49.7275593],[9.9378865,49.7286191],[9.9384821,49.7288675],[9.9364342,49.7288071],[9.9367441,49.7300207],[9.933557,49.7303838],[9.9338671,49.7351619],[9.9317881,49.7353577],[9.9289019,49.7372502],[9.9226174,49.7386215],[9.9166029,49.7408642],[9.9117086,49.743895],[9.904747,49.7462064],[9.9024874,49.7475575],[9.8986542,49.7448994],[9.8948604,49.7442272],[9.8905378,49.7444413],[9.8896362,49.7450802],[9.8876799,49.7444714],[9.885416,49.7461236],[9.8824085,49.746863],[9.876735,49.7531338],[9.8808867,49.7561439],[9.8892959,49.7594194],[9.8920737,49.7623553],[9.8921831,49.7634885],[9.8935441,49.7650831],[9.8960174,49.7666354],[9.8962719,49.7682511],[9.8862728,49.7690051],[9.883235,49.7686641],[9.8747339,49.7661039],[9.8746838,49.7673638],[9.8766053,49.7685704],[9.8769459,49.7694451],[9.8744342,49.7715132],[9.8906588,49.775943],[9.8932907,49.7774062],[9.8935427,49.7777501],[9.8926976,49.7779625],[9.893251,49.7788559],[9.8927465,49.778933],[9.8939674,49.7801306],[9.8966365,49.7800581],[9.8997011,49.7812184],[9.9002166,49.7791353],[9.9030528,49.7773152],[9.906222,49.7773563],[9.9060356,49.7769569],[9.9099121,49.7756889],[9.9121419,49.7759724],[9.9091759,49.7794519],[9.9027062,49.7844081],[9.8993019,49.7857313],[9.8961993,49.7891956],[9.8878968,49.7914963],[9.8838627,49.7934393],[9.8810089,49.7959418],[9.8785164,49.7964144],[9.8778601,49.797304],[9.8749998,49.7950894],[9.8724287,49.7946355],[9.8716285,49.7971542]]]}}