{"type": "FeatureCollection", "features": [{"type": "Feature", "properties": {"name": "Oberfranken", "osm_display_name": "Oberfranken, Bayern, Deutschland", "osm_type": "relation", "osm_id": 17592, "simplified": "RDP eps=0.002 deg, 4 decimals, rings <0.0005 deg2 dropped"}, "geometry": {"type": "Polygon", "coordinates": [[[10.4401, 49.8451], [10.4618, 49.836], [10.4537, 49.832], [10.447, 49.8235], [10.4489, 49.8188], [10.461, 49.8087], [10.4694, 49.8103], [10.4746, 49.8067], [10.4722, 49.8103], [10.4756, 49.8126], [10.4859, 49.8042], [10.4664, 49.7916], [10.4696, 49.7865], [10.4933, 49.7878], [10.496, 49.7921], [10.5161, 49.803], [10.5198, 49.7993], [10.518, 49.7965], [10.5352, 49.794], [10.5348, 49.7899], [10.5262, 49.7887], [10.5247, 49.7854], [10.5362, 49.783], [10.5391, 49.7714], [10.5542, 49.7697], [10.5553, 49.7644], [10.5511, 49.7557], [10.6182, 49.739], [10.63, 49.7401], [10.6313, 49.7377], [10.6389, 49.7416], [10.6432, 49.737], [10.6421, 49.7326], [10.6543, 49.7211], [10.6712, 49.7224], [10.6697, 49.7272], [10.6784, 49.7305], [10.7018, 49.7316], [10.7048, 49.7352], [10.7012, 49.7355], [10.7044, 49.7384], [10.7029, 49.7408], [10.7079, 49.7474], [10.6912, 49.7455], [10.6883, 49.7521], [10.6807, 49.7524], [10.6719, 49.7581], [10.676, 49.7597], [10.6772, 49.7643], [10.6968, 49.7756], [10.7151, 49.7794], [10.715, 49.7879], [10.7324, 49.7835], [10.7494, 49.7725], [10.7578, 49.7725], [10.7692, 49.7664], [10.7758, 49.7673], [10.7935, 49.754], [10.7925, 49.7501], [10.801, 49.7479], [10.7998, 49.742], [10.8036, 49.7378], [10.8232, 49.7407], [10.8273, 49.7424], [10.8256, 49.7453], [10.829, 49.7496], [10.8539, 49.7554], [10.8565, 49.7588], [10.8702, 49.7575], [10.8714, 49.7548], [10.8779, 49.7564], [10.8756, 49.7606], [10.8776, 49.7665], [10.8706, 49.7706], [10.8937, 49.7763], [10.8988, 49.7725], [10.9037, 49.7735], [10.8999, 49.7783], [10.9148, 49.7802], [10.9209, 49.7854], [10.9321, 49.7855], [10.9168, 49.7773], [10.9187, 49.7722], [10.9321, 49.7662], [10.9211, 49.7631], [10.9134, 49.7654], [10.9144, 49.7618], [10.9278, 49.762], [10.9342, 49.7552], [10.9304, 49.7519], [10.9348, 49.7478], [10.9265, 49.7481], [10.919, 49.7432], [10.9237, 49.7388], [10.9206, 49.7379], [10.9324, 49.7287], [10.9307, 49.7268], [10.9412, 49.7294], [10.9512, 49.7176], [10.9624, 49.7168], [10.9558, 49.7119], [10.9404, 49.7163], [10.9453, 49.7117], [10.9301, 49.7149], [10.9328, 49.7091], [10.9227, 49.7142], [10.9245, 49.7114], [10.922, 49.7069], [10.9272, 49.7072], [10.9334, 49.7003], [10.9611, 49.6923], [10.9733, 49.692], [10.9766, 49.6841], [10.9736, 49.6806], [10.9805, 49.6833], [11.015, 49.6838], [11.0134, 49.6772], [11.0044, 49.6754], [11.0057, 49.6736], [11.033, 49.6716], [11.054, 49.6815], [11.048, 49.673], [11.0463, 49.668], [11.0502, 49.6669], [11.0463, 49.6624], [11.055, 49.6602], [11.0525, 49.6571], [11.0602, 49.6616], [11.0634, 49.6603], [11.0616, 49.6535], [11.0479, 49.6524], [11.0462, 49.6463], [11.0489, 49.6416], [11.0383, 49.6411], [11.0381, 49.6365], [11.031, 49.6386], [11.0214, 49.6328], [11.0262, 49.6308], [11.0249, 49.6274], [11.0378, 49.6237], [11.0446, 49.6334], [11.0548, 49.6329], [11.054, 49.637], [11.0606, 49.6379], [11.0686, 49.6333], [11.07, 49.628], [11.0802, 49.6265], [11.0787, 49.6236], [11.0811, 49.622], [11.0763, 49.6209], [11.0762, 49.616], [11.0875, 49.6001], [11.1072, 49.5998], [11.1001, 49.5973], [11.1054, 49.5975], [11.1088, 49.5885], [11.1423, 49.5901], [11.1501, 49.5872], [11.155, 49.5905], [11.1628, 49.5881], [11.1696, 49.5906], [11.1803, 49.5874], [11.1862, 49.5886], [11.1861, 49.5911], [11.2076, 49.5944], [11.2098, 49.5965], [11.2079, 49.6015], [11.2159, 49.6043], [11.2149, 49.6081], [11.2181, 49.6095], [11.226, 49.6082], [11.2302, 49.5985], [11.2527, 49.597], [11.253, 49.5948], [11.2602, 49.6022], [11.2583, 49.6041], [11.2641, 49.607], [11.2852, 49.6054], [11.2872, 49.6186], [11.2924, 49.6161], [11.3003, 49.6209], [11.2953, 49.6227], [11.3002, 49.6295], [11.2981, 49.6302], [11.3143, 49.6341], [11.3199, 49.6323], [11.3197, 49.6355], [11.3259, 49.6355], [11.3206, 49.6368], [11.3228, 49.6377], [11.3322, 49.6371], [11.3327, 49.6427], [11.3367, 49.6433], [11.3332, 49.6471], [11.3419, 49.6522], [11.3413, 49.6572], [11.3447, 49.6609], [11.3736, 49.6694], [11.3771, 49.6665], [11.371, 49.6588], [11.3784, 49.6593], [11.3818, 49.6548], [11.3876, 49.6541], [11.3885, 49.6483], [11.3945, 49.6425], [11.3912, 49.6418], [11.394, 49.6402], [11.3911, 49.6327], [11.3974, 49.6337], [11.3999, 49.6312], [11.3968, 49.6259], [11.4044, 49.6227], [11.4143, 49.626], [11.4133, 49.6216], [11.4265, 49.6139], [11.4316, 49.6187], [11.4294, 49.6227], [11.4331, 49.6258], [11.429, 49.628], [11.4562, 49.627], [11.4599, 49.6296], [11.4565, 49.6299], [11.4605, 49.6355], [11.4747, 49.6405], [11.4728, 49.6446], [11.481, 49.6445], [11.4887, 49.6397], [11.4933, 49.6466], [11.5075, 49.6467], [11.5139, 49.6498], [11.5373, 49.6431], [11.5357, 49.6443], [11.539, 49.6459], [11.5379, 49.643], [11.5446, 49.6416], [11.5429, 49.6439], [11.5467, 49.6404], [11.5573, 49.6424], [11.5564, 49.6468], [11.5598, 49.6471], [11.5607, 49.6509], [11.5574, 49.6599], [11.5647, 49.6645], [11.5609, 49.6712], [11.5564, 49.6725], [11.5583, 49.676], [11.5557, 49.6774], [11.5642, 49.6857], [11.5407, 49.6933], [11.5611, 49.6976], [11.555, 49.7043], [11.5606, 49.7067], [11.5579, 49.7135], [11.5643, 49.7238], [11.5541, 49.7286], [11.5575, 49.731], [11.5524, 49.7338], [11.5681, 49.7322], [11.5699, 49.7277], [11.5871, 49.7285], [11.5978, 49.7391], [11.599, 49.7448], [11.5939, 49.7533], [11.6338, 49.7614], [11.6294, 49.7628], [11.6324, 49.7655], [11.6287, 49.7639], [11.6303, 49.7738], [11.6331, 49.7715], [11.6468, 49.7765], [11.6452, 49.7861], [11.6341, 49.7878], [11.6405, 49.7957], [11.6381, 49.8018], [11.6446, 49.8074], [11.6467, 49.8043], [11.6497, 49.8062], [11.6589, 49.8021], [11.6732, 49.811], [11.6793, 49.8054], [11.6984, 49.8022], [11.6928, 49.8043], [11.7001, 49.8072], [11.7004, 49.82], [11.7235, 49.8183], [11.7213, 49.8275], [11.7274, 49.8277], [11.7263, 49.8316], [11.7392, 49.8349], [11.7336, 49.8392], [11.7428, 49.8383], [11.7474, 49.8411], [11.7522, 49.8376], [11.7626, 49.8385], [11.7614, 49.8348], [11.7712, 49.8412], [11.7873, 49.8376], [11.7853, 49.8359], [11.801, 49.8424], [11.804, 49.849], [11.8235, 49.845], [11.8247, 49.8416], [11.8274, 49.8418], [11.8263, 49.8446], [11.836, 49.8462], [11.8311, 49.8493], [11.8377, 49.8521], [11.8485, 49.8513], [11.8548, 49.8471], [11.8593, 49.849], [11.8619, 49.852], [11.8585, 49.8565], [11.8423, 49.8651], [11.8456, 49.8754], [11.839, 49.8787], [11.8543, 49.8865], [11.852, 49.8876], [11.8549, 49.8923], [11.8478, 49.8919], [11.8497, 49.894], [11.8467, 49.8954], [11.8417, 49.8929], [11.8405, 49.8988], [11.8293, 49.899], [11.8262, 49.9005], [11.8281, 49.902], [11.8229, 49.9025], [11.8394, 49.9076], [11.8355, 49.9086], [11.8382, 49.9136], [11.8347, 49.916], [11.8282, 49.9345], [11.8223, 49.9354], [11.8209, 49.9309], [11.8119, 49.9329], [11.8167, 49.941], [11.8207, 49.9404], [11.8197, 49.9446], [11.8125, 49.9465], [11.8145, 49.9498], [11.8111, 49.9528], [11.8141, 49.956], [11.8112, 49.9611], [11.8141, 49.9636], [11.8164, 49.9606], [11.8298, 49.963], [11.8492, 49.9613], [11.8512, 49.9585], [11.8648, 49.9599], [11.8772, 49.9683], [11.9013, 49.9703], [11.9045, 49.9748], [11.9032, 49.9792], [11.9143, 49.9707], [11.9669, 49.9786], [11.9774, 49.9834], [11.9845, 49.9803], [12.0117, 49.9822], [12.0173, 49.9847], [12.0132, 49.988], [12.016, 49.9917], [12.0196, 49.9896], [12.0204, 49.9838], [12.0256, 49.9852], [12.0255, 49.9806], [12.0284, 49.9837], [12.0272, 49.9875], [12.0357, 49.9867], [12.028, 49.9887], [12.0332, 49.9893], [12.0505, 49.9799], [12.0707, 49.9953], [12.0802, 49.9926], [12.0764, 49.9845], [12.0938, 49.9757], [12.1087, 49.9774], [12.1091, 49.9812], [12.1262, 49.9881], [12.1391, 49.9897], [12.1459, 49.987], [12.1468, 49.9931], [12.192, 50.0008], [12.1909, 49.9989], [12.1946, 49.9975], [12.1982, 49.9991], [12.1934, 50.0036], [12.2008, 50.0079], [12.1981, 50.033], [12.241, 50.0354], [12.2483, 50.044], [12.2577, 50.0488], [12.2566, 50.0538], [12.261, 50.0587], [12.2608, 50.0644], [12.2754, 50.0765], [12.2655, 50.079], [12.253, 50.0874], [12.2524, 50.0916], [12.2461, 50.0924], [12.2467, 50.0975], [12.2314, 50.0943], [12.2274, 50.0971], [12.2287, 50.1024], [12.2105, 50.1017], [12.2006, 50.1089], [12.2026, 50.1154], [12.1963, 50.1229], [12.1952, 50.1432], [12.2036, 50.1457], [12.2013, 50.1483], [12.2035, 50.1506], [12.2001, 50.1515], [12.2114, 50.1589], [12.216, 50.1682], [12.2073, 50.1695], [12.2083, 50.1744], [12.2012, 50.1886], [12.1889, 50.1955], [12.1972, 50.199], [12.1827, 50.1992], [12.1862, 50.2031], [12.1783, 50.2048], [12.1754, 50.2128], [12.1597, 50.2112], [12.1579, 50.2145], [12.164, 50.218], [12.1603, 50.2198], [12.162, 50.2235], [12.1573, 50.2232], [12.1575, 50.2272], [12.1454, 50.2304], [12.1511, 50.2357], [12.142, 50.2337], [12.1413, 50.2305], [12.1269, 50.2324], [12.1089, 50.238], [12.1066, 50.2466], [12.0976, 50.2464], [12.0906, 50.2524], [12.1023, 50.2555], [12.0976, 50.2623], [12.1123, 50.2677], [12.1188, 50.2665], [12.1391, 50.2761], [12.1359, 50.2838], [12.123, 50.2907], [12.1192, 50.2988], [12.126, 50.3072], [12.1049, 50.3146], [12.0981, 50.3231], [12.0903, 50.3243], [12.0914, 50.3325], [12.08, 50.3269], [12.0642, 50.333], [12.0617, 50.3289], [12.0559, 50.3313], [12.0581, 50.3264], [12.0527, 50.3309], [12.0537, 50.3266], [12.0499, 50.3313], [12.046, 50.3312], [12.0489, 50.3238], [12.0379, 50.336], [12.0412, 50.3321], [12.0325, 50.3298], [12.0293, 50.3364], [12.031, 50.3391], [12.018, 50.3409], [12.014, 50.3441], [12.0149, 50.3477], [11.9968, 50.3467], [11.997, 50.3541], [11.9813, 50.3493], [11.9727, 50.3521], [11.9817, 50.3587], [11.9806, 50.3619], [11.9772, 50.3614], [11.9797, 50.3648], [11.9848, 50.3649], [11.9786, 50.3691], [11.9847, 50.3754], [11.9787, 50.3799], [11.9837, 50.3899], [11.9755, 50.3887], [11.9646, 50.3998], [11.9604, 50.3954], [11.9489, 50.3952], [11.9487, 50.4005], [11.9541, 50.4075], [11.9459, 50.4101], [11.9433, 50.4129], [11.9455, 50.4163], [11.9392, 50.4182], [11.9349, 50.4237], [11.9302, 50.421], [11.9189, 50.4248], [11.906, 50.4198], [11.9058, 50.4171], [11.8853, 50.4159], [11.8681, 50.4053], [11.866, 50.4008], [11.8575, 50.3993], [11.8523, 50.4018], [11.8245, 50.3897], [11.8183, 50.3938], [11.8278, 50.4], [11.8253, 50.4041], [11.8173, 50.4005], [11.798, 50.4171], [11.7927, 50.4184], [11.7862, 50.4152], [11.7804, 50.4188], [11.7723, 50.4113], [11.7513, 50.4147], [11.7632, 50.4065], [11.7609, 50.4051], [11.7445, 50.4105], [11.7273, 50.4004], [11.7139, 50.3966], [11.7075, 50.4038], [11.6841, 50.3928], [11.649, 50.3923], [11.6245, 50.3868], [11.5944, 50.4026], [11.5817, 50.3991], [11.5732, 50.4002], [11.5669, 50.3954], [11.5652, 50.3872], [11.5596, 50.3839], [11.5462, 50.3843], [11.5195, 50.374], [11.5185, 50.396], [11.4969, 50.3996], [11.4895, 50.3959], [11.4782, 50.401], [11.4794, 50.4072], [11.4884, 50.4162], [11.481, 50.425], [11.4819, 50.4317], [11.4637, 50.4323], [11.4609, 50.4287], [11.4448, 50.4237], [11.4436, 50.4207], [11.4514, 50.4313], [11.441, 50.4386], [11.4198, 50.4446], [11.4194, 50.4546], [11.4236, 50.4623], [11.4154, 50.4681], [11.4205, 50.4734], [11.4176, 50.4818], [11.4259, 50.4845], [11.4213, 50.486], [11.4224, 50.489], [11.4188, 50.4934], [11.4354, 50.4921], [11.4411, 50.5002], [11.4345, 50.504], [11.4276, 50.5139], [11.4003, 50.5159], [11.3962, 50.5196], [11.3877, 50.5157], [11.3702, 50.5232], [11.3578, 50.5199], [11.3467, 50.5214], [11.3432, 50.5188], [11.347, 50.5116], [11.3214, 50.5086], [11.3252, 50.4972], [11.3208, 50.4889], [11.3008, 50.4883], [11.3031, 50.4866], [11.2917, 50.4751], [11.2891, 50.4855], [11.2663, 50.4789], [11.257, 50.4818], [11.2473, 50.4779], [11.245, 50.4705], [11.2551, 50.4565], [11.2462, 50.4492], [11.2637, 50.4428], [11.268, 50.4346], [11.2667, 50.4225], [11.2692, 50.4193], [11.2584, 50.3998], [11.2705, 50.3943], [11.2645, 50.3914], [11.2642, 50.387], [11.2722, 50.3855], [11.2765, 50.3806], [11.2808, 50.3713], [11.2792, 50.367], [11.2841, 50.3607], [11.279, 50.3559], [11.2623, 50.3524], [11.2663, 50.3519], [11.2771, 50.336], [11.2613, 50.3379], [11.2625, 50.3252], [11.2564, 50.3223], [11.2705, 50.3071], [11.2604, 50.3001], [11.2514, 50.299], [11.2541, 50.2967], [11.2519, 50.2934], [11.2597, 50.2898], [11.2573, 50.2883], [11.2606, 50.2872], [11.2623, 50.2745], [11.2521, 50.2675], [11.2481, 50.2668], [11.2355, 50.2754], [11.2148, 50.2807], [11.2162, 50.284], [11.1978, 50.2918], [11.1903, 50.2816], [11.1913, 50.274], [11.188, 50.2692], [11.1735, 50.2709], [11.1839, 50.2811], [11.1645, 50.2829], [11.1583, 50.2891], [11.1543, 50.2835], [11.1517, 50.2861], [11.1453, 50.2853], [11.1409, 50.2893], [11.143, 50.2933], [11.1398, 50.293], [11.138, 50.2994], [11.1322, 50.3003], [11.1311, 50.309], [11.1385, 50.3163], [11.1582, 50.3239], [11.1595, 50.3302], [11.1363, 50.3495], [11.139, 50.3536], [11.1268, 50.3562], [11.1219, 50.3493], [11.1162, 50.3498], [11.1141, 50.3526], [11.1194, 50.3592], [11.1142, 50.3672], [11.0897, 50.366], [11.082, 50.354], [11.086, 50.3523], [11.0733, 50.3538], [11.043, 50.3448], [11.0369, 50.3452], [11.0301, 50.3514], [11.0434, 50.3524], [11.0315, 50.354], [11.0364, 50.3587], [11.0334, 50.3613], [10.9934, 50.3654], [10.9931, 50.3553], [10.9989, 50.3503], [10.9961, 50.3467], [10.9926, 50.3492], [10.9859, 50.3473], [10.9617, 50.3678], [10.9565, 50.3686], [10.9628, 50.3719], [10.9625, 50.377], [10.9597, 50.3753], [10.9486, 50.3815], [10.9496, 50.3837], [10.9372, 50.3922], [10.9118, 50.3852], [10.9087, 50.3873], [10.8932, 50.3802], [10.8848, 50.3887], [10.8872, 50.3926], [10.8782, 50.3931], [10.8732, 50.3967], [10.8606, 50.3876], [10.8305, 50.3927], [10.8201, 50.3848], [10.8109, 50.3841], [10.8044, 50.3792], [10.7858, 50.3853], [10.774, 50.3719], [10.7634, 50.3702], [10.7604, 50.3624], [10.7546, 50.3581], [10.7386, 50.363], [10.7153, 50.3637], [10.7178, 50.3555], [10.7123, 50.3545], [10.714, 50.3461], [10.7226, 50.3495], [10.7286, 50.3488], [10.7267, 50.3469], [10.7294, 50.3447], [10.7283, 50.3381], [10.715, 50.333], [10.716, 50.3208], [10.7367, 50.3142], [10.7418, 50.316], [10.7695, 50.2931], [10.7931, 50.2954], [10.8025, 50.292], [10.8042, 50.2796], [10.8264, 50.278], [10.8359, 50.2731], [10.8467, 50.276], [10.8452, 50.27], [10.8512, 50.2647], [10.8518, 50.2514], [10.8477, 50.2451], [10.836, 50.2421], [10.8358, 50.2393], [10.8244, 50.2375], [10.8074, 50.2402], [10.8005, 50.2516], [10.782, 50.2512], [10.7847, 50.2485], [10.7694, 50.2408], [10.7498, 50.2422], [10.7459, 50.2447], [10.7485, 50.2476], [10.7323, 50.2518], [10.727, 50.2484], [10.7302, 50.2445], [10.7259, 50.241], [10.727, 50.2307], [10.7624, 50.222], [10.754, 50.2132], [10.765, 50.2089], [10.7724, 50.1967], [10.7803, 50.1944], [10.7791, 50.1832], [10.7818, 50.1769], [10.7757, 50.1748], [10.7729, 50.1656], [10.7772, 50.1494], [10.7833, 50.1466], [10.7869, 50.1485], [10.7848, 50.151], [10.7904, 50.152], [10.7888, 50.1492], [10.7945, 50.1445], [10.7933, 50.1415], [10.804, 50.1412], [10.8024, 50.1467], [10.8104, 50.1493], [10.8122, 50.1463], [10.8188, 50.1496], [10.8416, 50.1441], [10.8468, 50.1469], [10.8471, 50.1495], [10.8419, 50.1519], [10.8437, 50.1547], [10.8522, 50.1576], [10.8611, 50.1506], [10.88, 50.1438], [10.8706, 50.1365], [10.8712, 50.1281], [10.8616, 50.1247], [10.8644, 50.1215], [10.8591, 50.1159], [10.8561, 50.1037], [10.8622, 50.0933], [10.8593, 50.0879], [10.8632, 50.082], [10.8597, 50.08], [10.8618, 50.0784], [10.8594, 50.0734], [10.8438, 50.0761], [10.837, 50.073], [10.8376, 50.0694], [10.832, 50.0649], [10.8383, 50.0609], [10.8324, 50.0564], [10.832, 50.0526], [10.839, 50.0499], [10.8351, 50.0484], [10.8379, 50.0467], [10.8363, 50.0448], [10.831, 50.0462], [10.8217, 50.0391], [10.8072, 50.0375], [10.7921, 50.0471], [10.7827, 50.0464], [10.7761, 50.0428], [10.7777, 50.0384], [10.7724, 50.0372], [10.7754, 50.0302], [10.7715, 50.0297], [10.7723, 50.0244], [10.7617, 50.0214], [10.7643, 50.0243], [10.7595, 50.0245], [10.7503, 50.02], [10.7532, 50.0128], [10.7652, 50.0134], [10.7648, 50.0004], [10.7532, 49.9935], [10.7406, 49.9917], [10.7483, 49.9871], [10.7529, 49.9771], [10.7605, 49.9735], [10.7614, 49.9683], [10.7571, 49.9681], [10.7534, 49.962], [10.7297, 49.9626], [10.7211, 49.9562], [10.7237, 49.9547], [10.7267, 49.9575], [10.7422, 49.9476], [10.7368, 49.9435], [10.7368, 49.9387], [10.7159, 49.932], [10.7188, 49.9264], [10.7132, 49.9245], [10.714, 49.9224], [10.7074, 49.925], [10.7065, 49.9206], [10.694, 49.9161], [10.6914, 49.9123], [10.6961, 49.9066], [10.7059, 49.9046], [10.695, 49.903], [10.6947, 49.9002], [10.6866, 49.8967], [10.6852, 49.8924], [10.694, 49.8902], [10.6842, 49.885], [10.685, 49.883], [10.679, 49.8835], [10.6783, 49.8874], [10.6689, 49.8862], [10.6688, 49.89], [10.6569, 49.8902], [10.6544, 49.8882], [10.6561, 49.8838], [10.6323, 49.8746], [10.6293, 49.8641], [10.6051, 49.8553], [10.5973, 49.8556], [10.5954, 49.8595], [10.6073, 49.8755], [10.5906, 49.8703], [10.5871, 49.8631], [10.5882, 49.8586], [10.5736, 49.8628], [10.5795, 49.8668], [10.5797, 49.8717], [10.5759, 49.8737], [10.5719, 49.8735], [10.5671, 49.8671], [10.5636, 49.8689], [10.5605, 49.8647], [10.5572, 49.8735], [10.5527, 49.8755], [10.5591, 49.8787], [10.5575, 49.8815], [10.5502, 49.8817], [10.5436, 49.8759], [10.5326, 49.8768], [10.52, 49.8731], [10.5062, 49.8772], [10.5025, 49.8714], [10.4594, 49.8788], [10.4555, 49.8707], [10.4529, 49.8722], [10.4492, 49.8554], [10.4444, 49.8491], [10.4475, 49.8485], [10.4401, 49.8451]]]}}, {"type": "Feature", "properties": {"name": "Mittelfranken", "osm_display_name": "Mittelfranken, Bayern, Deutschland", "osm_type": "relation", "osm_id": 17614, "simplified": "RDP eps=0.002 deg, 4 decimals, rings <0.0005 deg2 dropped"}, "geometry": {"type": "Polygon", "coordinates": [[[10.0695, 49.5925], [10.0727, 49.591], [10.0707, 49.5882], [10.0752, 49.5806], [10.0726, 49.5723], [10.0744, 49.5683], [10.0717, 49.5673], [10.0786, 49.565], [10.0765, 49.5634], [10.0837, 49.5547], [10.0839, 49.5422], [10.0874, 49.5423], [10.0919, 49.5344], [10.0886, 49.5337], [10.088, 49.5284], [10.0788, 49.5273], [10.0821, 49.52], [10.0779, 49.5188], [10.0835, 49.5145], [10.0797, 49.513], [10.0825, 49.5112], [10.1057, 49.5151], [10.1084, 49.5113], [10.1213, 49.511], [10.1207, 49.5073], [10.1173, 49.5072], [10.1186, 49.5043], [10.1034, 49.4986], [10.105, 49.4957], [10.1003, 49.4914], [10.1048, 49.4826], [10.108, 49.4828], [10.1114, 49.4779], [10.1163, 49.4788], [10.1149, 49.4739], [10.1195, 49.471], [10.1179, 49.4676], [10.1222, 49.4638], [10.1159, 49.4612], [10.105, 49.4631], [10.1076, 49.4595], [10.0979, 49.457], [10.0949, 49.4481], [10.1058, 49.4444], [10.1118, 49.4386], [10.1102, 49.4424], [10.1189, 49.4439], [10.1331, 49.4379], [10.1381, 49.4332], [10.1337, 49.4321], [10.1383, 49.4282], [10.1374, 49.4247], [10.1525, 49.4116], [10.1478, 49.4112], [10.1522, 49.4012], [10.1389, 49.4031], [10.1618, 49.3953], [10.161, 49.3904], [10.1463, 49.3883], [10.1446, 49.3836], [10.1217, 49.3879], [10.1119, 49.385], [10.1072, 49.3789], [10.1172, 49.3691], [10.1135, 49.3666], [10.1133, 49.3597], [10.1246, 49.3559], [10.1222, 49.3503], [10.1068, 49.3529], [10.1093, 49.3483], [10.1039, 49.347], [10.1032, 49.3414], [10.1083, 49.336], [10.1131, 49.3357], [10.1129, 49.3324], [10.1071, 49.3324], [10.1105, 49.3288], [10.1187, 49.329], [10.1231, 49.3246], [10.1398, 49.3271], [10.1454, 49.3164], [10.1315, 49.3051], [10.1323, 49.3004], [10.1383, 49.2915], [10.144, 49.2904], [10.1421, 49.2878], [10.1499, 49.288], [10.1493, 49.2847], [10.1566, 49.2811], [10.1532, 49.2819], [10.1449, 49.2752], [10.1449, 49.2717], [10.1494, 49.269], [10.1338, 49.2622], [10.1263, 49.2624], [10.1273, 49.2657], [10.1224, 49.2727], [10.1312, 49.2747], [10.1232, 49.2748], [10.1199, 49.2668], [10.1143, 49.2666], [10.116, 49.2589], [10.1191, 49.2577], [10.1093, 49.2578], [10.1259, 49.2559], [10.1272, 49.2534], [10.1304, 49.2542], [10.1294, 49.2563], [10.1331, 49.2532], [10.1198, 49.247], [10.1243, 49.2457], [10.1228, 49.2408], [10.1265, 49.2361], [10.1266, 49.2246], [10.1324, 49.2173], [10.1392, 49.216], [10.1405, 49.2088], [10.1257, 49.2108], [10.1274, 49.2042], [10.1311, 49.2031], [10.1249, 49.1989], [10.1301, 49.199], [10.127, 49.1973], [10.1291, 49.1956], [10.1351, 49.2002], [10.142, 49.1954], [10.157, 49.1926], [10.1528, 49.19], [10.1572, 49.1901], [10.1597, 49.183], [10.1673, 49.1812], [10.1681, 49.1782], [10.1813, 49.1826], [10.1812, 49.1767], [10.1773, 49.1732], [10.1856, 49.173], [10.1867, 49.1704], [10.1894, 49.1743], [10.188, 49.1697], [10.1952, 49.1699], [10.1926, 49.1676], [10.1996, 49.1602], [10.1968, 49.1558], [10.2051, 49.1556], [10.2129, 49.1628], [10.2181, 49.1635], [10.2186, 49.1601], [10.228, 49.1599], [10.232, 49.1564], [10.231, 49.1535], [10.2384, 49.1494], [10.2482, 49.1493], [10.2556, 49.1381], [10.2515, 49.134], [10.2571, 49.129], [10.2528, 49.13], [10.2511, 49.1262], [10.2431, 49.1257], [10.2372, 49.1203], [10.2251, 49.1202], [10.2296, 49.117], [10.2298, 49.1133], [10.2265, 49.1129], [10.2294, 49.1112], [10.2154, 49.1134], [10.2136, 49.101], [10.2074, 49.1009], [10.2108, 49.0969], [10.2078, 49.0994], [10.204, 49.0974], [10.2117, 49.0943], [10.2228, 49.0981], [10.228, 49.0892], [10.2335, 49.092], [10.2505, 49.0923], [10.2478, 49.0919], [10.2506, 49.0903], [10.2471, 49.0798], [10.2425, 49.0788], [10.2409, 49.0821], [10.234, 49.0763], [10.2354, 49.0739], [10.2456, 49.0744], [10.2583, 49.0702], [10.2592, 49.0651], [10.2655, 49.0617], [10.2565, 49.0615], [10.2569, 49.053], [10.255, 49.0542], [10.2519, 49.0496], [10.2557, 49.0446], [10.2506, 49.0433], [10.2503, 49.0404], [10.2549, 49.0387], [10.2658, 49.0453], [10.2772, 49.0426], [10.2744, 49.0408], [10.2771, 49.0383], [10.2847, 49.0365], [10.2885, 49.0402], [10.2855, 49.0423], [10.2952, 49.0425], [10.3043, 49.0383], [10.302, 49.0383], [10.3025, 49.0314], [10.3095, 49.0319], [10.3211, 49.0254], [10.3291, 49.0242], [10.3274, 49.0302], [10.3332, 49.0268], [10.3329, 49.032], [10.3369, 49.0274], [10.3501, 49.0283], [10.3511, 49.0221], [10.3458, 49.0205], [10.3455, 49.0174], [10.3576, 49.0115], [10.3541, 49.0047], [10.373, 49.0033], [10.376, 48.9996], [10.382, 48.9992], [10.3829, 48.9942], [10.3787, 48.9905], [10.3838, 48.9882], [10.3947, 48.9902], [10.4115, 48.9771], [10.4274, 48.9775], [10.4139, 48.981], [10.4305, 48.9809], [10.4329, 48.984], [10.4208, 48.9919], [10.425, 48.9942], [10.424, 48.9972], [10.4302, 48.9997], [10.4242, 49.004], [10.4335, 49.0046], [10.4345, 49.0016], [10.4523, 49.0074], [10.4522, 49.0115], [10.4581, 49.0076], [10.4696, 49.0118], [10.4834, 49.0086], [10.4894, 49.0118], [10.4977, 49.0094], [10.4994, 49.006], [10.5172, 49.0084], [10.5406, 49.0059], [10.5453, 49.0081], [10.5397, 49.0125], [10.5432, 49.015], [10.5391, 49.0219], [10.5543, 49.0231], [10.5451, 49.0253], [10.553, 49.0331], [10.5745, 49.0317], [10.5747, 49.0358], [10.5949, 49.0345], [10.6101, 49.0147], [10.6276, 49.0211], [10.6312, 49.0165], [10.6424, 49.0165], [10.6435, 49.011], [10.6372, 49.0032], [10.6389, 48.9983], [10.6288, 48.9957], [10.6297, 48.9923], [10.6441, 48.9855], [10.6405, 48.9814], [10.6563, 48.9858], [10.668, 48.984], [10.675, 48.9777], [10.6794, 48.9669], [10.6857, 48.9646], [10.6833, 48.9632], [10.6879, 48.9591], [10.6922, 48.9595], [10.6943, 48.9538], [10.689, 48.9442], [10.7016, 48.9435], [10.7006, 48.939], [10.6921, 48.9399], [10.6913, 48.9349], [10.6864, 48.9354], [10.685, 48.9296], [10.6706, 48.9238], [10.67, 48.9205], [10.6817, 48.9137], [10.6753, 48.911], [10.6979, 48.9077], [10.6966, 48.9044], [10.7071, 48.9081], [10.7113, 48.9003], [10.7231, 48.9006], [10.7347, 48.9145], [10.7371, 48.9205], [10.7346, 48.9241], [10.7538, 48.9251], [10.7652, 48.9163], [10.7764, 48.9162], [10.7786, 48.9201], [10.7745, 48.92], [10.7706, 48.9263], [10.7741, 48.9256], [10.7882, 48.94], [10.8036, 48.9436], [10.8062, 48.9488], [10.8175, 48.9493], [10.8143, 48.9458], [10.8173, 48.943], [10.812, 48.9369], [10.8255, 48.9312], [10.8272, 48.9212], [10.8326, 48.9131], [10.8276, 48.9159], [10.8205, 48.91], [10.8079, 48.9077], [10.8153, 48.9013], [10.8298, 48.8951], [10.8336, 48.8959], [10.8311, 48.9], [10.8364, 48.896], [10.8611, 48.8951], [10.8637, 48.8934], [10.8602, 48.8896], [10.855, 48.8904], [10.8573, 48.8887], [10.8531, 48.8851], [10.8707, 48.8828], [10.8681, 48.8756], [10.9058, 48.8823], [10.9177, 48.8756], [10.9147, 48.8735], [10.9256, 48.8728], [10.9314, 48.8626], [10.9473, 48.8644], [10.9629, 48.8583], [10.9661, 48.8606], [10.9627, 48.8614], [10.9661, 48.8629], [10.963, 48.8651], [10.9638, 48.8692], [10.974, 48.8787], [11.0081, 48.8864], [11.0185, 48.8846], [11.0318, 48.887], [11.0271, 48.8897], [11.0295, 48.8953], [11.0448, 48.9009], [11.0314, 48.9056], [11.0333, 48.9093], [11.0367, 48.9096], [11.0453, 48.902], [11.0501, 48.9083], [11.0586, 48.9094], [11.0583, 48.9132], [11.0716, 48.9113], [11.0729, 48.9178], [11.0627, 48.9269], [11.0509, 48.9319], [11.0711, 48.9501], [11.0703, 48.9536], [11.1013, 48.9662], [11.1422, 48.9651], [11.1393, 48.9682], [11.1441, 48.9704], [11.1448, 48.9731], [11.1409, 48.9733], [11.148, 48.9848], [11.1432, 48.9914], [11.1626, 48.996], [11.1634, 48.9992], [11.1554, 49.0026], [11.1647, 49.0043], [11.1599, 49.0079], [11.1633, 49.0148], [11.1755, 49.0177], [11.1856, 49.014], [11.1815, 49.0164], [11.1898, 49.0186], [11.1896, 49.0229], [11.1838, 49.0234], [11.186, 49.0268], [11.1795, 49.0259], [11.2019, 49.0475], [11.2095, 49.0459], [11.2166, 49.0509], [11.2248, 49.0481], [11.2255, 49.0517], [11.2473, 49.0472], [11.2554, 49.0528], [11.2489, 49.0458], [11.2512, 49.0434], [11.2534, 49.0453], [11.2517, 49.0398], [11.2558, 49.0377], [11.2552, 49.0344], [11.2696, 49.0279], [11.2656, 49.0273], [11.2669, 49.0173], [11.2637, 49.0178], [11.2668, 49.011], [11.2862, 49.0043], [11.2948, 49.0054], [11.2982, 49.0106], [11.2947, 49.0114], [11.2936, 49.0165], [11.2973, 49.0164], [11.3058, 49.0038], [11.3269, 48.998], [11.3328, 48.9995], [11.3353, 49.0077], [11.3426, 49.0073], [11.3426, 49.0139], [11.3513, 49.0165], [11.346, 49.0197], [11.3507, 49.0211], [11.3658, 49.014], [11.3814, 49.0171], [11.3791, 49.0217], [11.3849, 49.0233], [11.3865, 49.031], [11.4006, 49.0301], [11.4144, 49.035], [11.4072, 49.0379], [11.405, 49.0501], [11.4013, 49.0499], [11.4007, 49.0536], [11.4077, 49.0538], [11.4091, 49.0508], [11.424, 49.0514], [11.4266, 49.0517], [11.4256, 49.0555], [11.4118, 49.0631], [11.4142, 49.0617], [11.4127, 49.0592], [11.4039, 49.0586], [11.4037, 49.0616], [11.3974, 49.0649], [11.4003, 49.0665], [11.3964, 49.0669], [11.3968, 49.0719], [11.3867, 49.0748], [11.3889, 49.0785], [11.3813, 49.0784], [11.3835, 49.0831], [11.3787, 49.0838], [11.3772, 49.0889], [11.3669, 49.0917], [11.3529, 49.09], [11.3596, 49.0974], [11.3681, 49.0994], [11.3616, 49.0992], [11.359, 49.1129], [11.3537, 49.1155], [11.3552, 49.117], [11.3229, 49.119], [11.3254, 49.1249], [11.319, 49.1289], [11.3242, 49.1333], [11.3231, 49.1387], [11.3277, 49.1431], [11.3242, 49.1477], [11.3255, 49.1556], [11.319, 49.158], [11.3126, 49.1559], [11.3111, 49.1632], [11.3082, 49.1631], [11.3136, 49.1783], [11.2978, 49.184], [11.2865, 49.1828], [11.2865, 49.1874], [11.2693, 49.1886], [11.2716, 49.1962], [11.2622, 49.1966], [11.2622, 49.2006], [11.2664, 49.2013], [11.2628, 49.2115], [11.2919, 49.2105], [11.3028, 49.2074], [11.3119, 49.2071], [11.3122, 49.2097], [11.3223, 49.2028], [11.3147, 49.2145], [11.3108, 49.2141], [11.3029, 49.221], [11.3051, 49.2216], [11.2928, 49.2359], [11.3034, 49.2437], [11.2964, 49.2498], [11.2901, 49.2504], [11.2917, 49.2521], [11.2878, 49.2543], [11.2922, 49.2569], [11.2866, 49.2575], [11.2883, 49.2601], [11.2858, 49.2608], [11.2817, 49.2541], [11.2776, 49.2534], [11.273, 49.2575], [11.2773, 49.2596], [11.264, 49.2606], [11.2758, 49.2674], [11.2882, 49.2647], [11.292, 49.267], [11.285, 49.2673], [11.2888, 49.2688], [11.2746, 49.2739], [11.2599, 49.2739], [11.2464, 49.2695], [11.2411, 49.2714], [11.2388, 49.2761], [11.227, 49.2786], [11.2274, 49.2745], [11.2163, 49.2783], [11.2152, 49.2742], [11.2049, 49.2743], [11.203, 49.2767], [11.2165, 49.2885], [11.2157, 49.2924], [11.1979, 49.2901], [11.1859, 49.3003], [11.189, 49.3006], [11.1884, 49.3048], [11.2024, 49.3055], [11.2086, 49.3091], [11.2081, 49.3118], [11.2199, 49.3159], [11.2334, 49.3129], [11.2434, 49.3066], [11.25, 49.3083], [11.2518, 49.3161], [11.239, 49.321], [11.2409, 49.3245], [11.2468, 49.3252], [11.272, 49.3224], [11.2779, 49.3154], [11.2733, 49.313], [11.2907, 49.3132], [11.2897, 49.3157], [11.2928, 49.3172], [11.3021, 49.3131], [11.304, 49.3088], [11.317, 49.3087], [11.3262, 49.3025], [11.3288, 49.3073], [11.329, 49.3035], [11.3351, 49.303], [11.3365, 49.3055], [11.3333, 49.3083], [11.3427, 49.3111], [11.3461, 49.3146], [11.3451, 49.3196], [11.3594, 49.3184], [11.3677, 49.3214], [11.363, 49.3233], [11.3644, 49.3262], [11.3819, 49.3261], [11.3798, 49.331], [11.3852, 49.3335], [11.39, 49.3419], [11.3772, 49.3476], [11.3783, 49.3516], [11.3711, 49.3571], [11.3772, 49.3588], [11.3787, 49.356], [11.3762, 49.3542], [11.3787, 49.3532], [11.3848, 49.3584], [11.3938, 49.3568], [11.3992, 49.3644], [11.4064, 49.3653], [11.3945, 49.37], [11.4023, 49.3744], [11.4097, 49.3719], [11.4208, 49.3759], [11.4197, 49.3859], [11.4278, 49.3898], [11.4233, 49.3928], [11.4381, 49.3956], [11.4403, 49.3985], [11.4381, 49.4005], [11.443, 49.4014], [11.4439, 49.4058], [11.461, 49.4113], [11.4589, 49.4158], [11.4447, 49.4149], [11.4517, 49.4201], [11.4481, 49.4273], [11.4587, 49.4326], [11.4616, 49.4229], [11.4645, 49.4219], [11.4825, 49.4271], [11.4917, 49.419], [11.5051, 49.4187], [11.5093, 49.4172], [11.5089, 49.4147], [11.5372, 49.4091], [11.5449, 49.4095], [11.5591, 49.4163], [11.5555, 49.4288], [11.5573, 49.4331], [11.5683, 49.4457], [11.5803, 49.4528], [11.5962, 49.4738], [11.589, 49.4769], [11.5923, 49.4845], [11.5842, 49.4869], [11.5788, 49.4851], [11.5786, 49.4891], [11.5664, 49.4943], [11.5638, 49.4984], [11.5673, 49.5041], [11.5337, 49.5074], [11.5345, 49.5138], [11.5452, 49.5168], [11.5484, 49.5211], [11.5429, 49.5268], [11.5464, 49.5275], [11.5435, 49.5306], [11.5468, 49.5334], [11.5407, 49.5364], [11.5433, 49.5391], [11.5511, 49.5388], [11.5492, 49.5445], [11.5363, 49.5448], [11.5368, 49.5425], [11.5314, 49.5446], [11.5339, 49.5467], [11.515, 49.5485], [11.5177, 49.5515], [11.5109, 49.5533], [11.5164, 49.5543], [11.5132, 49.5572], [11.5271, 49.5598], [11.5251, 49.5634], [11.5307, 49.565], [11.5448, 49.5602], [11.5543, 49.5645], [11.5498, 49.5704], [11.5516, 49.5738], [11.5761, 49.5791], [11.5647, 49.585], [11.5644, 49.5894], [11.5706, 49.5924], [11.5686, 49.5974], [11.5595, 49.5937], [11.5567, 49.5956], [11.56, 49.5983], [11.5502, 49.6039], [11.5624, 49.6069], [11.5605, 49.6125], [11.5782, 49.6143], [11.5806, 49.6186], [11.5912, 49.6115], [11.6016, 49.6232], [11.5978, 49.6233], [11.6011, 49.6261], [11.5893, 49.6414], [11.5851, 49.6431], [11.5708, 49.6399], [11.5748, 49.6465], [11.5681, 49.6501], [11.563, 49.6601], [11.5757, 49.6643], [11.5738, 49.6691], [11.5602, 49.6786], [11.5653, 49.686], [11.544, 49.6925], [11.5439, 49.6947], [11.5631, 49.6961], [11.5576, 49.7025], [11.5584, 49.7063], [11.5621, 49.7065], [11.5588, 49.716], [11.5606, 49.7067], [11.555, 49.7043], [11.561, 49.6975], [11.5407, 49.6933], [11.5642, 49.6857], [11.5557, 49.6774], [11.5583, 49.676], [11.5564, 49.6725], [11.5609, 49.6712], [11.5647, 49.6645], [11.5574, 49.6599], [11.5607, 49.6509], [11.5598, 49.6471], [11.5564, 49.6468], [11.5571, 49.6423], [11.5467, 49.6404], [11.5429, 49.6439], [11.5446, 49.6416], [11.5379, 49.643], [11.539, 49.6459], [11.5357, 49.6443], [11.5373, 49.6431], [11.5139, 49.6498], [11.5075, 49.6467], [11.4933, 49.6466], [11.4887, 49.6397], [11.481, 49.6445], [11.4728, 49.6446], [11.4747, 49.6405], [11.4605, 49.6355], [11.4565, 49.6299], [11.4599, 49.6296], [11.4562, 49.627], [11.429, 49.628], [11.4331, 49.6258], [11.4294, 49.6227], [11.4316, 49.6187], [11.4265, 49.6139], [11.4133, 49.6216], [11.4143, 49.626], [11.4044, 49.6227], [11.3968, 49.6259], [11.3999, 49.6312], [11.3974, 49.6337], [11.3911, 49.6327], [11.394, 49.6402], [11.3912, 49.6418], [11.3945, 49.6425], [11.3885, 49.6483], [11.3876, 49.6541], [11.3818, 49.6548], [11.3784, 49.6593], [11.371, 49.6588], [11.3771, 49.6665], [11.3736, 49.6694], [11.3447, 49.6609], [11.3413, 49.6572], [11.3419, 49.6522], [11.3332, 49.6471], [11.3367, 49.6433], [11.3327, 49.6427], [11.3322, 49.6371], [11.3228, 49.6377], [11.3206, 49.6368], [11.3259, 49.6355], [11.3197, 49.6355], [11.3199, 49.6323], [11.3143, 49.6341], [11.2981, 49.6302], [11.3002, 49.6295], [11.2953, 49.6227], [11.3003, 49.6209], [11.2924, 49.6161], [11.2872, 49.6186], [11.2852, 49.6054], [11.2641, 49.607], [11.2583, 49.6041], [11.2602, 49.6022], [11.253, 49.5948], [11.2527, 49.597], [11.2302, 49.5985], [11.226, 49.6082], [11.2181, 49.6095], [11.2149, 49.6081], [11.2159, 49.6043], [11.2079, 49.6015], [11.2098, 49.5965], [11.2076, 49.5944], [11.1861, 49.5911], [11.1862, 49.5886], [11.1803, 49.5874], [11.1696, 49.5906], [11.1628, 49.5881], [11.155, 49.5905], [11.1501, 49.5872], [11.1423, 49.5901], [11.1088, 49.5885], [11.1054, 49.5975], [11.1001, 49.5973], [11.1072, 49.5998], [11.0875, 49.6001], [11.0762, 49.616], [11.0763, 49.6209], [11.0811, 49.622], [11.0787, 49.6236], [11.0802, 49.6265], [11.07, 49.628], [11.0686, 49.6333], [11.0606, 49.6379], [11.054, 49.637], [11.0548, 49.6329], [11.0446, 49.6334], [11.0378, 49.6237], [11.0249, 49.6274], [11.0262, 49.6308], [11.0214, 49.6328], [11.031, 49.6386], [11.0381, 49.6365], [11.0383, 49.6411], [11.0489, 49.6416], [11.0462, 49.6463], [11.0479, 49.6524], [11.0616, 49.6535], [11.0634, 49.6603], [11.0602, 49.6616], [11.0525, 49.6571], [11.055, 49.6602], [11.0463, 49.6624], [11.0502, 49.6669], [11.0463, 49.668], [11.048, 49.673], [11.054, 49.6815], [11.033, 49.6716], [11.0057, 49.6736], [11.0044, 49.6754], [11.0134, 49.6772], [11.015, 49.6838], [10.9805, 49.6833], [10.9736, 49.6806], [10.9766, 49.6841], [10.9733, 49.692], [10.9611, 49.6923], [10.9334, 49.7003], [10.9272, 49.7072], [10.922, 49.7069], [10.9245, 49.7114], [10.9227, 49.7142], [10.9328, 49.7091], [10.9301, 49.7149], [10.9453, 49.7117], [10.9404, 49.7163], [10.9558, 49.7119], [10.9624, 49.7168], [10.9512, 49.7176], [10.9412, 49.7294], [10.9307, 49.7268], [10.9324, 49.7287], [10.9206, 49.7379], [10.9237, 49.7388], [10.919, 49.7432], [10.9265, 49.7481], [10.9348, 49.7478], [10.9304, 49.7519], [10.9342, 49.7552], [10.9278, 49.762], [10.9144, 49.7618], [10.9134, 49.7654], [10.9211, 49.7631], [10.9321, 49.7662], [10.9187, 49.7722], [10.9168, 49.7773], [10.9321, 49.7855], [10.9209, 49.7854], [10.9148, 49.7802], [10.8999, 49.7783], [10.9037, 49.7735], [10.8988, 49.7725], [10.8937, 49.7763], [10.8706, 49.7706], [10.8776, 49.7665], [10.8756, 49.7606], [10.8779, 49.7564], [10.8714, 49.7548], [10.8702, 49.7575], [10.8565, 49.7588], [10.8539, 49.7554], [10.829, 49.7496], [10.8256, 49.7453], [10.8273, 49.7424], [10.8232, 49.7407], [10.8036, 49.7378], [10.7998, 49.742], [10.801, 49.7479], [10.7925, 49.7501], [10.7935, 49.754], [10.7898, 49.7545], [10.7837, 49.7627], [10.7758, 49.7673], [10.7649, 49.7675], [10.7578, 49.7725], [10.7492, 49.7726], [10.7207, 49.7882], [10.715, 49.7879], [10.7133, 49.783], [10.7156, 49.7801], [10.7107, 49.7765], [10.6975, 49.7759], [10.6722, 49.7586], [10.6807, 49.7524], [10.6883, 49.7521], [10.6912, 49.7455], [10.7079, 49.7474], [10.7029, 49.7408], [10.7044, 49.7384], [10.7012, 49.7355], [10.7048, 49.7352], [10.7018, 49.7316], [10.676, 49.7299], [10.6697, 49.7272], [10.6712, 49.7224], [10.6543, 49.7211], [10.6421, 49.7326], [10.6432, 49.737], [10.6388, 49.7416], [10.6313, 49.7377], [10.63, 49.7401], [10.6182, 49.739], [10.5469, 49.7566], [10.5399, 49.7531], [10.5266, 49.7554], [10.5078, 49.7518], [10.4963, 49.7532], [10.4913, 49.7428], [10.479, 49.7446], [10.4637, 49.7405], [10.4357, 49.7502], [10.423, 49.7363], [10.4222, 49.7313], [10.4181, 49.7309], [10.4217, 49.7451], [10.4178, 49.7402], [10.4115, 49.7431], [10.4071, 49.7365], [10.3988, 49.735], [10.3929, 49.7292], [10.3737, 49.7207], [10.3701, 49.7114], [10.3524, 49.7055], [10.3538, 49.7035], [10.3507, 49.7022], [10.3529, 49.7], [10.3435, 49.7003], [10.342, 49.7046], [10.3328, 49.6984], [10.3618, 49.691], [10.3656, 49.6934], [10.3678, 49.6904], [10.3762, 49.6909], [10.3826, 49.694], [10.3808, 49.6918], [10.3873, 49.6907], [10.3852, 49.685], [10.3764, 49.6837], [10.3755, 49.6892], [10.3694, 49.6862], [10.3676, 49.6813], [10.3602, 49.6807], [10.3577, 49.6776], [10.368, 49.672], [10.369, 49.6676], [10.3626, 49.6653], [10.368, 49.6632], [10.3662, 49.6618], [10.3698, 49.6576], [10.3792, 49.6504], [10.3878, 49.634], [10.365, 49.632], [10.36, 49.626], [10.3483, 49.6223], [10.3135, 49.6252], [10.3065, 49.6212], [10.3013, 49.6272], [10.2828, 49.6191], [10.2693, 49.6252], [10.2493, 49.6252], [10.2216, 49.6328], [10.2123, 49.6314], [10.2003, 49.6258], [10.1999, 49.6028], [10.1957, 49.6032], [10.1958, 49.5999], [10.175, 49.5994], [10.1722, 49.5877], [10.1578, 49.5941], [10.1485, 49.6118], [10.1322, 49.6112], [10.1164, 49.6213], [10.1103, 49.6215], [10.0996, 49.6191], [10.0993, 49.6125], [10.0899, 49.611], [10.0908, 49.6077], [10.0868, 49.608], [10.0864, 49.6027], [10.0822, 49.6024], [10.083, 49.5984], [10.0695, 49.5925]]]}}, {"type": "Feature", "properties": {"name": "Unterfranken", "osm_display_name": "Unterfranken, Deutschland", "osm_type": "relation", "osm_id": 17585, "simplified": "RDP eps=0.002 deg, 4 decimals, rings <0.0005 deg2 dropped"}, "geometry": {"type": "Polygon", "coordinates": [[[8.9764, 50.0507], [8.978, 50.0457], [8.9855, 50.0418], [9.011, 50.0458], [9.0295, 50.0409], [9.0325, 50.0366], [9.0305, 50.0217], [9.0394, 50.0104], [9.0352, 50.0043], [9.0381, 50.0002], [9.0511, 49.9946], [9.0452, 49.9881], [9.0311, 49.9886], [9.0229, 49.997], [9.0142, 49.9914], [9.0201, 49.9854], [9.0189, 49.9747], [9.0267, 49.9551], [9.0191, 49.9468], [9.0254, 49.9457], [9.0263, 49.9363], [9.0322, 49.9246], [9.0234, 49.9101], [9.032, 49.9095], [9.0314, 49.9013], [9.0357, 49.8994], [9.0378, 49.8922], [9.0376, 49.8781], [9.0505, 49.8673], [9.0332, 49.8666], [9.0338, 49.8604], [9.0437, 49.8555], [9.0432, 49.8501], [9.0361, 49.8464], [9.0378, 49.8426], [9.0416, 49.8399], [9.0434, 49.844], [9.0502, 49.8421], [9.0601, 49.8462], [9.0531, 49.8399], [9.0593, 49.841], [9.0561, 49.8346], [9.0652, 49.8318], [9.0704, 49.8333], [9.0853, 49.8477], [9.0898, 49.8411], [9.0778, 49.8346], [9.0869, 49.8266], [9.0772, 49.8184], [9.0863, 49.8066], [9.0906, 49.7907], [9.0943, 49.7901], [9.1082, 49.798], [9.1322, 49.7942], [9.1291, 49.7877], [9.1346, 49.7823], [9.1278, 49.7764], [9.1133, 49.7738], [9.1135, 49.7672], [9.1069, 49.7587], [9.1277, 49.7552], [9.1506, 49.7427], [9.1438, 49.737], [9.1346, 49.7164], [9.1212, 49.7146], [9.1238, 49.7064], [9.1273, 49.7067], [9.1277, 49.7003], [9.0896, 49.6932], [9.0887, 49.669], [9.1038, 49.66], [9.0995, 49.6534], [9.1019, 49.6417], [9.0924, 49.6354], [9.0815, 49.633], [9.0648, 49.6168], [9.0684, 49.6109], [9.0665, 49.6023], [9.0845, 49.6009], [9.1027, 49.5775], [9.1083, 49.5792], [9.1205, 49.5735], [9.1591, 49.5796], [9.1649, 49.5754], [9.1738, 49.5779], [9.1807, 49.5737], [9.1873, 49.5769], [9.1946, 49.5739], [9.2404, 49.5815], [9.2491, 49.5847], [9.2462, 49.5898], [9.2494, 49.5936], [9.2593, 49.5932], [9.2648, 49.6018], [9.2646, 49.6068], [9.2851, 49.6148], [9.2704, 49.6264], [9.2754, 49.6315], [9.2718, 49.6348], [9.2782, 49.6377], [9.2854, 49.6358], [9.2908, 49.644], [9.3065, 49.6507], [9.3041, 49.6549], [9.3432, 49.6443], [9.3668, 49.6584], [9.3715, 49.6512], [9.3837, 49.6428], [9.3927, 49.6459], [9.4061, 49.6455], [9.4165, 49.6538], [9.4195, 49.6589], [9.4119, 49.6609], [9.4128, 49.6629], [9.3969, 49.6719], [9.4122, 49.6755], [9.413, 49.6774], [9.4062, 49.6794], [9.4207, 49.6909], [9.4193, 49.6939], [9.4223, 49.6961], [9.4168, 49.7022], [9.4204, 49.7066], [9.4187, 49.7118], [9.4078, 49.7219], [9.4015, 49.7206], [9.3998, 49.7297], [9.3857, 49.7319], [9.3864, 49.7283], [9.3803, 49.7261], [9.3829, 49.719], [9.3807, 49.7054], [9.3576, 49.7042], [9.3533, 49.7073], [9.3526, 49.7167], [9.3443, 49.7187], [9.374, 49.728], [9.3415, 49.7342], [9.3229, 49.7311], [9.3165, 49.7353], [9.2961, 49.7387], [9.3175, 49.7404], [9.3229, 49.7436], [9.3228, 49.7494], [9.3135, 49.7598], [9.3163, 49.7683], [9.3517, 49.7693], [9.3705, 49.7792], [9.391, 49.7703], [9.4241, 49.7896], [9.4348, 49.7874], [9.4451, 49.7734], [9.4585, 49.7695], [9.4692, 49.7741], [9.4715, 49.7805], [9.4798, 49.7873], [9.5015, 49.7888], [9.5124, 49.7823], [9.5094, 49.7701], [9.5156, 49.7628], [9.5246, 49.761], [9.5362, 49.7674], [9.5445, 49.7669], [9.5512, 49.7615], [9.5547, 49.7471], [9.5641, 49.7443], [9.569, 49.7502], [9.5578, 49.7654], [9.5568, 49.7755], [9.5607, 49.7802], [9.58, 49.7842], [9.5765, 49.783], [9.5765, 49.7792], [9.5813, 49.7783], [9.6196, 49.7832], [9.6488, 49.7913], [9.652, 49.7806], [9.6451, 49.7787], [9.6449, 49.7751], [9.6507, 49.7658], [9.6376, 49.7549], [9.6375, 49.7516], [9.6455, 49.7469], [9.6388, 49.741], [9.6469, 49.7392], [9.6438, 49.7367], [9.6379, 49.738], [9.6364, 49.7315], [9.6255, 49.7316], [9.642, 49.7234], [9.6385, 49.7224], [9.641, 49.7204], [9.631, 49.7167], [9.6312, 49.7102], [9.6258, 49.705], [9.6318, 49.6997], [9.6323, 49.6932], [9.6495, 49.6915], [9.6533, 49.6871], [9.6761, 49.6934], [9.6741, 49.6967], [9.677, 49.7163], [9.6962, 49.7193], [9.7008, 49.7169], [9.7011, 49.7222], [9.7105, 49.727], [9.7194, 49.702], [9.7292, 49.6971], [9.7278, 49.6881], [9.7394, 49.6882], [9.751, 49.6968], [9.7529, 49.7101], [9.7685, 49.7189], [9.7869, 49.7217], [9.7916, 49.731], [9.7999, 49.731], [9.7959, 49.7263], [9.7963, 49.7211], [9.8207, 49.7105], [9.8234, 49.7047], [9.8327, 49.7022], [9.8323, 49.6957], [9.8354, 49.6922], [9.8295, 49.6884], [9.8371, 49.6829], [9.8407, 49.6836], [9.8301, 49.681], [9.8312, 49.679], [9.8233, 49.6722], [9.8256, 49.6675], [9.8224, 49.6647], [9.8317, 49.6607], [9.8294, 49.6596], [9.8339, 49.6563], [9.8296, 49.6542], [9.8304, 49.6506], [9.8367, 49.6458], [9.8555, 49.6415], [9.8577, 49.6324], [9.8638, 49.6278], [9.8644, 49.6218], [9.8677, 49.6213], [9.868, 49.6112], [9.8728, 49.61], [9.8574, 49.608], [9.8595, 49.603], [9.8415, 49.5948], [9.8488, 49.5777], [9.8406, 49.5745], [9.8384, 49.5695], [9.8103, 49.5569], [9.8181, 49.5588], [9.8181, 49.5558], [9.8277, 49.5516], [9.8406, 49.5506], [9.8501, 49.5453], [9.8593, 49.5459], [9.8605, 49.5535], [9.8666, 49.5575], [9.8646, 49.5678], [9.8742, 49.5717], [9.8751, 49.5785], [9.886, 49.5803], [9.8976, 49.5871], [9.9004, 49.5844], [9.9122, 49.5857], [9.9109, 49.5836], [9.914, 49.583], [9.905, 49.5774], [9.8979, 49.5626], [9.9212, 49.5634], [9.9251, 49.5601], [9.9206, 49.5545], [9.9274, 49.551], [9.9243, 49.5489], [9.921, 49.551], [9.9213, 49.5411], [9.9271, 49.536], [9.9237, 49.5241], [9.9169, 49.5192], [9.9251, 49.5087], [9.916, 49.4996], [9.9139, 49.4932], [9.929, 49.4839], [9.9517, 49.4805], [9.9725, 49.4859], [9.9757, 49.4853], [9.975, 49.481], [9.9923, 49.4863], [10.011, 49.483], [10.0201, 49.485], [10.0282, 49.504], [10.0478, 49.5068], [10.0526, 49.5098], [10.0515, 49.5144], [10.0573, 49.5169], [10.0549, 49.5212], [10.0501, 49.521], [10.0398, 49.5289], [10.0614, 49.5374], [10.0571, 49.5406], [10.0618, 49.5417], [10.0617, 49.5451], [10.0838, 49.5436], [10.0837, 49.5547], [10.0765, 49.5634], [10.0786, 49.565], [10.0717, 49.5673], [10.0744, 49.5683], [10.0726, 49.5723], [10.0752, 49.5806], [10.0707, 49.5882], [10.0727, 49.591], [10.0695, 49.5925], [10.083, 49.5984], [10.0822, 49.6024], [10.0864, 49.6027], [10.0868, 49.608], [10.0993, 49.6125], [10.0975, 49.6171], [10.1022, 49.6202], [10.1164, 49.6213], [10.1322, 49.6112], [10.1485, 49.6118], [10.1578, 49.5941], [10.1722, 49.5877], [10.175, 49.5994], [10.1958, 49.5999], [10.1957, 49.6032], [10.1999, 49.6028], [10.2003, 49.6258], [10.2123, 49.6314], [10.2216, 49.6328], [10.2493, 49.6252], [10.2693, 49.6252], [10.2828, 49.6191], [10.3013, 49.6272], [10.3065, 49.6212], [10.3135, 49.6252], [10.3483, 49.6223], [10.36, 49.626], [10.365, 49.632], [10.3878, 49.634], [10.3792, 49.6504], [10.3698, 49.6576], [10.3662, 49.6618], [10.368, 49.6632], [10.3626, 49.6653], [10.369, 49.6676], [10.368, 49.672], [10.3577, 49.6776], [10.3602, 49.6807], [10.3676, 49.6813], [10.3694, 49.6862], [10.3755, 49.6892], [10.3764, 49.6837], [10.3852, 49.685], [10.3873, 49.6907], [10.3808, 49.6918], [10.3826, 49.694], [10.3762, 49.6909], [10.3678, 49.6904], [10.3656, 49.6934], [10.3618, 49.691], [10.3328, 49.6984], [10.3388, 49.7042], [10.342, 49.7046], [10.3435, 49.7003], [10.3528, 49.7], [10.3507, 49.7022], [10.3538, 49.7035], [10.3524, 49.7055], [10.3701, 49.7114], [10.3737, 49.7207], [10.3929, 49.7292], [10.3988, 49.735], [10.4071, 49.7365], [10.4115, 49.7431], [10.4178, 49.7402], [10.4217, 49.7451], [10.4163, 49.7312], [10.4222, 49.7313], [10.423, 49.7363], [10.4357, 49.7502], [10.4637, 49.7405], [10.479, 49.7446], [10.4913, 49.7428], [10.4963, 49.7532], [10.5078, 49.7518], [10.5261, 49.7554], [10.5414, 49.7533], [10.5511, 49.7557], [10.5553, 49.7644], [10.5542, 49.7697], [10.5391, 49.7714], [10.5362, 49.783], [10.5248, 49.7852], [10.5262, 49.7887], [10.5348, 49.7899], [10.5349, 49.7944], [10.518, 49.7965], [10.5198, 49.7993], [10.5161, 49.803], [10.4897, 49.7866], [10.4734, 49.7854], [10.467, 49.7883], [10.4678, 49.7929], [10.4769, 49.7964], [10.481, 49.8029], [10.4861, 49.8035], [10.4756, 49.8126], [10.4722, 49.8103], [10.4746, 49.8067], [10.4694, 49.8103], [10.461, 49.8087], [10.4484, 49.8194], [10.447, 49.8235], [10.4537, 49.832], [10.4618, 49.836], [10.4401, 49.8451], [10.4475, 49.8485], [10.4444, 49.8491], [10.4492, 49.8554], [10.4529, 49.8722], [10.4555, 49.8707], [10.4594, 49.8788], [10.5025, 49.8714], [10.5062, 49.8772], [10.52, 49.8731], [10.5326, 49.8768], [10.5436, 49.8759], [10.5502, 49.8817], [10.5575, 49.8815], [10.5591, 49.8787], [10.5527, 49.8755], [10.5572, 49.8735], [10.5605, 49.8647], [10.5636, 49.8689], [10.5671, 49.8671], [10.5719, 49.8735], [10.5759, 49.8737], [10.5797, 49.8717], [10.5795, 49.8668], [10.5736, 49.8628], [10.5882, 49.8586], [10.5871, 49.8631], [10.5906, 49.8703], [10.6077, 49.8754], [10.5954, 49.8595], [10.5973, 49.8556], [10.6051, 49.8553], [10.6293, 49.8641], [10.6323, 49.8746], [10.6561, 49.8838], [10.6544, 49.8882], [10.6569, 49.8902], [10.6688, 49.89], [10.6689, 49.8862], [10.6783, 49.8874], [10.679, 49.8835], [10.685, 49.883], [10.6842, 49.885], [10.694, 49.8902], [10.6852, 49.8924], [10.6866, 49.8967], [10.6947, 49.9002], [10.695, 49.903], [10.7059, 49.9046], [10.6961, 49.9066], [10.6914, 49.9123], [10.694, 49.9161], [10.7065, 49.9206], [10.7074, 49.925], [10.714, 49.9224], [10.7132, 49.9245], [10.7188, 49.9264], [10.7159, 49.932], [10.7368, 49.9387], [10.7368, 49.9435], [10.7422, 49.9476], [10.7267, 49.9575], [10.7237, 49.9547], [10.7211, 49.9562], [10.7297, 49.9626], [10.7534, 49.962], [10.7571, 49.9681], [10.7614, 49.9683], [10.7605, 49.9735], [10.7529, 49.9771], [10.7483, 49.9871], [10.7406, 49.9917], [10.7532, 49.9935], [10.7648, 50.0004], [10.7652, 50.0134], [10.7532, 50.0128], [10.7499, 50.0195], [10.7586, 50.0243], [10.7643, 50.0243], [10.7617, 50.0214], [10.7723, 50.0244], [10.7715, 50.0297], [10.7754, 50.0302], [10.7724, 50.0372], [10.7777, 50.0384], [10.7761, 50.0428], [10.7827, 50.0464], [10.7921, 50.0471], [10.8072, 50.0375], [10.8217, 50.0391], [10.831, 50.0462], [10.8363, 50.0449], [10.8379, 50.0467], [10.8351, 50.0484], [10.839, 50.0499], [10.832, 50.0526], [10.8324, 50.0564], [10.8383, 50.0609], [10.832, 50.0649], [10.8376, 50.0694], [10.837, 50.073], [10.8438, 50.0761], [10.8594, 50.0734], [10.8618, 50.0784], [10.8597, 50.08], [10.8632, 50.082], [10.8593, 50.0879], [10.8622, 50.0933], [10.8561, 50.1037], [10.8591, 50.1159], [10.8644, 50.1215], [10.8616, 50.1247], [10.8691, 50.126], [10.8716, 50.1288], [10.8706, 50.1365], [10.8806, 50.1425], [10.8522, 50.1576], [10.8437, 50.1547], [10.8419, 50.1519], [10.8471, 50.1495], [10.8468, 50.1469], [10.8416, 50.1441], [10.8188, 50.1496], [10.8122, 50.1463], [10.8104, 50.1493], [10.8024, 50.1467], [10.804, 50.1412], [10.7933, 50.1415], [10.7945, 50.1445], [10.7888, 50.1492], [10.7904, 50.152], [10.7848, 50.151], [10.7869, 50.1485], [10.7833, 50.1466], [10.7772, 50.1494], [10.7729, 50.1656], [10.7757, 50.1748], [10.7818, 50.1769], [10.7791, 50.1832], [10.7803, 50.1944], [10.7724, 50.1967], [10.765, 50.2089], [10.754, 50.2132], [10.7624, 50.222], [10.746, 50.2277], [10.7294, 50.2303], [10.7312, 50.2129], [10.7195, 50.2044], [10.7096, 50.2102], [10.6958, 50.2117], [10.6874, 50.2191], [10.6869, 50.2259], [10.6698, 50.2211], [10.6579, 50.2235], [10.6623, 50.2269], [10.6598, 50.2314], [10.6363, 50.2231], [10.6121, 50.2241], [10.603, 50.2418], [10.5971, 50.2461], [10.6115, 50.2495], [10.6064, 50.2531], [10.6048, 50.2591], [10.5981, 50.2626], [10.6028, 50.2703], [10.6074, 50.2721], [10.5935, 50.2691], [10.5909, 50.2718], [10.5938, 50.2783], [10.6014, 50.2827], [10.5981, 50.2841], [10.5976, 50.2891], [10.605, 50.2931], [10.5967, 50.3066], [10.5923, 50.3082], [10.5945, 50.3136], [10.5922, 50.3168], [10.6009, 50.3341], [10.5832, 50.3323], [10.5579, 50.3392], [10.5504, 50.3461], [10.5542, 50.3566], [10.5446, 50.3643], [10.5371, 50.3624], [10.5317, 50.365], [10.5303, 50.3607], [10.5265, 50.3615], [10.524, 50.3547], [10.5184, 50.3543], [10.5147, 50.3499], [10.5127, 50.3598], [10.5036, 50.3531], [10.499, 50.3577], [10.4919, 50.3542], [10.4862, 50.3631], [10.4924, 50.3624], [10.4899, 50.3613], [10.4963, 50.3655], [10.4944, 50.3693], [10.4906, 50.3688], [10.488, 50.3741], [10.4913, 50.3751], [10.4734, 50.3725], [10.4671, 50.3777], [10.4635, 50.3762], [10.4582, 50.383], [10.4597, 50.3878], [10.4526, 50.3928], [10.4554, 50.3964], [10.4533, 50.4017], [10.4498, 50.4031], [10.4379, 50.4013], [10.4381, 50.3952], [10.4265, 50.3929], [10.4064, 50.3934], [10.3963, 50.3971], [10.3948, 50.3933], [10.3912, 50.3986], [10.3873, 50.3984], [10.3839, 50.4086], [10.3898, 50.4096], [10.395, 50.4184], [10.4011, 50.419], [10.4, 50.4221], [10.4041, 50.4249], [10.379, 50.4298], [10.3785, 50.4325], [10.3706, 50.4318], [10.3724, 50.4373], [10.3812, 50.4393], [10.3666, 50.4387], [10.3675, 50.4414], [10.3608, 50.4455], [10.3634, 50.4478], [10.3574, 50.4545], [10.3514, 50.4566], [10.3471, 50.4631], [10.336, 50.4658], [10.3414, 50.4831], [10.3331, 50.4868], [10.3307, 50.4944], [10.3063, 50.4922], [10.2919, 50.4961], [10.2744, 50.5057], [10.2671, 50.5042], [10.2565, 50.5129], [10.2518, 50.511], [10.2437, 50.5126], [10.2439, 50.5148], [10.2301, 50.5113], [10.2313, 50.5147], [10.2259, 50.5183], [10.2322, 50.531], [10.2246, 50.5298], [10.2213, 50.5386], [10.2083, 50.5406], [10.2043, 50.5446], [10.204, 50.5546], [10.1781, 50.552], [10.1746, 50.5461], [10.177, 50.5424], [10.1508, 50.5523], [10.1467, 50.5433], [10.1372, 50.5428], [10.1363, 50.5462], [10.1207, 50.5559], [10.1268, 50.5609], [10.1159, 50.5645], [10.1062, 50.5633], [10.0995, 50.5582], [10.0983, 50.552], [10.0939, 50.5535], [10.0942, 50.5484], [10.0899, 50.5448], [10.0742, 50.5394], [10.0683, 50.5299], [10.0734, 50.5269], [10.0666, 50.5288], [10.0518, 50.5191], [10.0397, 50.5157], [10.0421, 50.5086], [10.0371, 50.4999], [10.0412, 50.4951], [10.0343, 50.4902], [10.0364, 50.4875], [10.0313, 50.4864], [10.0335, 50.4812], [10.0218, 50.4752], [10.0184, 50.4665], [9.997, 50.4612], [9.9899, 50.4469], [9.9683, 50.4359], [9.9577, 50.4233], [9.9434, 50.4234], [9.9191, 50.4106], [9.8832, 50.3988], [9.8705, 50.4095], [9.86, 50.3975], [9.8472, 50.3993], [9.8379, 50.4056], [9.824, 50.4054], [9.8138, 50.4124], [9.8079, 50.4123], [9.8111, 50.4186], [9.8024, 50.4241], [9.7894, 50.4252], [9.7805, 50.4183], [9.7699, 50.4257], [9.7603, 50.425], [9.7512, 50.4144], [9.7598, 50.4021], [9.7544, 50.3866], [9.7442, 50.3716], [9.746, 50.3661], [9.733, 50.3561], [9.7331, 50.3518], [9.7405, 50.3492], [9.7474, 50.3408], [9.7442, 50.3284], [9.7488, 50.325], [9.7438, 50.3199], [9.7474, 50.3134], [9.7393, 50.3025], [9.7287, 50.2954], [9.7134, 50.2915], [9.7034, 50.2807], [9.6545, 50.2714], [9.6486, 50.2661], [9.6484, 50.2618], [9.6375, 50.2507], [9.6679, 50.2396], [9.6636, 50.2341], [9.6546, 50.2324], [9.636, 50.2351], [9.6242, 50.2298], [9.6206, 50.224], [9.6042, 50.2218], [9.5941, 50.225], [9.5829, 50.2213], [9.5759, 50.2326], [9.5422, 50.2243], [9.5333, 50.2347], [9.5145, 50.2342], [9.5013, 50.2431], [9.4947, 50.2267], [9.5018, 50.2221], [9.5056, 50.2143], [9.5023, 50.2121], [9.5036, 50.2087], [9.5161, 50.1996], [9.5162, 50.1947], [9.5014, 50.193], [9.5027, 50.1885], [9.4981, 50.1756], [9.505, 50.1692], [9.5281, 50.168], [9.5312, 50.1609], [9.5224, 50.1505], [9.5074, 50.1455], [9.5126, 50.1239], [9.5195, 50.1132], [9.5194, 50.106], [9.513, 50.0995], [9.5129, 50.0943], [9.5, 50.0971], [9.4958, 50.0947], [9.4812, 50.0952], [9.461, 50.0897], [9.4453, 50.0898], [9.4361, 50.085], [9.4127, 50.0833], [9.3946, 50.0976], [9.3829, 50.1193], [9.3759, 50.126], [9.3764, 50.1305], [9.3423, 50.1314], [9.3273, 50.1412], [9.3074, 50.1333], [9.2941, 50.1394], [9.2765, 50.1427], [9.2593, 50.1386], [9.2215, 50.1495], [9.2187, 50.1465], [9.2118, 50.1467], [9.2102, 50.1428], [9.1832, 50.138], [9.1899, 50.1263], [9.1742, 50.1194], [9.1748, 50.1141], [9.1603, 50.1022], [9.1592, 50.1], [9.1625, 50.0982], [9.1487, 50.0903], [9.1421, 50.0954], [9.154, 50.1071], [9.1559, 50.1114], [9.1537, 50.1177], [9.1428, 50.1146], [9.1185, 50.1266], [9.0974, 50.1249], [9.0893, 50.117], [9.0771, 50.1159], [9.0715, 50.1195], [9.0184, 50.1115], [8.9977, 50.0927], [8.9993, 50.0693], [8.9914, 50.0684], [8.9764, 50.0507]]]}}]}